{"type":"FeatureCollection","features":[{"type":"Feature","properties":{"Line":"R126","Tr":2896,"X":"642300.5","Y":"9203931.5","Rotation":0,"NAMOBJ":"Daliwangun","WADMKC":"Sugio","WADMKK":"Lamongan"},"geometry":{"type":"Point","coordinates":[112.28880916,-7.20008698]}},{"type":"Feature","properties":{"Line":"R126","Tr":2897,"X":"642300.5","Y":"9203919.0","Rotation":0,"NAMOBJ":"Daliwangun","WADMKC":"Sugio","WADMKK":"Lamongan"},"geometry":{"type":"Point","coordinates":[112.28880948,-7.20020003]}},{"type":"Feature","properties":{"Line":"R126","Tr":2898,"X":"642300.5","Y":"9203906.5","Rotation":0,"NAMOBJ":"Daliwangun","WADMKC":"Sugio","WADMKK":"Lamongan"},"geometry":{"type":"Point","coordinates":[112.2888098,-7.20031307]}},{"type":"Feature","properties":{"Line":"R126","Tr":2899,"X":"642300.5","Y":"9203894.0","Rotation":0,"NAMOBJ":"Daliwangun","WADMKC":"Sugio","WADMKK":"Lamongan"},"geometry":{"type":"Point","coordinates":[112.28881012,-7.20042611]}},{"type":"Feature","properties":{"Line":"R126","Tr":2900,"X":"642300.5","Y":"9203881.5","Rotation":0,"NAMOBJ":"Daliwangun","WADMKC":"Sugio","WADMKK":"Lamongan"},"geometry":{"type":"Point","coordinates":[112.28881044,-7.20053916]}},{"type":"Feature","properties":{"Line":"R126","Tr":2901,"X":"642300.5","Y":"9203869.0","Rotation":0,"NAMOBJ":"Daliwangun","WADMKC":"Sugio","WADMKK":"Lamongan"},"geometry":{"type":"Point","coordinates":[112.28881076,-7.2006522]}},{"type":"Feature","properties":{"Line":"R126","Tr":2902,"X":"642300.5","Y":"9203856.5","Rotation":0,"NAMOBJ":"Daliwangun","WADMKC":"Sugio","WADMKK":"Lamongan"},"geometry":{"type":"Point","coordinates":[112.28881107,-7.20076525]}},{"type":"Feature","properties":{"Line":"R126","Tr":2903,"X":"642300.5","Y":"9203844.0","Rotation":0,"NAMOBJ":"Daliwangun","WADMKC":"Sugio","WADMKK":"Lamongan"},"geometry":{"type":"Point","coordinates":[112.28881139,-7.20087829]}},{"type":"Feature","properties":{"Line":"R126","Tr":2904,"X":"642300.5","Y":"9203831.5","Rotation":0,"NAMOBJ":"Daliwangun","WADMKC":"Sugio","WADMKK":"Lamongan"},"geometry":{"type":"Point","coordinates":[112.28881171,-7.20099134]}},{"type":"Feature","properties":{"Line":"R126","Tr":2905,"X":"642300.5","Y":"9203819.0","Rotation":0,"NAMOBJ":"Daliwangun","WADMKC":"Sugio","WADMKK":"Lamongan"},"geometry":{"type":"Point","coordinates":[112.28881203,-7.20110438]}},{"type":"Feature","properties":{"Line":"R126","Tr":2906,"X":"642300.5","Y":"9203806.5","Rotation":0,"NAMOBJ":"Daliwangun","WADMKC":"Sugio","WADMKK":"Lamongan"},"geometry":{"type":"Point","coordinates":[112.28881235,-7.20121743]}},{"type":"Feature","properties":{"Line":"R126","Tr":2907,"X":"642300.5","Y":"9203794.0","Rotation":0,"NAMOBJ":"Daliwangun","WADMKC":"Sugio","WADMKK":"Lamongan"},"geometry":{"type":"Point","coordinates":[112.28881267,-7.20133047]}},{"type":"Feature","properties":{"Line":"R126","Tr":2908,"X":"642300.5","Y":"9203781.5","Rotation":0,"NAMOBJ":"Daliwangun","WADMKC":"Sugio","WADMKK":"Lamongan"},"geometry":{"type":"Point","coordinates":[112.28881299,-7.20144352]}},{"type":"Feature","properties":{"Line":"R126","Tr":2909,"X":"642300.5","Y":"9203769.0","Rotation":0,"NAMOBJ":"Daliwangun","WADMKC":"Sugio","WADMKK":"Lamongan"},"geometry":{"type":"Point","coordinates":[112.28881331,-7.20155656]}},{"type":"Feature","properties":{"Line":"R126","Tr":2910,"X":"642300.5","Y":"9203756.5","Rotation":0,"NAMOBJ":"Daliwangun","WADMKC":"Sugio","WADMKK":"Lamongan"},"geometry":{"type":"Point","coordinates":[112.28881363,-7.20166961]}},{"type":"Feature","properties":{"Line":"R126","Tr":2911,"X":"642300.5","Y":"9203744.0","Rotation":0,"NAMOBJ":"Daliwangun","WADMKC":"Sugio","WADMKK":"Lamongan"},"geometry":{"type":"Point","coordinates":[112.28881395,-7.20178265]}},{"type":"Feature","properties":{"Line":"R126","Tr":2912,"X":"642300.5","Y":"9203731.5","Rotation":0,"NAMOBJ":"Daliwangun","WADMKC":"Sugio","WADMKK":"Lamongan"},"geometry":{"type":"Point","coordinates":[112.28881427,-7.2018957]}},{"type":"Feature","properties":{"Line":"R126","Tr":2913,"X":"642300.5","Y":"9203719.0","Rotation":0,"NAMOBJ":"Daliwangun","WADMKC":"Sugio","WADMKK":"Lamongan"},"geometry":{"type":"Point","coordinates":[112.28881459,-7.20200874]}},{"type":"Feature","properties":{"Line":"R126","Tr":2914,"X":"642300.5","Y":"9203706.5","Rotation":0,"NAMOBJ":"Daliwangun","WADMKC":"Sugio","WADMKK":"Lamongan"},"geometry":{"type":"Point","coordinates":[112.28881491,-7.20212179]}},{"type":"Feature","properties":{"Line":"R126","Tr":2915,"X":"642300.5","Y":"9203694.0","Rotation":0,"NAMOBJ":"Daliwangun","WADMKC":"Sugio","WADMKK":"Lamongan"},"geometry":{"type":"Point","coordinates":[112.28881522,-7.20223483]}},{"type":"Feature","properties":{"Line":"R126","Tr":2916,"X":"642300.5","Y":"9203681.5","Rotation":0,"NAMOBJ":"Daliwangun","WADMKC":"Sugio","WADMKK":"Lamongan"},"geometry":{"type":"Point","coordinates":[112.28881554,-7.20234788]}},{"type":"Feature","properties":{"Line":"R126","Tr":2917,"X":"642300.5","Y":"9203669.0","Rotation":0,"NAMOBJ":"Daliwangun","WADMKC":"Sugio","WADMKK":"Lamongan"},"geometry":{"type":"Point","coordinates":[112.28881586,-7.20246092]}},{"type":"Feature","properties":{"Line":"R126","Tr":2918,"X":"642300.5","Y":"9203656.5","Rotation":0,"NAMOBJ":"Daliwangun","WADMKC":"Sugio","WADMKK":"Lamongan"},"geometry":{"type":"Point","coordinates":[112.28881618,-7.20257397]}},{"type":"Feature","properties":{"Line":"R126","Tr":2919,"X":"642300.5","Y":"9203644.0","Rotation":0,"NAMOBJ":"Daliwangun","WADMKC":"Sugio","WADMKK":"Lamongan"},"geometry":{"type":"Point","coordinates":[112.2888165,-7.20268701]}},{"type":"Feature","properties":{"Line":"R126","Tr":2920,"X":"642300.5","Y":"9203631.5","Rotation":0,"NAMOBJ":"Daliwangun","WADMKC":"Sugio","WADMKK":"Lamongan"},"geometry":{"type":"Point","coordinates":[112.28881682,-7.20280006]}},{"type":"Feature","properties":{"Line":"R126","Tr":2921,"X":"642300.5","Y":"9203619.0","Rotation":0,"NAMOBJ":"Daliwangun","WADMKC":"Sugio","WADMKK":"Lamongan"},"geometry":{"type":"Point","coordinates":[112.28881714,-7.2029131]}},{"type":"Feature","properties":{"Line":"R126","Tr":2922,"X":"642300.5","Y":"9203606.5","Rotation":0,"NAMOBJ":"Daliwangun","WADMKC":"Sugio","WADMKK":"Lamongan"},"geometry":{"type":"Point","coordinates":[112.28881746,-7.20302614]}},{"type":"Feature","properties":{"Line":"R126","Tr":2923,"X":"642300.5","Y":"9203594.0","Rotation":0,"NAMOBJ":"Daliwangun","WADMKC":"Sugio","WADMKK":"Lamongan"},"geometry":{"type":"Point","coordinates":[112.28881778,-7.20313919]}},{"type":"Feature","properties":{"Line":"R126","Tr":2924,"X":"642300.5","Y":"9203581.5","Rotation":0,"NAMOBJ":"Daliwangun","WADMKC":"Sugio","WADMKK":"Lamongan"},"geometry":{"type":"Point","coordinates":[112.2888181,-7.20325223]}},{"type":"Feature","properties":{"Line":"R126","Tr":2925,"X":"642300.5","Y":"9203569.0","Rotation":0,"NAMOBJ":"Daliwangun","WADMKC":"Sugio","WADMKK":"Lamongan"},"geometry":{"type":"Point","coordinates":[112.28881842,-7.20336528]}},{"type":"Feature","properties":{"Line":"R126","Tr":2926,"X":"642300.5","Y":"9203556.5","Rotation":0,"NAMOBJ":"Daliwangun","WADMKC":"Sugio","WADMKK":"Lamongan"},"geometry":{"type":"Point","coordinates":[112.28881874,-7.20347832]}},{"type":"Feature","properties":{"Line":"R126","Tr":2927,"X":"642300.5","Y":"9203544.0","Rotation":0,"NAMOBJ":"Daliwangun","WADMKC":"Sugio","WADMKK":"Lamongan"},"geometry":{"type":"Point","coordinates":[112.28881906,-7.20359137]}},{"type":"Feature","properties":{"Line":"R126","Tr":2928,"X":"642300.5","Y":"9203531.5","Rotation":0,"NAMOBJ":"Daliwangun","WADMKC":"Sugio","WADMKK":"Lamongan"},"geometry":{"type":"Point","coordinates":[112.28881938,-7.20370441]}},{"type":"Feature","properties":{"Line":"R126","Tr":2929,"X":"642300.5","Y":"9203519.0","Rotation":0,"NAMOBJ":"Daliwangun","WADMKC":"Sugio","WADMKK":"Lamongan"},"geometry":{"type":"Point","coordinates":[112.28881969,-7.20381746]}},{"type":"Feature","properties":{"Line":"R126","Tr":2930,"X":"642300.5","Y":"9203506.5","Rotation":0,"NAMOBJ":"Daliwangun","WADMKC":"Sugio","WADMKK":"Lamongan"},"geometry":{"type":"Point","coordinates":[112.28882001,-7.2039305]}},{"type":"Feature","properties":{"Line":"R126","Tr":2931,"X":"642300.5","Y":"9203494.0","Rotation":0,"NAMOBJ":"Daliwangun","WADMKC":"Sugio","WADMKK":"Lamongan"},"geometry":{"type":"Point","coordinates":[112.28882033,-7.20404355]}},{"type":"Feature","properties":{"Line":"R126","Tr":2932,"X":"642300.5","Y":"9203481.5","Rotation":0,"NAMOBJ":"Daliwangun","WADMKC":"Sugio","WADMKK":"Lamongan"},"geometry":{"type":"Point","coordinates":[112.28882065,-7.20415659]}},{"type":"Feature","properties":{"Line":"R126","Tr":2933,"X":"642300.5","Y":"9203469.0","Rotation":0,"NAMOBJ":"Daliwangun","WADMKC":"Sugio","WADMKK":"Lamongan"},"geometry":{"type":"Point","coordinates":[112.28882097,-7.20426964]}},{"type":"Feature","properties":{"Line":"R126","Tr":2934,"X":"642300.5","Y":"9203456.5","Rotation":0,"NAMOBJ":"Daliwangun","WADMKC":"Sugio","WADMKK":"Lamongan"},"geometry":{"type":"Point","coordinates":[112.28882129,-7.20438268]}},{"type":"Feature","properties":{"Line":"R126","Tr":2935,"X":"642300.5","Y":"9203444.0","Rotation":0,"NAMOBJ":"Daliwangun","WADMKC":"Sugio","WADMKK":"Lamongan"},"geometry":{"type":"Point","coordinates":[112.28882161,-7.20449573]}},{"type":"Feature","properties":{"Line":"R126","Tr":2936,"X":"642300.5","Y":"9203431.5","Rotation":0,"NAMOBJ":"Daliwangun","WADMKC":"Sugio","WADMKK":"Lamongan"},"geometry":{"type":"Point","coordinates":[112.28882193,-7.20460877]}},{"type":"Feature","properties":{"Line":"R126","Tr":2937,"X":"642300.5","Y":"9203419.0","Rotation":0,"NAMOBJ":"Daliwangun","WADMKC":"Sugio","WADMKK":"Lamongan"},"geometry":{"type":"Point","coordinates":[112.28882225,-7.20472182]}},{"type":"Feature","properties":{"Line":"R126","Tr":2938,"X":"642300.5","Y":"9203406.5","Rotation":0,"NAMOBJ":"Daliwangun","WADMKC":"Sugio","WADMKK":"Lamongan"},"geometry":{"type":"Point","coordinates":[112.28882257,-7.20483486]}},{"type":"Feature","properties":{"Line":"R126","Tr":2939,"X":"642300.5","Y":"9203394.0","Rotation":0,"NAMOBJ":"Daliwangun","WADMKC":"Sugio","WADMKK":"Lamongan"},"geometry":{"type":"Point","coordinates":[112.28882289,-7.20494791]}},{"type":"Feature","properties":{"Line":"R126","Tr":2940,"X":"642300.5","Y":"9203381.5","Rotation":0,"NAMOBJ":"Daliwangun","WADMKC":"Sugio","WADMKK":"Lamongan"},"geometry":{"type":"Point","coordinates":[112.28882321,-7.20506095]}},{"type":"Feature","properties":{"Line":"R126","Tr":2941,"X":"642300.5","Y":"9203369.0","Rotation":0,"NAMOBJ":"Daliwangun","WADMKC":"Sugio","WADMKK":"Lamongan"},"geometry":{"type":"Point","coordinates":[112.28882353,-7.205174]}},{"type":"Feature","properties":{"Line":"R126","Tr":2942,"X":"642300.5","Y":"9203356.5","Rotation":0,"NAMOBJ":"Daliwangun","WADMKC":"Sugio","WADMKK":"Lamongan"},"geometry":{"type":"Point","coordinates":[112.28882385,-7.20528704]}},{"type":"Feature","properties":{"Line":"R126","Tr":2943,"X":"642300.5","Y":"9203344.0","Rotation":0,"NAMOBJ":"Daliwangun","WADMKC":"Sugio","WADMKK":"Lamongan"},"geometry":{"type":"Point","coordinates":[112.28882417,-7.20540009]}},{"type":"Feature","properties":{"Line":"R126","Tr":2944,"X":"642300.5","Y":"9203331.5","Rotation":0,"NAMOBJ":"Daliwangun","WADMKC":"Sugio","WADMKK":"Lamongan"},"geometry":{"type":"Point","coordinates":[112.28882449,-7.20551313]}},{"type":"Feature","properties":{"Line":"R126","Tr":2945,"X":"642300.5","Y":"9203319.0","Rotation":0,"NAMOBJ":"Daliwangun","WADMKC":"Sugio","WADMKK":"Lamongan"},"geometry":{"type":"Point","coordinates":[112.28882481,-7.20562617]}},{"type":"Feature","properties":{"Line":"R126","Tr":2946,"X":"642300.5","Y":"9203306.5","Rotation":0,"NAMOBJ":"Daliwangun","WADMKC":"Sugio","WADMKK":"Lamongan"},"geometry":{"type":"Point","coordinates":[112.28882512,-7.20573922]}},{"type":"Feature","properties":{"Line":"R126","Tr":2947,"X":"642300.5","Y":"9203294.0","Rotation":0,"NAMOBJ":"Daliwangun","WADMKC":"Sugio","WADMKK":"Lamongan"},"geometry":{"type":"Point","coordinates":[112.28882544,-7.20585226]}},{"type":"Feature","properties":{"Line":"R126","Tr":2948,"X":"642300.5","Y":"9203281.5","Rotation":0,"NAMOBJ":"Daliwangun","WADMKC":"Sugio","WADMKK":"Lamongan"},"geometry":{"type":"Point","coordinates":[112.28882576,-7.20596531]}},{"type":"Feature","properties":{"Line":"R126","Tr":2949,"X":"642300.5","Y":"9203269.0","Rotation":0,"NAMOBJ":"Daliwangun","WADMKC":"Sugio","WADMKK":"Lamongan"},"geometry":{"type":"Point","coordinates":[112.28882608,-7.20607835]}},{"type":"Feature","properties":{"Line":"R126","Tr":2950,"X":"642300.5","Y":"9203256.5","Rotation":0,"NAMOBJ":"Daliwangun","WADMKC":"Sugio","WADMKK":"Lamongan"},"geometry":{"type":"Point","coordinates":[112.2888264,-7.2061914]}},{"type":"Feature","properties":{"Line":"R126","Tr":2951,"X":"642300.5","Y":"9203244.0","Rotation":0,"NAMOBJ":"Daliwangun","WADMKC":"Sugio","WADMKK":"Lamongan"},"geometry":{"type":"Point","coordinates":[112.28882672,-7.20630444]}},{"type":"Feature","properties":{"Line":"R126","Tr":2952,"X":"642300.5","Y":"9203231.5","Rotation":0,"NAMOBJ":"Daliwangun","WADMKC":"Sugio","WADMKK":"Lamongan"},"geometry":{"type":"Point","coordinates":[112.28882704,-7.20641749]}},{"type":"Feature","properties":{"Line":"R126","Tr":2953,"X":"642300.5","Y":"9203219.0","Rotation":0,"NAMOBJ":"Daliwangun","WADMKC":"Sugio","WADMKK":"Lamongan"},"geometry":{"type":"Point","coordinates":[112.28882736,-7.20653053]}},{"type":"Feature","properties":{"Line":"R126","Tr":2954,"X":"642300.5","Y":"9203206.5","Rotation":0,"NAMOBJ":"Daliwangun","WADMKC":"Sugio","WADMKK":"Lamongan"},"geometry":{"type":"Point","coordinates":[112.28882768,-7.20664358]}},{"type":"Feature","properties":{"Line":"R126","Tr":2955,"X":"642300.5","Y":"9203194.0","Rotation":0,"NAMOBJ":"Daliwangun","WADMKC":"Sugio","WADMKK":"Lamongan"},"geometry":{"type":"Point","coordinates":[112.288828,-7.20675662]}},{"type":"Feature","properties":{"Line":"R126","Tr":2956,"X":"642300.5","Y":"9203181.5","Rotation":0,"NAMOBJ":"Daliwangun","WADMKC":"Sugio","WADMKK":"Lamongan"},"geometry":{"type":"Point","coordinates":[112.28882832,-7.20686967]}},{"type":"Feature","properties":{"Line":"R126","Tr":2957,"X":"642300.5","Y":"9203169.0","Rotation":0,"NAMOBJ":"Daliwangun","WADMKC":"Sugio","WADMKK":"Lamongan"},"geometry":{"type":"Point","coordinates":[112.28882864,-7.20698271]}},{"type":"Feature","properties":{"Line":"R126","Tr":2958,"X":"642300.5","Y":"9203156.5","Rotation":0,"NAMOBJ":"Daliwangun","WADMKC":"Sugio","WADMKK":"Lamongan"},"geometry":{"type":"Point","coordinates":[112.28882896,-7.20709576]}},{"type":"Feature","properties":{"Line":"R126","Tr":2959,"X":"642300.5","Y":"9203144.0","Rotation":0,"NAMOBJ":"Daliwangun","WADMKC":"Sugio","WADMKK":"Lamongan"},"geometry":{"type":"Point","coordinates":[112.28882928,-7.2072088]}},{"type":"Feature","properties":{"Line":"R126","Tr":2960,"X":"642300.5","Y":"9203131.5","Rotation":0,"NAMOBJ":"Daliwangun","WADMKC":"Sugio","WADMKK":"Lamongan"},"geometry":{"type":"Point","coordinates":[112.2888296,-7.20732185]}},{"type":"Feature","properties":{"Line":"R126","Tr":2961,"X":"642300.5","Y":"9203119.0","Rotation":0,"NAMOBJ":"Daliwangun","WADMKC":"Sugio","WADMKK":"Lamongan"},"geometry":{"type":"Point","coordinates":[112.28882992,-7.20743489]}},{"type":"Feature","properties":{"Line":"R126","Tr":2962,"X":"642300.5","Y":"9203106.5","Rotation":0,"NAMOBJ":"Daliwangun","WADMKC":"Sugio","WADMKK":"Lamongan"},"geometry":{"type":"Point","coordinates":[112.28883024,-7.20754794]}},{"type":"Feature","properties":{"Line":"R126","Tr":2963,"X":"642300.5","Y":"9203094.0","Rotation":0,"NAMOBJ":"Daliwangun","WADMKC":"Sugio","WADMKK":"Lamongan"},"geometry":{"type":"Point","coordinates":[112.28883056,-7.20766098]}},{"type":"Feature","properties":{"Line":"R126","Tr":2964,"X":"642300.5","Y":"9203081.5","Rotation":0,"NAMOBJ":"Daliwangun","WADMKC":"Sugio","WADMKK":"Lamongan"},"geometry":{"type":"Point","coordinates":[112.28883088,-7.20777403]}},{"type":"Feature","properties":{"Line":"R126","Tr":2965,"X":"642300.5","Y":"9203069.0","Rotation":0,"NAMOBJ":"Daliwangun","WADMKC":"Sugio","WADMKK":"Lamongan"},"geometry":{"type":"Point","coordinates":[112.28883119,-7.20788707]}},{"type":"Feature","properties":{"Line":"R126","Tr":2966,"X":"642300.5","Y":"9203056.5","Rotation":0,"NAMOBJ":"Daliwangun","WADMKC":"Sugio","WADMKK":"Lamongan"},"geometry":{"type":"Point","coordinates":[112.28883151,-7.20800011]}},{"type":"Feature","properties":{"Line":"R126","Tr":2967,"X":"642300.5","Y":"9203044.0","Rotation":0,"NAMOBJ":"Daliwangun","WADMKC":"Sugio","WADMKK":"Lamongan"},"geometry":{"type":"Point","coordinates":[112.28883183,-7.20811316]}},{"type":"Feature","properties":{"Line":"R126","Tr":2968,"X":"642300.5","Y":"9203031.5","Rotation":0,"NAMOBJ":"Daliwangun","WADMKC":"Sugio","WADMKK":"Lamongan"},"geometry":{"type":"Point","coordinates":[112.28883215,-7.2082262]}},{"type":"Feature","properties":{"Line":"R126","Tr":2969,"X":"642300.5","Y":"9203019.0","Rotation":0,"NAMOBJ":"Daliwangun","WADMKC":"Sugio","WADMKK":"Lamongan"},"geometry":{"type":"Point","coordinates":[112.28883247,-7.20833925]}},{"type":"Feature","properties":{"Line":"R126","Tr":2970,"X":"642300.5","Y":"9203006.5","Rotation":0,"NAMOBJ":"Daliwangun","WADMKC":"Sugio","WADMKK":"Lamongan"},"geometry":{"type":"Point","coordinates":[112.28883279,-7.20845229]}},{"type":"Feature","properties":{"Line":"R126","Tr":2971,"X":"642300.5","Y":"9202994.0","Rotation":0,"NAMOBJ":"Daliwangun","WADMKC":"Sugio","WADMKK":"Lamongan"},"geometry":{"type":"Point","coordinates":[112.28883311,-7.20856534]}},{"type":"Feature","properties":{"Line":"R126","Tr":2972,"X":"642300.5","Y":"9202981.5","Rotation":0,"NAMOBJ":"Daliwangun","WADMKC":"Sugio","WADMKK":"Lamongan"},"geometry":{"type":"Point","coordinates":[112.28883343,-7.20867838]}},{"type":"Feature","properties":{"Line":"R126","Tr":2973,"X":"642300.5","Y":"9202969.0","Rotation":0,"NAMOBJ":"Daliwangun","WADMKC":"Sugio","WADMKK":"Lamongan"},"geometry":{"type":"Point","coordinates":[112.28883375,-7.20879143]}},{"type":"Feature","properties":{"Line":"R126","Tr":2974,"X":"642300.5","Y":"9202956.5","Rotation":0,"NAMOBJ":"Daliwangun","WADMKC":"Sugio","WADMKK":"Lamongan"},"geometry":{"type":"Point","coordinates":[112.28883407,-7.20890447]}},{"type":"Feature","properties":{"Line":"R126","Tr":2975,"X":"642300.5","Y":"9202944.0","Rotation":0,"NAMOBJ":"Daliwangun","WADMKC":"Sugio","WADMKK":"Lamongan"},"geometry":{"type":"Point","coordinates":[112.28883439,-7.20901752]}},{"type":"Feature","properties":{"Line":"R126","Tr":2976,"X":"642300.5","Y":"9202931.5","Rotation":0,"NAMOBJ":"Daliwangun","WADMKC":"Sugio","WADMKK":"Lamongan"},"geometry":{"type":"Point","coordinates":[112.28883471,-7.20913056]}},{"type":"Feature","properties":{"Line":"R126","Tr":2977,"X":"642300.5","Y":"9202919.0","Rotation":0,"NAMOBJ":"Daliwangun","WADMKC":"Sugio","WADMKK":"Lamongan"},"geometry":{"type":"Point","coordinates":[112.28883503,-7.20924361]}},{"type":"Feature","properties":{"Line":"R126","Tr":2978,"X":"642300.5","Y":"9202906.5","Rotation":0,"NAMOBJ":"Daliwangun","WADMKC":"Sugio","WADMKK":"Lamongan"},"geometry":{"type":"Point","coordinates":[112.28883535,-7.20935665]}},{"type":"Feature","properties":{"Line":"R126","Tr":2979,"X":"642300.5","Y":"9202894.0","Rotation":0,"NAMOBJ":"Daliwangun","WADMKC":"Sugio","WADMKK":"Lamongan"},"geometry":{"type":"Point","coordinates":[112.28883567,-7.2094697]}},{"type":"Feature","properties":{"Line":"R126","Tr":2980,"X":"642300.5","Y":"9202881.5","Rotation":0,"NAMOBJ":"Daliwangun","WADMKC":"Sugio","WADMKK":"Lamongan"},"geometry":{"type":"Point","coordinates":[112.28883599,-7.20958274]}},{"type":"Feature","properties":{"Line":"R126","Tr":2981,"X":"642300.5","Y":"9202869.0","Rotation":0,"NAMOBJ":"Daliwangun","WADMKC":"Sugio","WADMKK":"Lamongan"},"geometry":{"type":"Point","coordinates":[112.28883631,-7.20969579]}},{"type":"Feature","properties":{"Line":"R126","Tr":2982,"X":"642300.5","Y":"9202856.5","Rotation":0,"NAMOBJ":"Daliwangun","WADMKC":"Sugio","WADMKK":"Lamongan"},"geometry":{"type":"Point","coordinates":[112.28883663,-7.20980883]}},{"type":"Feature","properties":{"Line":"R126","Tr":2983,"X":"642300.5","Y":"9202844.0","Rotation":0,"NAMOBJ":"Daliwangun","WADMKC":"Sugio","WADMKK":"Lamongan"},"geometry":{"type":"Point","coordinates":[112.28883695,-7.20992188]}},{"type":"Feature","properties":{"Line":"R126","Tr":2984,"X":"642300.5","Y":"9202831.5","Rotation":0,"NAMOBJ":"Daliwangun","WADMKC":"Sugio","WADMKK":"Lamongan"},"geometry":{"type":"Point","coordinates":[112.28883727,-7.21003492]}},{"type":"Feature","properties":{"Line":"R126","Tr":2985,"X":"642300.5","Y":"9202819.0","Rotation":0,"NAMOBJ":"Daliwangun","WADMKC":"Sugio","WADMKK":"Lamongan"},"geometry":{"type":"Point","coordinates":[112.28883759,-7.21014796]}},{"type":"Feature","properties":{"Line":"R126","Tr":2986,"X":"642300.5","Y":"9202806.5","Rotation":0,"NAMOBJ":"Daliwangun","WADMKC":"Sugio","WADMKK":"Lamongan"},"geometry":{"type":"Point","coordinates":[112.28883791,-7.21026101]}},{"type":"Feature","properties":{"Line":"R126","Tr":2987,"X":"642300.5","Y":"9202794.0","Rotation":0,"NAMOBJ":"Daliwangun","WADMKC":"Sugio","WADMKK":"Lamongan"},"geometry":{"type":"Point","coordinates":[112.28883823,-7.21037405]}},{"type":"Feature","properties":{"Line":"R126","Tr":2988,"X":"642300.5","Y":"9202781.5","Rotation":0,"NAMOBJ":"Daliwangun","WADMKC":"Sugio","WADMKK":"Lamongan"},"geometry":{"type":"Point","coordinates":[112.28883855,-7.2104871]}},{"type":"Feature","properties":{"Line":"R126","Tr":2989,"X":"642300.5","Y":"9202769.0","Rotation":0,"NAMOBJ":"Daliwangun","WADMKC":"Sugio","WADMKK":"Lamongan"},"geometry":{"type":"Point","coordinates":[112.28883886,-7.21060014]}},{"type":"Feature","properties":{"Line":"R126","Tr":2990,"X":"642300.5","Y":"9202756.5","Rotation":0,"NAMOBJ":"Daliwangun","WADMKC":"Sugio","WADMKK":"Lamongan"},"geometry":{"type":"Point","coordinates":[112.28883918,-7.21071319]}},{"type":"Feature","properties":{"Line":"R126","Tr":2991,"X":"642300.5","Y":"9202744.0","Rotation":0,"NAMOBJ":"Daliwangun","WADMKC":"Sugio","WADMKK":"Lamongan"},"geometry":{"type":"Point","coordinates":[112.2888395,-7.21082623]}},{"type":"Feature","properties":{"Line":"R126","Tr":2992,"X":"642300.5","Y":"9202731.5","Rotation":0,"NAMOBJ":"Daliwangun","WADMKC":"Sugio","WADMKK":"Lamongan"},"geometry":{"type":"Point","coordinates":[112.28883982,-7.21093928]}},{"type":"Feature","properties":{"Line":"R126","Tr":2993,"X":"642300.5","Y":"9202719.0","Rotation":0,"NAMOBJ":"Daliwangun","WADMKC":"Sugio","WADMKK":"Lamongan"},"geometry":{"type":"Point","coordinates":[112.28884014,-7.21105232]}},{"type":"Feature","properties":{"Line":"R126","Tr":2994,"X":"642300.5","Y":"9202706.5","Rotation":0,"NAMOBJ":"Daliwangun","WADMKC":"Sugio","WADMKK":"Lamongan"},"geometry":{"type":"Point","coordinates":[112.28884046,-7.21116537]}},{"type":"Feature","properties":{"Line":"R126","Tr":2995,"X":"642300.5","Y":"9202694.0","Rotation":0,"NAMOBJ":"Daliwangun","WADMKC":"Sugio","WADMKK":"Lamongan"},"geometry":{"type":"Point","coordinates":[112.28884078,-7.21127841]}},{"type":"Feature","properties":{"Line":"R126","Tr":2996,"X":"642300.5","Y":"9202681.5","Rotation":0,"NAMOBJ":"Daliwangun","WADMKC":"Sugio","WADMKK":"Lamongan"},"geometry":{"type":"Point","coordinates":[112.2888411,-7.21139146]}},{"type":"Feature","properties":{"Line":"R126","Tr":2997,"X":"642300.5","Y":"9202669.0","Rotation":0,"NAMOBJ":"Daliwangun","WADMKC":"Sugio","WADMKK":"Lamongan"},"geometry":{"type":"Point","coordinates":[112.28884142,-7.2115045]}},{"type":"Feature","properties":{"Line":"R126","Tr":2998,"X":"642300.5","Y":"9202656.5","Rotation":0,"NAMOBJ":"Daliwangun","WADMKC":"Sugio","WADMKK":"Lamongan"},"geometry":{"type":"Point","coordinates":[112.28884174,-7.21161755]}},{"type":"Feature","properties":{"Line":"R126","Tr":2999,"X":"642300.5","Y":"9202644.0","Rotation":0,"NAMOBJ":"Daliwangun","WADMKC":"Sugio","WADMKK":"Lamongan"},"geometry":{"type":"Point","coordinates":[112.28884206,-7.21173059]}},{"type":"Feature","properties":{"Line":"R126","Tr":3000,"X":"642300.5","Y":"9202631.5","Rotation":0,"NAMOBJ":"Daliwangun","WADMKC":"Sugio","WADMKK":"Lamongan"},"geometry":{"type":"Point","coordinates":[112.28884238,-7.21184364]}},{"type":"Feature","properties":{"Line":"R126","Tr":3001,"X":"642300.5","Y":"9202619.0","Rotation":0,"NAMOBJ":"Daliwangun","WADMKC":"Sugio","WADMKK":"Lamongan"},"geometry":{"type":"Point","coordinates":[112.2888427,-7.21195668]}},{"type":"Feature","properties":{"Line":"R126","Tr":3002,"X":"642300.5","Y":"9202606.5","Rotation":0,"NAMOBJ":"Daliwangun","WADMKC":"Sugio","WADMKK":"Lamongan"},"geometry":{"type":"Point","coordinates":[112.28884302,-7.21206973]}},{"type":"Feature","properties":{"Line":"R126","Tr":3003,"X":"642300.5","Y":"9202594.0","Rotation":0,"NAMOBJ":"Daliwangun","WADMKC":"Sugio","WADMKK":"Lamongan"},"geometry":{"type":"Point","coordinates":[112.28884334,-7.21218277]}},{"type":"Feature","properties":{"Line":"R126","Tr":3004,"X":"642300.5","Y":"9202581.5","Rotation":0,"NAMOBJ":"Daliwangun","WADMKC":"Sugio","WADMKK":"Lamongan"},"geometry":{"type":"Point","coordinates":[112.28884366,-7.21229581]}},{"type":"Feature","properties":{"Line":"R126","Tr":3005,"X":"642300.5","Y":"9202569.0","Rotation":0,"NAMOBJ":"Daliwangun","WADMKC":"Sugio","WADMKK":"Lamongan"},"geometry":{"type":"Point","coordinates":[112.28884398,-7.21240886]}},{"type":"Feature","properties":{"Line":"R126","Tr":3006,"X":"642300.5","Y":"9202556.5","Rotation":0,"NAMOBJ":"Daliwangun","WADMKC":"Sugio","WADMKK":"Lamongan"},"geometry":{"type":"Point","coordinates":[112.2888443,-7.2125219]}},{"type":"Feature","properties":{"Line":"R126","Tr":3007,"X":"642300.5","Y":"9202544.0","Rotation":0,"NAMOBJ":"Daliwangun","WADMKC":"Sugio","WADMKK":"Lamongan"},"geometry":{"type":"Point","coordinates":[112.28884462,-7.21263495]}},{"type":"Feature","properties":{"Line":"R126","Tr":3008,"X":"642300.5","Y":"9202531.5","Rotation":0,"NAMOBJ":"Daliwangun","WADMKC":"Sugio","WADMKK":"Lamongan"},"geometry":{"type":"Point","coordinates":[112.28884494,-7.21274799]}},{"type":"Feature","properties":{"Line":"R126","Tr":3009,"X":"642300.5","Y":"9202519.0","Rotation":0,"NAMOBJ":"Daliwangun","WADMKC":"Sugio","WADMKK":"Lamongan"},"geometry":{"type":"Point","coordinates":[112.28884526,-7.21286104]}},{"type":"Feature","properties":{"Line":"R126","Tr":3010,"X":"642300.5","Y":"9202506.5","Rotation":0,"NAMOBJ":"Daliwangun","WADMKC":"Sugio","WADMKK":"Lamongan"},"geometry":{"type":"Point","coordinates":[112.28884558,-7.21297408]}},{"type":"Feature","properties":{"Line":"R126","Tr":3011,"X":"642300.5","Y":"9202494.0","Rotation":0,"NAMOBJ":"Daliwangun","WADMKC":"Sugio","WADMKK":"Lamongan"},"geometry":{"type":"Point","coordinates":[112.2888459,-7.21308713]}},{"type":"Feature","properties":{"Line":"R126","Tr":3012,"X":"642300.5","Y":"9202481.5","Rotation":0,"NAMOBJ":"Daliwangun","WADMKC":"Sugio","WADMKK":"Lamongan"},"geometry":{"type":"Point","coordinates":[112.28884622,-7.21320017]}},{"type":"Feature","properties":{"Line":"R126","Tr":3013,"X":"642300.5","Y":"9202469.0","Rotation":0,"NAMOBJ":"Daliwangun","WADMKC":"Sugio","WADMKK":"Lamongan"},"geometry":{"type":"Point","coordinates":[112.28884654,-7.21331322]}},{"type":"Feature","properties":{"Line":"R126","Tr":3014,"X":"642300.5","Y":"9202456.5","Rotation":0,"NAMOBJ":"Daliwangun","WADMKC":"Sugio","WADMKK":"Lamongan"},"geometry":{"type":"Point","coordinates":[112.28884686,-7.21342626]}},{"type":"Feature","properties":{"Line":"R126","Tr":3015,"X":"642300.5","Y":"9202444.0","Rotation":0,"NAMOBJ":"Daliwangun","WADMKC":"Sugio","WADMKK":"Lamongan"},"geometry":{"type":"Point","coordinates":[112.28884718,-7.21353931]}},{"type":"Feature","properties":{"Line":"R126","Tr":3016,"X":"642300.5","Y":"9202431.5","Rotation":0,"NAMOBJ":"Daliwangun","WADMKC":"Sugio","WADMKK":"Lamongan"},"geometry":{"type":"Point","coordinates":[112.2888475,-7.21365235]}},{"type":"Feature","properties":{"Line":"R126","Tr":3017,"X":"642300.5","Y":"9202419.0","Rotation":0,"NAMOBJ":"Daliwangun","WADMKC":"Sugio","WADMKK":"Lamongan"},"geometry":{"type":"Point","coordinates":[112.28884782,-7.2137654]}},{"type":"Feature","properties":{"Line":"R126","Tr":3018,"X":"642300.5","Y":"9202406.5","Rotation":0,"NAMOBJ":"Daliwangun","WADMKC":"Sugio","WADMKK":"Lamongan"},"geometry":{"type":"Point","coordinates":[112.28884814,-7.21387844]}},{"type":"Feature","properties":{"Line":"R126","Tr":3019,"X":"642300.5","Y":"9202394.0","Rotation":0,"NAMOBJ":"Daliwangun","WADMKC":"Sugio","WADMKK":"Lamongan"},"geometry":{"type":"Point","coordinates":[112.28884846,-7.21399149]}},{"type":"Feature","properties":{"Line":"R126","Tr":3020,"X":"642300.5","Y":"9202381.5","Rotation":0,"NAMOBJ":"Daliwangun","WADMKC":"Sugio","WADMKK":"Lamongan"},"geometry":{"type":"Point","coordinates":[112.28884878,-7.21410453]}},{"type":"Feature","properties":{"Line":"R126","Tr":3021,"X":"642300.5","Y":"9202369.0","Rotation":0,"NAMOBJ":"Daliwangun","WADMKC":"Sugio","WADMKK":"Lamongan"},"geometry":{"type":"Point","coordinates":[112.2888491,-7.21421757]}},{"type":"Feature","properties":{"Line":"R126","Tr":3022,"X":"642300.5","Y":"9202356.5","Rotation":0,"NAMOBJ":"Daliwangun","WADMKC":"Sugio","WADMKK":"Lamongan"},"geometry":{"type":"Point","coordinates":[112.28884942,-7.21433062]}},{"type":"Feature","properties":{"Line":"R126","Tr":3023,"X":"642300.5","Y":"9202344.0","Rotation":0,"NAMOBJ":"Daliwangun","WADMKC":"Sugio","WADMKK":"Lamongan"},"geometry":{"type":"Point","coordinates":[112.28884974,-7.21444366]}},{"type":"Feature","properties":{"Line":"R126","Tr":3024,"X":"642300.5","Y":"9202331.5","Rotation":0,"NAMOBJ":"Daliwangun","WADMKC":"Sugio","WADMKK":"Lamongan"},"geometry":{"type":"Point","coordinates":[112.28885006,-7.21455671]}},{"type":"Feature","properties":{"Line":"R126","Tr":3025,"X":"642300.5","Y":"9202319.0","Rotation":0,"NAMOBJ":"Daliwangun","WADMKC":"Sugio","WADMKK":"Lamongan"},"geometry":{"type":"Point","coordinates":[112.28885038,-7.21466975]}},{"type":"Feature","properties":{"Line":"R126","Tr":3026,"X":"642300.5","Y":"9202306.5","Rotation":0,"NAMOBJ":"Daliwangun","WADMKC":"Sugio","WADMKK":"Lamongan"},"geometry":{"type":"Point","coordinates":[112.2888507,-7.2147828]}},{"type":"Feature","properties":{"Line":"R126","Tr":3027,"X":"642300.5","Y":"9202294.0","Rotation":0,"NAMOBJ":"Daliwangun","WADMKC":"Sugio","WADMKK":"Lamongan"},"geometry":{"type":"Point","coordinates":[112.28885102,-7.21489584]}},{"type":"Feature","properties":{"Line":"R126","Tr":3028,"X":"642300.5","Y":"9202281.5","Rotation":0,"NAMOBJ":"Daliwangun","WADMKC":"Sugio","WADMKK":"Lamongan"},"geometry":{"type":"Point","coordinates":[112.28885134,-7.21500889]}},{"type":"Feature","properties":{"Line":"R126","Tr":3029,"X":"642300.5","Y":"9202269.0","Rotation":0,"NAMOBJ":"Daliwangun","WADMKC":"Sugio","WADMKK":"Lamongan"},"geometry":{"type":"Point","coordinates":[112.28885166,-7.21512193]}},{"type":"Feature","properties":{"Line":"R126","Tr":3030,"X":"642300.5","Y":"9202256.5","Rotation":0,"NAMOBJ":"Daliwangun","WADMKC":"Sugio","WADMKK":"Lamongan"},"geometry":{"type":"Point","coordinates":[112.28885198,-7.21523498]}},{"type":"Feature","properties":{"Line":"R126","Tr":3031,"X":"642300.5","Y":"9202244.0","Rotation":0,"NAMOBJ":"Daliwangun","WADMKC":"Sugio","WADMKK":"Lamongan"},"geometry":{"type":"Point","coordinates":[112.28885229,-7.21534802]}},{"type":"Feature","properties":{"Line":"R126","Tr":3032,"X":"642300.5","Y":"9202231.5","Rotation":0,"NAMOBJ":"Daliwangun","WADMKC":"Sugio","WADMKK":"Lamongan"},"geometry":{"type":"Point","coordinates":[112.28885261,-7.21546107]}},{"type":"Feature","properties":{"Line":"R126","Tr":3033,"X":"642300.5","Y":"9202219.0","Rotation":0,"NAMOBJ":"Daliwangun","WADMKC":"Sugio","WADMKK":"Lamongan"},"geometry":{"type":"Point","coordinates":[112.28885293,-7.21557411]}},{"type":"Feature","properties":{"Line":"R126","Tr":3034,"X":"642300.5","Y":"9202206.5","Rotation":0,"NAMOBJ":"Daliwangun","WADMKC":"Sugio","WADMKK":"Lamongan"},"geometry":{"type":"Point","coordinates":[112.28885325,-7.21568716]}},{"type":"Feature","properties":{"Line":"R126","Tr":3035,"X":"642300.5","Y":"9202194.0","Rotation":0,"NAMOBJ":"Daliwangun","WADMKC":"Sugio","WADMKK":"Lamongan"},"geometry":{"type":"Point","coordinates":[112.28885357,-7.2158002]}},{"type":"Feature","properties":{"Line":"R126","Tr":3036,"X":"642300.5","Y":"9202181.5","Rotation":0,"NAMOBJ":"Daliwangun","WADMKC":"Sugio","WADMKK":"Lamongan"},"geometry":{"type":"Point","coordinates":[112.28885389,-7.21591325]}},{"type":"Feature","properties":{"Line":"R126","Tr":3037,"X":"642300.5","Y":"9202169.0","Rotation":0,"NAMOBJ":"Daliwangun","WADMKC":"Sugio","WADMKK":"Lamongan"},"geometry":{"type":"Point","coordinates":[112.28885421,-7.21602629]}},{"type":"Feature","properties":{"Line":"R126","Tr":3038,"X":"642300.5","Y":"9202156.5","Rotation":0,"NAMOBJ":"Daliwangun","WADMKC":"Sugio","WADMKK":"Lamongan"},"geometry":{"type":"Point","coordinates":[112.28885453,-7.21613934]}},{"type":"Feature","properties":{"Line":"R126","Tr":3039,"X":"642300.5","Y":"9202144.0","Rotation":0,"NAMOBJ":"Daliwangun","WADMKC":"Sugio","WADMKK":"Lamongan"},"geometry":{"type":"Point","coordinates":[112.28885485,-7.21625238]}},{"type":"Feature","properties":{"Line":"R126","Tr":3040,"X":"642300.5","Y":"9202131.5","Rotation":0,"NAMOBJ":"Daliwangun","WADMKC":"Sugio","WADMKK":"Lamongan"},"geometry":{"type":"Point","coordinates":[112.28885517,-7.21636542]}},{"type":"Feature","properties":{"Line":"R126","Tr":3041,"X":"642300.5","Y":"9202119.0","Rotation":0,"NAMOBJ":"Daliwangun","WADMKC":"Sugio","WADMKK":"Lamongan"},"geometry":{"type":"Point","coordinates":[112.28885549,-7.21647847]}},{"type":"Feature","properties":{"Line":"R126","Tr":3042,"X":"642300.5","Y":"9202106.5","Rotation":0,"NAMOBJ":"Daliwangun","WADMKC":"Sugio","WADMKK":"Lamongan"},"geometry":{"type":"Point","coordinates":[112.28885581,-7.21659151]}},{"type":"Feature","properties":{"Line":"R126","Tr":3043,"X":"642300.5","Y":"9202094.0","Rotation":0,"NAMOBJ":"Daliwangun","WADMKC":"Sugio","WADMKK":"Lamongan"},"geometry":{"type":"Point","coordinates":[112.28885613,-7.21670456]}},{"type":"Feature","properties":{"Line":"R126","Tr":3044,"X":"642300.5","Y":"9202081.5","Rotation":0,"NAMOBJ":"Daliwangun","WADMKC":"Sugio","WADMKK":"Lamongan"},"geometry":{"type":"Point","coordinates":[112.28885645,-7.2168176]}},{"type":"Feature","properties":{"Line":"R126","Tr":3045,"X":"642300.5","Y":"9202069.0","Rotation":0,"NAMOBJ":"Daliwangun","WADMKC":"Sugio","WADMKK":"Lamongan"},"geometry":{"type":"Point","coordinates":[112.28885677,-7.21693065]}},{"type":"Feature","properties":{"Line":"R126","Tr":3046,"X":"642300.5","Y":"9202056.5","Rotation":0,"NAMOBJ":"Daliwangun","WADMKC":"Sugio","WADMKK":"Lamongan"},"geometry":{"type":"Point","coordinates":[112.28885709,-7.21704369]}},{"type":"Feature","properties":{"Line":"R126","Tr":3047,"X":"642300.5","Y":"9202044.0","Rotation":0,"NAMOBJ":"Daliwangun","WADMKC":"Sugio","WADMKK":"Lamongan"},"geometry":{"type":"Point","coordinates":[112.28885741,-7.21715674]}},{"type":"Feature","properties":{"Line":"R126","Tr":3048,"X":"642300.5","Y":"9202031.5","Rotation":0,"NAMOBJ":"Daliwangun","WADMKC":"Sugio","WADMKK":"Lamongan"},"geometry":{"type":"Point","coordinates":[112.28885773,-7.21726978]}},{"type":"Feature","properties":{"Line":"R126","Tr":3049,"X":"642300.5","Y":"9202019.0","Rotation":0,"NAMOBJ":"Daliwangun","WADMKC":"Sugio","WADMKK":"Lamongan"},"geometry":{"type":"Point","coordinates":[112.28885805,-7.21738283]}},{"type":"Feature","properties":{"Line":"R126","Tr":3050,"X":"642300.5","Y":"9202006.5","Rotation":0,"NAMOBJ":"Daliwangun","WADMKC":"Sugio","WADMKK":"Lamongan"},"geometry":{"type":"Point","coordinates":[112.28885837,-7.21749587]}},{"type":"Feature","properties":{"Line":"R126","Tr":3051,"X":"642300.5","Y":"9201994.0","Rotation":0,"NAMOBJ":"Daliwangun","WADMKC":"Sugio","WADMKK":"Lamongan"},"geometry":{"type":"Point","coordinates":[112.28885869,-7.21760892]}},{"type":"Feature","properties":{"Line":"R126","Tr":3052,"X":"642300.5","Y":"9201981.5","Rotation":0,"NAMOBJ":"Daliwangun","WADMKC":"Sugio","WADMKK":"Lamongan"},"geometry":{"type":"Point","coordinates":[112.28885901,-7.21772196]}},{"type":"Feature","properties":{"Line":"R126","Tr":3053,"X":"642300.5","Y":"9201969.0","Rotation":0,"NAMOBJ":"Daliwangun","WADMKC":"Sugio","WADMKK":"Lamongan"},"geometry":{"type":"Point","coordinates":[112.28885933,-7.21783501]}},{"type":"Feature","properties":{"Line":"R126","Tr":3054,"X":"642300.5","Y":"9201956.5","Rotation":0,"NAMOBJ":"Daliwangun","WADMKC":"Sugio","WADMKK":"Lamongan"},"geometry":{"type":"Point","coordinates":[112.28885965,-7.21794805]}},{"type":"Feature","properties":{"Line":"R126","Tr":3055,"X":"642300.5","Y":"9201944.0","Rotation":0,"NAMOBJ":"Daliwangun","WADMKC":"Sugio","WADMKK":"Lamongan"},"geometry":{"type":"Point","coordinates":[112.28885997,-7.2180611]}},{"type":"Feature","properties":{"Line":"R126","Tr":3056,"X":"642300.5","Y":"9201931.5","Rotation":0,"NAMOBJ":"Daliwangun","WADMKC":"Sugio","WADMKK":"Lamongan"},"geometry":{"type":"Point","coordinates":[112.28886029,-7.21817414]}},{"type":"Feature","properties":{"Line":"R126","Tr":3057,"X":"642300.5","Y":"9201919.0","Rotation":0,"NAMOBJ":"Daliwangun","WADMKC":"Sugio","WADMKK":"Lamongan"},"geometry":{"type":"Point","coordinates":[112.28886061,-7.21828718]}},{"type":"Feature","properties":{"Line":"R126","Tr":3058,"X":"642300.5","Y":"9201906.5","Rotation":0,"NAMOBJ":"Daliwangun","WADMKC":"Sugio","WADMKK":"Lamongan"},"geometry":{"type":"Point","coordinates":[112.28886093,-7.21840023]}},{"type":"Feature","properties":{"Line":"R126","Tr":3059,"X":"642300.5","Y":"9201894.0","Rotation":0,"NAMOBJ":"Daliwangun","WADMKC":"Sugio","WADMKK":"Lamongan"},"geometry":{"type":"Point","coordinates":[112.28886125,-7.21851327]}},{"type":"Feature","properties":{"Line":"R126","Tr":3060,"X":"642300.5","Y":"9201881.5","Rotation":0,"NAMOBJ":"Daliwangun","WADMKC":"Sugio","WADMKK":"Lamongan"},"geometry":{"type":"Point","coordinates":[112.28886157,-7.21862632]}},{"type":"Feature","properties":{"Line":"R126","Tr":3061,"X":"642300.5","Y":"9201869.0","Rotation":0,"NAMOBJ":"Daliwangun","WADMKC":"Sugio","WADMKK":"Lamongan"},"geometry":{"type":"Point","coordinates":[112.28886189,-7.21873936]}},{"type":"Feature","properties":{"Line":"R126","Tr":3062,"X":"642300.5","Y":"9201856.5","Rotation":0,"NAMOBJ":"Daliwangun","WADMKC":"Sugio","WADMKK":"Lamongan"},"geometry":{"type":"Point","coordinates":[112.28886221,-7.21885241]}},{"type":"Feature","properties":{"Line":"R126","Tr":3063,"X":"642300.5","Y":"9201844.0","Rotation":0,"NAMOBJ":"Daliwangun","WADMKC":"Sugio","WADMKK":"Lamongan"},"geometry":{"type":"Point","coordinates":[112.28886253,-7.21896545]}},{"type":"Feature","properties":{"Line":"R126","Tr":3064,"X":"642300.5","Y":"9201831.5","Rotation":0,"NAMOBJ":"Daliwangun","WADMKC":"Sugio","WADMKK":"Lamongan"},"geometry":{"type":"Point","coordinates":[112.28886285,-7.2190785]}},{"type":"Feature","properties":{"Line":"R126","Tr":3065,"X":"642300.5","Y":"9201819.0","Rotation":0,"NAMOBJ":"Daliwangun","WADMKC":"Sugio","WADMKK":"Lamongan"},"geometry":{"type":"Point","coordinates":[112.28886317,-7.21919154]}},{"type":"Feature","properties":{"Line":"R126","Tr":3066,"X":"642300.5","Y":"9201806.5","Rotation":0,"NAMOBJ":"Daliwangun","WADMKC":"Sugio","WADMKK":"Lamongan"},"geometry":{"type":"Point","coordinates":[112.28886349,-7.21930459]}},{"type":"Feature","properties":{"Line":"R126","Tr":3067,"X":"642300.5","Y":"9201794.0","Rotation":0,"NAMOBJ":"Daliwangun","WADMKC":"Sugio","WADMKK":"Lamongan"},"geometry":{"type":"Point","coordinates":[112.28886381,-7.21941763]}},{"type":"Feature","properties":{"Line":"R126","Tr":3068,"X":"642300.5","Y":"9201781.5","Rotation":0,"NAMOBJ":"Daliwangun","WADMKC":"Sugio","WADMKK":"Lamongan"},"geometry":{"type":"Point","coordinates":[112.28886413,-7.21953068]}},{"type":"Feature","properties":{"Line":"R126","Tr":3069,"X":"642300.5","Y":"9201769.0","Rotation":0,"NAMOBJ":"Daliwangun","WADMKC":"Sugio","WADMKK":"Lamongan"},"geometry":{"type":"Point","coordinates":[112.28886445,-7.21964372]}},{"type":"Feature","properties":{"Line":"R126","Tr":3070,"X":"642300.5","Y":"9201756.5","Rotation":0,"NAMOBJ":"Daliwangun","WADMKC":"Sugio","WADMKK":"Lamongan"},"geometry":{"type":"Point","coordinates":[112.28886477,-7.21975677]}},{"type":"Feature","properties":{"Line":"R128","Tr":2880,"X":"643300.5","Y":"9203931.5","Rotation":0,"NAMOBJ":"Lawanganagung","WADMKC":"Sugio","WADMKK":"Lamongan"},"geometry":{"type":"Point","coordinates":[112.29786454,-7.20006139]}},{"type":"Feature","properties":{"Line":"R128","Tr":2881,"X":"643300.5","Y":"9203919.0","Rotation":0,"NAMOBJ":"Lawanganagung","WADMKC":"Sugio","WADMKK":"Lamongan"},"geometry":{"type":"Point","coordinates":[112.29786486,-7.20017443]}},{"type":"Feature","properties":{"Line":"R128","Tr":2882,"X":"643300.5","Y":"9203906.5","Rotation":0,"NAMOBJ":"Lawanganagung","WADMKC":"Sugio","WADMKK":"Lamongan"},"geometry":{"type":"Point","coordinates":[112.29786518,-7.20028748]}},{"type":"Feature","properties":{"Line":"R128","Tr":2883,"X":"643300.5","Y":"9203894.0","Rotation":0,"NAMOBJ":"Lawanganagung","WADMKC":"Sugio","WADMKK":"Lamongan"},"geometry":{"type":"Point","coordinates":[112.2978655,-7.20040052]}},{"type":"Feature","properties":{"Line":"R128","Tr":2884,"X":"643300.5","Y":"9203881.5","Rotation":0,"NAMOBJ":"Lawanganagung","WADMKC":"Sugio","WADMKK":"Lamongan"},"geometry":{"type":"Point","coordinates":[112.29786582,-7.20051357]}},{"type":"Feature","properties":{"Line":"R128","Tr":2885,"X":"643300.5","Y":"9203869.0","Rotation":0,"NAMOBJ":"Lawanganagung","WADMKC":"Sugio","WADMKK":"Lamongan"},"geometry":{"type":"Point","coordinates":[112.29786614,-7.20062661]}},{"type":"Feature","properties":{"Line":"R128","Tr":2886,"X":"643300.5","Y":"9203856.5","Rotation":0,"NAMOBJ":"Lawanganagung","WADMKC":"Sugio","WADMKK":"Lamongan"},"geometry":{"type":"Point","coordinates":[112.29786646,-7.20073966]}},{"type":"Feature","properties":{"Line":"R128","Tr":2887,"X":"643300.5","Y":"9203844.0","Rotation":0,"NAMOBJ":"Lawanganagung","WADMKC":"Sugio","WADMKK":"Lamongan"},"geometry":{"type":"Point","coordinates":[112.29786679,-7.2008527]}},{"type":"Feature","properties":{"Line":"R128","Tr":2888,"X":"643300.5","Y":"9203831.5","Rotation":0,"NAMOBJ":"Lawanganagung","WADMKC":"Sugio","WADMKK":"Lamongan"},"geometry":{"type":"Point","coordinates":[112.29786711,-7.20096575]}},{"type":"Feature","properties":{"Line":"R128","Tr":2889,"X":"643300.5","Y":"9203819.0","Rotation":0,"NAMOBJ":"Lawanganagung","WADMKC":"Sugio","WADMKK":"Lamongan"},"geometry":{"type":"Point","coordinates":[112.29786743,-7.20107879]}},{"type":"Feature","properties":{"Line":"R128","Tr":2890,"X":"643300.5","Y":"9203806.5","Rotation":0,"NAMOBJ":"Lawanganagung","WADMKC":"Sugio","WADMKK":"Lamongan"},"geometry":{"type":"Point","coordinates":[112.29786775,-7.20119183]}},{"type":"Feature","properties":{"Line":"R128","Tr":2891,"X":"643300.5","Y":"9203794.0","Rotation":0,"NAMOBJ":"Lawanganagung","WADMKC":"Sugio","WADMKK":"Lamongan"},"geometry":{"type":"Point","coordinates":[112.29786807,-7.20130488]}},{"type":"Feature","properties":{"Line":"R128","Tr":2892,"X":"643300.5","Y":"9203781.5","Rotation":0,"NAMOBJ":"Lawanganagung","WADMKC":"Sugio","WADMKK":"Lamongan"},"geometry":{"type":"Point","coordinates":[112.29786839,-7.20141792]}},{"type":"Feature","properties":{"Line":"R128","Tr":2893,"X":"643300.5","Y":"9203769.0","Rotation":0,"NAMOBJ":"Lawanganagung","WADMKC":"Sugio","WADMKK":"Lamongan"},"geometry":{"type":"Point","coordinates":[112.29786871,-7.20153097]}},{"type":"Feature","properties":{"Line":"R128","Tr":2894,"X":"643300.5","Y":"9203756.5","Rotation":0,"NAMOBJ":"Lawanganagung","WADMKC":"Sugio","WADMKK":"Lamongan"},"geometry":{"type":"Point","coordinates":[112.29786904,-7.20164401]}},{"type":"Feature","properties":{"Line":"R128","Tr":2895,"X":"643300.5","Y":"9203744.0","Rotation":0,"NAMOBJ":"Lawanganagung","WADMKC":"Sugio","WADMKK":"Lamongan"},"geometry":{"type":"Point","coordinates":[112.29786936,-7.20175706]}},{"type":"Feature","properties":{"Line":"R128","Tr":2896,"X":"643300.5","Y":"9203731.5","Rotation":0,"NAMOBJ":"Lawanganagung","WADMKC":"Sugio","WADMKK":"Lamongan"},"geometry":{"type":"Point","coordinates":[112.29786968,-7.2018701]}},{"type":"Feature","properties":{"Line":"R128","Tr":2897,"X":"643300.5","Y":"9203719.0","Rotation":0,"NAMOBJ":"Lawanganagung","WADMKC":"Sugio","WADMKK":"Lamongan"},"geometry":{"type":"Point","coordinates":[112.29787,-7.20198314]}},{"type":"Feature","properties":{"Line":"R128","Tr":2898,"X":"643300.5","Y":"9203706.5","Rotation":0,"NAMOBJ":"Lawanganagung","WADMKC":"Sugio","WADMKK":"Lamongan"},"geometry":{"type":"Point","coordinates":[112.29787032,-7.20209619]}},{"type":"Feature","properties":{"Line":"R128","Tr":2899,"X":"643300.5","Y":"9203694.0","Rotation":0,"NAMOBJ":"Lawanganagung","WADMKC":"Sugio","WADMKK":"Lamongan"},"geometry":{"type":"Point","coordinates":[112.29787064,-7.20220923]}},{"type":"Feature","properties":{"Line":"R128","Tr":2900,"X":"643300.5","Y":"9203681.5","Rotation":0,"NAMOBJ":"Lawanganagung","WADMKC":"Sugio","WADMKK":"Lamongan"},"geometry":{"type":"Point","coordinates":[112.29787097,-7.20232228]}},{"type":"Feature","properties":{"Line":"R128","Tr":2901,"X":"643300.5","Y":"9203669.0","Rotation":0,"NAMOBJ":"Lawanganagung","WADMKC":"Sugio","WADMKK":"Lamongan"},"geometry":{"type":"Point","coordinates":[112.29787129,-7.20243532]}},{"type":"Feature","properties":{"Line":"R128","Tr":2902,"X":"643300.5","Y":"9203656.5","Rotation":0,"NAMOBJ":"Lawanganagung","WADMKC":"Sugio","WADMKK":"Lamongan"},"geometry":{"type":"Point","coordinates":[112.29787161,-7.20254837]}},{"type":"Feature","properties":{"Line":"R128","Tr":2903,"X":"643300.5","Y":"9203644.0","Rotation":0,"NAMOBJ":"Lawanganagung","WADMKC":"Sugio","WADMKK":"Lamongan"},"geometry":{"type":"Point","coordinates":[112.29787193,-7.20266141]}},{"type":"Feature","properties":{"Line":"R128","Tr":2904,"X":"643300.5","Y":"9203631.5","Rotation":0,"NAMOBJ":"Lawanganagung","WADMKC":"Sugio","WADMKK":"Lamongan"},"geometry":{"type":"Point","coordinates":[112.29787225,-7.20277446]}},{"type":"Feature","properties":{"Line":"R128","Tr":2905,"X":"643300.5","Y":"9203619.0","Rotation":0,"NAMOBJ":"Lawanganagung","WADMKC":"Sugio","WADMKK":"Lamongan"},"geometry":{"type":"Point","coordinates":[112.29787257,-7.2028875]}},{"type":"Feature","properties":{"Line":"R128","Tr":2906,"X":"643300.5","Y":"9203606.5","Rotation":0,"NAMOBJ":"Lawanganagung","WADMKC":"Sugio","WADMKK":"Lamongan"},"geometry":{"type":"Point","coordinates":[112.29787289,-7.20300054]}},{"type":"Feature","properties":{"Line":"R128","Tr":2907,"X":"643300.5","Y":"9203594.0","Rotation":0,"NAMOBJ":"Lawanganagung","WADMKC":"Sugio","WADMKK":"Lamongan"},"geometry":{"type":"Point","coordinates":[112.29787322,-7.20311359]}},{"type":"Feature","properties":{"Line":"R128","Tr":2908,"X":"643300.5","Y":"9203581.5","Rotation":0,"NAMOBJ":"Lawanganagung","WADMKC":"Sugio","WADMKK":"Lamongan"},"geometry":{"type":"Point","coordinates":[112.29787354,-7.20322663]}},{"type":"Feature","properties":{"Line":"R128","Tr":2909,"X":"643300.5","Y":"9203569.0","Rotation":0,"NAMOBJ":"Lawanganagung","WADMKC":"Sugio","WADMKK":"Lamongan"},"geometry":{"type":"Point","coordinates":[112.29787386,-7.20333968]}},{"type":"Feature","properties":{"Line":"R128","Tr":2910,"X":"643300.5","Y":"9203556.5","Rotation":0,"NAMOBJ":"Lawanganagung","WADMKC":"Sugio","WADMKK":"Lamongan"},"geometry":{"type":"Point","coordinates":[112.29787418,-7.20345272]}},{"type":"Feature","properties":{"Line":"R128","Tr":2911,"X":"643300.5","Y":"9203544.0","Rotation":0,"NAMOBJ":"Lawanganagung","WADMKC":"Sugio","WADMKK":"Lamongan"},"geometry":{"type":"Point","coordinates":[112.2978745,-7.20356577]}},{"type":"Feature","properties":{"Line":"R128","Tr":2912,"X":"643300.5","Y":"9203531.5","Rotation":0,"NAMOBJ":"Lawanganagung","WADMKC":"Sugio","WADMKK":"Lamongan"},"geometry":{"type":"Point","coordinates":[112.29787482,-7.20367881]}},{"type":"Feature","properties":{"Line":"R128","Tr":2913,"X":"643300.5","Y":"9203519.0","Rotation":0,"NAMOBJ":"Lawanganagung","WADMKC":"Sugio","WADMKK":"Lamongan"},"geometry":{"type":"Point","coordinates":[112.29787515,-7.20379185]}},{"type":"Feature","properties":{"Line":"R128","Tr":2914,"X":"643300.5","Y":"9203506.5","Rotation":0,"NAMOBJ":"Lawanganagung","WADMKC":"Sugio","WADMKK":"Lamongan"},"geometry":{"type":"Point","coordinates":[112.29787547,-7.2039049]}},{"type":"Feature","properties":{"Line":"R128","Tr":2915,"X":"643300.5","Y":"9203494.0","Rotation":0,"NAMOBJ":"Lawanganagung","WADMKC":"Sugio","WADMKK":"Lamongan"},"geometry":{"type":"Point","coordinates":[112.29787579,-7.20401794]}},{"type":"Feature","properties":{"Line":"R128","Tr":2916,"X":"643300.5","Y":"9203481.5","Rotation":0,"NAMOBJ":"Lawanganagung","WADMKC":"Sugio","WADMKK":"Lamongan"},"geometry":{"type":"Point","coordinates":[112.29787611,-7.20413099]}},{"type":"Feature","properties":{"Line":"R128","Tr":2917,"X":"643300.5","Y":"9203469.0","Rotation":0,"NAMOBJ":"Lawanganagung","WADMKC":"Sugio","WADMKK":"Lamongan"},"geometry":{"type":"Point","coordinates":[112.29787643,-7.20424403]}},{"type":"Feature","properties":{"Line":"R128","Tr":2918,"X":"643300.5","Y":"9203456.5","Rotation":0,"NAMOBJ":"Lawanganagung","WADMKC":"Sugio","WADMKK":"Lamongan"},"geometry":{"type":"Point","coordinates":[112.29787675,-7.20435708]}},{"type":"Feature","properties":{"Line":"R128","Tr":2919,"X":"643300.5","Y":"9203444.0","Rotation":0,"NAMOBJ":"Lawanganagung","WADMKC":"Sugio","WADMKK":"Lamongan"},"geometry":{"type":"Point","coordinates":[112.29787708,-7.20447012]}},{"type":"Feature","properties":{"Line":"R128","Tr":2920,"X":"643300.5","Y":"9203431.5","Rotation":0,"NAMOBJ":"Lawanganagung","WADMKC":"Sugio","WADMKK":"Lamongan"},"geometry":{"type":"Point","coordinates":[112.2978774,-7.20458317]}},{"type":"Feature","properties":{"Line":"R128","Tr":2921,"X":"643300.5","Y":"9203419.0","Rotation":0,"NAMOBJ":"Lawanganagung","WADMKC":"Sugio","WADMKK":"Lamongan"},"geometry":{"type":"Point","coordinates":[112.29787772,-7.20469621]}},{"type":"Feature","properties":{"Line":"R128","Tr":2922,"X":"643300.5","Y":"9203406.5","Rotation":0,"NAMOBJ":"Lawanganagung","WADMKC":"Sugio","WADMKK":"Lamongan"},"geometry":{"type":"Point","coordinates":[112.29787804,-7.20480925]}},{"type":"Feature","properties":{"Line":"R128","Tr":2923,"X":"643300.5","Y":"9203394.0","Rotation":0,"NAMOBJ":"Lawanganagung","WADMKC":"Sugio","WADMKK":"Lamongan"},"geometry":{"type":"Point","coordinates":[112.29787836,-7.2049223]}},{"type":"Feature","properties":{"Line":"R128","Tr":2924,"X":"643300.5","Y":"9203381.5","Rotation":0,"NAMOBJ":"Lawanganagung","WADMKC":"Sugio","WADMKK":"Lamongan"},"geometry":{"type":"Point","coordinates":[112.29787868,-7.20503534]}},{"type":"Feature","properties":{"Line":"R128","Tr":2925,"X":"643300.5","Y":"9203369.0","Rotation":0,"NAMOBJ":"Lawanganagung","WADMKC":"Sugio","WADMKK":"Lamongan"},"geometry":{"type":"Point","coordinates":[112.297879,-7.20514839]}},{"type":"Feature","properties":{"Line":"R128","Tr":2926,"X":"643300.5","Y":"9203356.5","Rotation":0,"NAMOBJ":"Lawanganagung","WADMKC":"Sugio","WADMKK":"Lamongan"},"geometry":{"type":"Point","coordinates":[112.29787933,-7.20526143]}},{"type":"Feature","properties":{"Line":"R128","Tr":2927,"X":"643300.5","Y":"9203344.0","Rotation":0,"NAMOBJ":"Lawanganagung","WADMKC":"Sugio","WADMKK":"Lamongan"},"geometry":{"type":"Point","coordinates":[112.29787965,-7.20537448]}},{"type":"Feature","properties":{"Line":"R128","Tr":2928,"X":"643300.5","Y":"9203331.5","Rotation":0,"NAMOBJ":"Lawanganagung","WADMKC":"Sugio","WADMKK":"Lamongan"},"geometry":{"type":"Point","coordinates":[112.29787997,-7.20548752]}},{"type":"Feature","properties":{"Line":"R128","Tr":2929,"X":"643300.5","Y":"9203319.0","Rotation":0,"NAMOBJ":"Lawanganagung","WADMKC":"Sugio","WADMKK":"Lamongan"},"geometry":{"type":"Point","coordinates":[112.29788029,-7.20560056]}},{"type":"Feature","properties":{"Line":"R128","Tr":2930,"X":"643300.5","Y":"9203306.5","Rotation":0,"NAMOBJ":"Lawanganagung","WADMKC":"Sugio","WADMKK":"Lamongan"},"geometry":{"type":"Point","coordinates":[112.29788061,-7.20571361]}},{"type":"Feature","properties":{"Line":"R128","Tr":2931,"X":"643300.5","Y":"9203294.0","Rotation":0,"NAMOBJ":"Lawanganagung","WADMKC":"Sugio","WADMKK":"Lamongan"},"geometry":{"type":"Point","coordinates":[112.29788093,-7.20582665]}},{"type":"Feature","properties":{"Line":"R128","Tr":2932,"X":"643300.5","Y":"9203281.5","Rotation":0,"NAMOBJ":"Lawanganagung","WADMKC":"Sugio","WADMKK":"Lamongan"},"geometry":{"type":"Point","coordinates":[112.29788126,-7.2059397]}},{"type":"Feature","properties":{"Line":"R128","Tr":2933,"X":"643300.5","Y":"9203269.0","Rotation":0,"NAMOBJ":"Lawanganagung","WADMKC":"Sugio","WADMKK":"Lamongan"},"geometry":{"type":"Point","coordinates":[112.29788158,-7.20605274]}},{"type":"Feature","properties":{"Line":"R128","Tr":2934,"X":"643300.5","Y":"9203256.5","Rotation":0,"NAMOBJ":"Lawanganagung","WADMKC":"Sugio","WADMKK":"Lamongan"},"geometry":{"type":"Point","coordinates":[112.2978819,-7.20616579]}},{"type":"Feature","properties":{"Line":"R128","Tr":2935,"X":"643300.5","Y":"9203244.0","Rotation":0,"NAMOBJ":"Lawanganagung","WADMKC":"Sugio","WADMKK":"Lamongan"},"geometry":{"type":"Point","coordinates":[112.29788222,-7.20627883]}},{"type":"Feature","properties":{"Line":"R128","Tr":2936,"X":"643300.5","Y":"9203231.5","Rotation":0,"NAMOBJ":"Lawanganagung","WADMKC":"Sugio","WADMKK":"Lamongan"},"geometry":{"type":"Point","coordinates":[112.29788254,-7.20639187]}},{"type":"Feature","properties":{"Line":"R128","Tr":2937,"X":"643300.5","Y":"9203219.0","Rotation":0,"NAMOBJ":"Lawanganagung","WADMKC":"Sugio","WADMKK":"Lamongan"},"geometry":{"type":"Point","coordinates":[112.29788287,-7.20650492]}},{"type":"Feature","properties":{"Line":"R128","Tr":2938,"X":"643300.5","Y":"9203206.5","Rotation":0,"NAMOBJ":"Lawanganagung","WADMKC":"Sugio","WADMKK":"Lamongan"},"geometry":{"type":"Point","coordinates":[112.29788319,-7.20661796]}},{"type":"Feature","properties":{"Line":"R128","Tr":2939,"X":"643300.5","Y":"9203194.0","Rotation":0,"NAMOBJ":"Lawanganagung","WADMKC":"Sugio","WADMKK":"Lamongan"},"geometry":{"type":"Point","coordinates":[112.29788351,-7.20673101]}},{"type":"Feature","properties":{"Line":"R128","Tr":2940,"X":"643300.5","Y":"9203181.5","Rotation":0,"NAMOBJ":"Lawanganagung","WADMKC":"Sugio","WADMKK":"Lamongan"},"geometry":{"type":"Point","coordinates":[112.29788383,-7.20684405]}},{"type":"Feature","properties":{"Line":"R128","Tr":2941,"X":"643300.5","Y":"9203169.0","Rotation":0,"NAMOBJ":"Lawanganagung","WADMKC":"Sugio","WADMKK":"Lamongan"},"geometry":{"type":"Point","coordinates":[112.29788415,-7.2069571]}},{"type":"Feature","properties":{"Line":"R128","Tr":2942,"X":"643300.5","Y":"9203156.5","Rotation":0,"NAMOBJ":"Lawanganagung","WADMKC":"Sugio","WADMKK":"Lamongan"},"geometry":{"type":"Point","coordinates":[112.29788447,-7.20707014]}},{"type":"Feature","properties":{"Line":"R128","Tr":2943,"X":"643300.5","Y":"9203144.0","Rotation":0,"NAMOBJ":"Lawanganagung","WADMKC":"Sugio","WADMKK":"Lamongan"},"geometry":{"type":"Point","coordinates":[112.2978848,-7.20718319]}},{"type":"Feature","properties":{"Line":"R128","Tr":2944,"X":"643300.5","Y":"9203131.5","Rotation":0,"NAMOBJ":"Lawanganagung","WADMKC":"Sugio","WADMKK":"Lamongan"},"geometry":{"type":"Point","coordinates":[112.29788512,-7.20729623]}},{"type":"Feature","properties":{"Line":"R128","Tr":2945,"X":"643300.5","Y":"9203119.0","Rotation":0,"NAMOBJ":"Lawanganagung","WADMKC":"Sugio","WADMKK":"Lamongan"},"geometry":{"type":"Point","coordinates":[112.29788544,-7.20740927]}},{"type":"Feature","properties":{"Line":"R128","Tr":2946,"X":"643300.5","Y":"9203106.5","Rotation":0,"NAMOBJ":"Lawanganagung","WADMKC":"Sugio","WADMKK":"Lamongan"},"geometry":{"type":"Point","coordinates":[112.29788576,-7.20752232]}},{"type":"Feature","properties":{"Line":"R128","Tr":2947,"X":"643300.5","Y":"9203094.0","Rotation":0,"NAMOBJ":"Lawanganagung","WADMKC":"Sugio","WADMKK":"Lamongan"},"geometry":{"type":"Point","coordinates":[112.29788608,-7.20763536]}},{"type":"Feature","properties":{"Line":"R128","Tr":2948,"X":"643300.5","Y":"9203081.5","Rotation":0,"NAMOBJ":"Lawanganagung","WADMKC":"Sugio","WADMKK":"Lamongan"},"geometry":{"type":"Point","coordinates":[112.2978864,-7.20774841]}},{"type":"Feature","properties":{"Line":"R128","Tr":2949,"X":"643300.5","Y":"9203069.0","Rotation":0,"NAMOBJ":"Lawanganagung","WADMKC":"Sugio","WADMKK":"Lamongan"},"geometry":{"type":"Point","coordinates":[112.29788673,-7.20786145]}},{"type":"Feature","properties":{"Line":"R128","Tr":2950,"X":"643300.5","Y":"9203056.5","Rotation":0,"NAMOBJ":"Lawanganagung","WADMKC":"Sugio","WADMKK":"Lamongan"},"geometry":{"type":"Point","coordinates":[112.29788705,-7.2079745]}},{"type":"Feature","properties":{"Line":"R128","Tr":2951,"X":"643300.5","Y":"9203044.0","Rotation":0,"NAMOBJ":"Lawanganagung","WADMKC":"Sugio","WADMKK":"Lamongan"},"geometry":{"type":"Point","coordinates":[112.29788737,-7.20808754]}},{"type":"Feature","properties":{"Line":"R128","Tr":2952,"X":"643300.5","Y":"9203031.5","Rotation":0,"NAMOBJ":"Lawanganagung","WADMKC":"Sugio","WADMKK":"Lamongan"},"geometry":{"type":"Point","coordinates":[112.29788769,-7.20820058]}},{"type":"Feature","properties":{"Line":"R128","Tr":2953,"X":"643300.5","Y":"9203019.0","Rotation":0,"NAMOBJ":"Lawanganagung","WADMKC":"Sugio","WADMKK":"Lamongan"},"geometry":{"type":"Point","coordinates":[112.29788801,-7.20831363]}},{"type":"Feature","properties":{"Line":"R128","Tr":2954,"X":"643300.5","Y":"9203006.5","Rotation":0,"NAMOBJ":"Lawanganagung","WADMKC":"Sugio","WADMKK":"Lamongan"},"geometry":{"type":"Point","coordinates":[112.29788833,-7.20842667]}},{"type":"Feature","properties":{"Line":"R128","Tr":2955,"X":"643300.5","Y":"9202994.0","Rotation":0,"NAMOBJ":"Lawanganagung","WADMKC":"Sugio","WADMKK":"Lamongan"},"geometry":{"type":"Point","coordinates":[112.29788866,-7.20853972]}},{"type":"Feature","properties":{"Line":"R128","Tr":2956,"X":"643300.5","Y":"9202981.5","Rotation":0,"NAMOBJ":"Lawanganagung","WADMKC":"Sugio","WADMKK":"Lamongan"},"geometry":{"type":"Point","coordinates":[112.29788898,-7.20865276]}},{"type":"Feature","properties":{"Line":"R128","Tr":2957,"X":"643300.5","Y":"9202969.0","Rotation":0,"NAMOBJ":"Lawanganagung","WADMKC":"Sugio","WADMKK":"Lamongan"},"geometry":{"type":"Point","coordinates":[112.2978893,-7.20876581]}},{"type":"Feature","properties":{"Line":"R128","Tr":2958,"X":"643300.5","Y":"9202956.5","Rotation":0,"NAMOBJ":"Lawanganagung","WADMKC":"Sugio","WADMKK":"Lamongan"},"geometry":{"type":"Point","coordinates":[112.29788962,-7.20887885]}},{"type":"Feature","properties":{"Line":"R128","Tr":2959,"X":"643300.5","Y":"9202944.0","Rotation":0,"NAMOBJ":"Lawanganagung","WADMKC":"Sugio","WADMKK":"Lamongan"},"geometry":{"type":"Point","coordinates":[112.29788994,-7.20899189]}},{"type":"Feature","properties":{"Line":"R128","Tr":2960,"X":"643300.5","Y":"9202931.5","Rotation":0,"NAMOBJ":"Lawanganagung","WADMKC":"Sugio","WADMKK":"Lamongan"},"geometry":{"type":"Point","coordinates":[112.29789027,-7.20910494]}},{"type":"Feature","properties":{"Line":"R128","Tr":2961,"X":"643300.5","Y":"9202919.0","Rotation":0,"NAMOBJ":"Lawanganagung","WADMKC":"Sugio","WADMKK":"Lamongan"},"geometry":{"type":"Point","coordinates":[112.29789059,-7.20921798]}},{"type":"Feature","properties":{"Line":"R128","Tr":2962,"X":"643300.5","Y":"9202906.5","Rotation":0,"NAMOBJ":"Lawanganagung","WADMKC":"Sugio","WADMKK":"Lamongan"},"geometry":{"type":"Point","coordinates":[112.29789091,-7.20933103]}},{"type":"Feature","properties":{"Line":"R128","Tr":2963,"X":"643300.5","Y":"9202894.0","Rotation":0,"NAMOBJ":"Lawanganagung","WADMKC":"Sugio","WADMKK":"Lamongan"},"geometry":{"type":"Point","coordinates":[112.29789123,-7.20944407]}},{"type":"Feature","properties":{"Line":"R128","Tr":2964,"X":"643300.5","Y":"9202881.5","Rotation":0,"NAMOBJ":"Lawanganagung","WADMKC":"Sugio","WADMKK":"Lamongan"},"geometry":{"type":"Point","coordinates":[112.29789155,-7.20955712]}},{"type":"Feature","properties":{"Line":"R128","Tr":2965,"X":"643300.5","Y":"9202869.0","Rotation":0,"NAMOBJ":"Lawanganagung","WADMKC":"Sugio","WADMKK":"Lamongan"},"geometry":{"type":"Point","coordinates":[112.29789187,-7.20967016]}},{"type":"Feature","properties":{"Line":"R128","Tr":2966,"X":"643300.5","Y":"9202856.5","Rotation":0,"NAMOBJ":"Lawanganagung","WADMKC":"Sugio","WADMKK":"Lamongan"},"geometry":{"type":"Point","coordinates":[112.2978922,-7.20978321]}},{"type":"Feature","properties":{"Line":"R128","Tr":2967,"X":"643300.5","Y":"9202844.0","Rotation":0,"NAMOBJ":"Lawanganagung","WADMKC":"Sugio","WADMKK":"Lamongan"},"geometry":{"type":"Point","coordinates":[112.29789252,-7.20989625]}},{"type":"Feature","properties":{"Line":"R128","Tr":2968,"X":"643300.5","Y":"9202831.5","Rotation":0,"NAMOBJ":"Lawanganagung","WADMKC":"Sugio","WADMKK":"Lamongan"},"geometry":{"type":"Point","coordinates":[112.29789284,-7.21000929]}},{"type":"Feature","properties":{"Line":"R128","Tr":2969,"X":"643300.5","Y":"9202819.0","Rotation":0,"NAMOBJ":"Lawanganagung","WADMKC":"Sugio","WADMKK":"Lamongan"},"geometry":{"type":"Point","coordinates":[112.29789316,-7.21012234]}},{"type":"Feature","properties":{"Line":"R128","Tr":2970,"X":"643300.5","Y":"9202806.5","Rotation":0,"NAMOBJ":"Lawanganagung","WADMKC":"Sugio","WADMKK":"Lamongan"},"geometry":{"type":"Point","coordinates":[112.29789348,-7.21023538]}},{"type":"Feature","properties":{"Line":"R128","Tr":2971,"X":"643300.5","Y":"9202794.0","Rotation":0,"NAMOBJ":"Lawanganagung","WADMKC":"Sugio","WADMKK":"Lamongan"},"geometry":{"type":"Point","coordinates":[112.29789381,-7.21034843]}},{"type":"Feature","properties":{"Line":"R128","Tr":2972,"X":"643300.5","Y":"9202781.5","Rotation":0,"NAMOBJ":"Lawanganagung","WADMKC":"Sugio","WADMKK":"Lamongan"},"geometry":{"type":"Point","coordinates":[112.29789413,-7.21046147]}},{"type":"Feature","properties":{"Line":"R128","Tr":2973,"X":"643300.5","Y":"9202769.0","Rotation":0,"NAMOBJ":"Lawanganagung","WADMKC":"Sugio","WADMKK":"Lamongan"},"geometry":{"type":"Point","coordinates":[112.29789445,-7.21057452]}},{"type":"Feature","properties":{"Line":"R128","Tr":2974,"X":"643300.5","Y":"9202756.5","Rotation":0,"NAMOBJ":"Lawanganagung","WADMKC":"Sugio","WADMKK":"Lamongan"},"geometry":{"type":"Point","coordinates":[112.29789477,-7.21068756]}},{"type":"Feature","properties":{"Line":"R128","Tr":2975,"X":"643300.5","Y":"9202744.0","Rotation":0,"NAMOBJ":"Lawanganagung","WADMKC":"Sugio","WADMKK":"Lamongan"},"geometry":{"type":"Point","coordinates":[112.29789509,-7.2108006]}},{"type":"Feature","properties":{"Line":"R128","Tr":2976,"X":"643300.5","Y":"9202731.5","Rotation":0,"NAMOBJ":"Lawanganagung","WADMKC":"Sugio","WADMKK":"Lamongan"},"geometry":{"type":"Point","coordinates":[112.29789542,-7.21091365]}},{"type":"Feature","properties":{"Line":"R128","Tr":2977,"X":"643300.5","Y":"9202719.0","Rotation":0,"NAMOBJ":"Lawanganagung","WADMKC":"Sugio","WADMKK":"Lamongan"},"geometry":{"type":"Point","coordinates":[112.29789574,-7.21102669]}},{"type":"Feature","properties":{"Line":"R128","Tr":2978,"X":"643300.5","Y":"9202706.5","Rotation":0,"NAMOBJ":"Lawanganagung","WADMKC":"Sugio","WADMKK":"Lamongan"},"geometry":{"type":"Point","coordinates":[112.29789606,-7.21113974]}},{"type":"Feature","properties":{"Line":"R128","Tr":2979,"X":"643300.5","Y":"9202694.0","Rotation":0,"NAMOBJ":"Lawanganagung","WADMKC":"Sugio","WADMKK":"Lamongan"},"geometry":{"type":"Point","coordinates":[112.29789638,-7.21125278]}},{"type":"Feature","properties":{"Line":"R128","Tr":2980,"X":"643300.5","Y":"9202681.5","Rotation":0,"NAMOBJ":"Lawanganagung","WADMKC":"Sugio","WADMKK":"Lamongan"},"geometry":{"type":"Point","coordinates":[112.2978967,-7.21136583]}},{"type":"Feature","properties":{"Line":"R128","Tr":2981,"X":"643300.5","Y":"9202669.0","Rotation":0,"NAMOBJ":"Lawanganagung","WADMKC":"Sugio","WADMKK":"Lamongan"},"geometry":{"type":"Point","coordinates":[112.29789703,-7.21147887]}},{"type":"Feature","properties":{"Line":"R128","Tr":2982,"X":"643300.5","Y":"9202656.5","Rotation":0,"NAMOBJ":"Lawanganagung","WADMKC":"Sugio","WADMKK":"Lamongan"},"geometry":{"type":"Point","coordinates":[112.29789735,-7.21159191]}},{"type":"Feature","properties":{"Line":"R128","Tr":2983,"X":"643300.5","Y":"9202644.0","Rotation":0,"NAMOBJ":"Lawanganagung","WADMKC":"Sugio","WADMKK":"Lamongan"},"geometry":{"type":"Point","coordinates":[112.29789767,-7.21170496]}},{"type":"Feature","properties":{"Line":"R128","Tr":2984,"X":"643300.5","Y":"9202631.5","Rotation":0,"NAMOBJ":"Lawanganagung","WADMKC":"Sugio","WADMKK":"Lamongan"},"geometry":{"type":"Point","coordinates":[112.29789799,-7.211818]}},{"type":"Feature","properties":{"Line":"R128","Tr":2985,"X":"643300.5","Y":"9202619.0","Rotation":0,"NAMOBJ":"Lawanganagung","WADMKC":"Sugio","WADMKK":"Lamongan"},"geometry":{"type":"Point","coordinates":[112.29789831,-7.21193105]}},{"type":"Feature","properties":{"Line":"R128","Tr":2986,"X":"643300.5","Y":"9202606.5","Rotation":0,"NAMOBJ":"Lawanganagung","WADMKC":"Sugio","WADMKK":"Lamongan"},"geometry":{"type":"Point","coordinates":[112.29789864,-7.21204409]}},{"type":"Feature","properties":{"Line":"R128","Tr":2987,"X":"643300.5","Y":"9202594.0","Rotation":0,"NAMOBJ":"Lawanganagung","WADMKC":"Sugio","WADMKK":"Lamongan"},"geometry":{"type":"Point","coordinates":[112.29789896,-7.21215714]}},{"type":"Feature","properties":{"Line":"R128","Tr":2988,"X":"643300.5","Y":"9202581.5","Rotation":0,"NAMOBJ":"Lawanganagung","WADMKC":"Sugio","WADMKK":"Lamongan"},"geometry":{"type":"Point","coordinates":[112.29789928,-7.21227018]}},{"type":"Feature","properties":{"Line":"R128","Tr":2989,"X":"643300.5","Y":"9202569.0","Rotation":0,"NAMOBJ":"Lawanganagung","WADMKC":"Sugio","WADMKK":"Lamongan"},"geometry":{"type":"Point","coordinates":[112.2978996,-7.21238322]}},{"type":"Feature","properties":{"Line":"R128","Tr":2990,"X":"643300.5","Y":"9202556.5","Rotation":0,"NAMOBJ":"Lawanganagung","WADMKC":"Sugio","WADMKK":"Lamongan"},"geometry":{"type":"Point","coordinates":[112.29789992,-7.21249627]}},{"type":"Feature","properties":{"Line":"R128","Tr":2991,"X":"643300.5","Y":"9202544.0","Rotation":0,"NAMOBJ":"Lawanganagung","WADMKC":"Sugio","WADMKK":"Lamongan"},"geometry":{"type":"Point","coordinates":[112.29790024,-7.21260931]}},{"type":"Feature","properties":{"Line":"R128","Tr":2992,"X":"643300.5","Y":"9202531.5","Rotation":0,"NAMOBJ":"Lawanganagung","WADMKC":"Sugio","WADMKK":"Lamongan"},"geometry":{"type":"Point","coordinates":[112.29790057,-7.21272236]}},{"type":"Feature","properties":{"Line":"R128","Tr":2993,"X":"643300.5","Y":"9202519.0","Rotation":0,"NAMOBJ":"Lawanganagung","WADMKC":"Sugio","WADMKK":"Lamongan"},"geometry":{"type":"Point","coordinates":[112.29790089,-7.2128354]}},{"type":"Feature","properties":{"Line":"R128","Tr":2994,"X":"643300.5","Y":"9202506.5","Rotation":0,"NAMOBJ":"Lawanganagung","WADMKC":"Sugio","WADMKK":"Lamongan"},"geometry":{"type":"Point","coordinates":[112.29790121,-7.21294845]}},{"type":"Feature","properties":{"Line":"R128","Tr":2995,"X":"643300.5","Y":"9202494.0","Rotation":0,"NAMOBJ":"Lawanganagung","WADMKC":"Sugio","WADMKK":"Lamongan"},"geometry":{"type":"Point","coordinates":[112.29790153,-7.21306149]}},{"type":"Feature","properties":{"Line":"R128","Tr":2996,"X":"643300.5","Y":"9202481.5","Rotation":0,"NAMOBJ":"Lawanganagung","WADMKC":"Sugio","WADMKK":"Lamongan"},"geometry":{"type":"Point","coordinates":[112.29790186,-7.21317454]}},{"type":"Feature","properties":{"Line":"R128","Tr":2997,"X":"643300.5","Y":"9202469.0","Rotation":0,"NAMOBJ":"Lawanganagung","WADMKC":"Sugio","WADMKK":"Lamongan"},"geometry":{"type":"Point","coordinates":[112.29790218,-7.21328758]}},{"type":"Feature","properties":{"Line":"R128","Tr":2998,"X":"643300.5","Y":"9202456.5","Rotation":0,"NAMOBJ":"Lawanganagung","WADMKC":"Sugio","WADMKK":"Lamongan"},"geometry":{"type":"Point","coordinates":[112.2979025,-7.21340062]}},{"type":"Feature","properties":{"Line":"R128","Tr":2999,"X":"643300.5","Y":"9202444.0","Rotation":0,"NAMOBJ":"Lawanganagung","WADMKC":"Sugio","WADMKK":"Lamongan"},"geometry":{"type":"Point","coordinates":[112.29790282,-7.21351367]}},{"type":"Feature","properties":{"Line":"R128","Tr":3000,"X":"643300.5","Y":"9202431.5","Rotation":0,"NAMOBJ":"Lawanganagung","WADMKC":"Sugio","WADMKK":"Lamongan"},"geometry":{"type":"Point","coordinates":[112.29790314,-7.21362671]}},{"type":"Feature","properties":{"Line":"R128","Tr":3001,"X":"643300.5","Y":"9202419.0","Rotation":0,"NAMOBJ":"Lawanganagung","WADMKC":"Sugio","WADMKK":"Lamongan"},"geometry":{"type":"Point","coordinates":[112.29790347,-7.21373976]}},{"type":"Feature","properties":{"Line":"R128","Tr":3002,"X":"643300.5","Y":"9202406.5","Rotation":0,"NAMOBJ":"Lawanganagung","WADMKC":"Sugio","WADMKK":"Lamongan"},"geometry":{"type":"Point","coordinates":[112.29790379,-7.2138528]}},{"type":"Feature","properties":{"Line":"R128","Tr":3003,"X":"643300.5","Y":"9202394.0","Rotation":0,"NAMOBJ":"Lawanganagung","WADMKC":"Sugio","WADMKK":"Lamongan"},"geometry":{"type":"Point","coordinates":[112.29790411,-7.21396585]}},{"type":"Feature","properties":{"Line":"R128","Tr":3004,"X":"643300.5","Y":"9202381.5","Rotation":0,"NAMOBJ":"Lawanganagung","WADMKC":"Sugio","WADMKK":"Lamongan"},"geometry":{"type":"Point","coordinates":[112.29790443,-7.21407889]}},{"type":"Feature","properties":{"Line":"R128","Tr":3005,"X":"643300.5","Y":"9202369.0","Rotation":0,"NAMOBJ":"Lawanganagung","WADMKC":"Sugio","WADMKK":"Lamongan"},"geometry":{"type":"Point","coordinates":[112.29790475,-7.21419193]}},{"type":"Feature","properties":{"Line":"R128","Tr":3006,"X":"643300.5","Y":"9202356.5","Rotation":0,"NAMOBJ":"Lawanganagung","WADMKC":"Sugio","WADMKK":"Lamongan"},"geometry":{"type":"Point","coordinates":[112.29790508,-7.21430498]}},{"type":"Feature","properties":{"Line":"R128","Tr":3007,"X":"643300.5","Y":"9202344.0","Rotation":0,"NAMOBJ":"Lawanganagung","WADMKC":"Sugio","WADMKK":"Lamongan"},"geometry":{"type":"Point","coordinates":[112.2979054,-7.21441802]}},{"type":"Feature","properties":{"Line":"R128","Tr":3008,"X":"643300.5","Y":"9202331.5","Rotation":0,"NAMOBJ":"Lawanganagung","WADMKC":"Sugio","WADMKK":"Lamongan"},"geometry":{"type":"Point","coordinates":[112.29790572,-7.21453107]}},{"type":"Feature","properties":{"Line":"R128","Tr":3009,"X":"643300.5","Y":"9202319.0","Rotation":0,"NAMOBJ":"Lawanganagung","WADMKC":"Sugio","WADMKK":"Lamongan"},"geometry":{"type":"Point","coordinates":[112.29790604,-7.21464411]}},{"type":"Feature","properties":{"Line":"R128","Tr":3010,"X":"643300.5","Y":"9202306.5","Rotation":0,"NAMOBJ":"Lawanganagung","WADMKC":"Sugio","WADMKK":"Lamongan"},"geometry":{"type":"Point","coordinates":[112.29790636,-7.21475716]}},{"type":"Feature","properties":{"Line":"R128","Tr":3011,"X":"643300.5","Y":"9202294.0","Rotation":0,"NAMOBJ":"Lawanganagung","WADMKC":"Sugio","WADMKK":"Lamongan"},"geometry":{"type":"Point","coordinates":[112.29790669,-7.2148702]}},{"type":"Feature","properties":{"Line":"R128","Tr":3012,"X":"643300.5","Y":"9202281.5","Rotation":0,"NAMOBJ":"Lawanganagung","WADMKC":"Sugio","WADMKK":"Lamongan"},"geometry":{"type":"Point","coordinates":[112.29790701,-7.21498324]}},{"type":"Feature","properties":{"Line":"R128","Tr":3013,"X":"643300.5","Y":"9202269.0","Rotation":0,"NAMOBJ":"Lawanganagung","WADMKC":"Sugio","WADMKK":"Lamongan"},"geometry":{"type":"Point","coordinates":[112.29790733,-7.21509629]}},{"type":"Feature","properties":{"Line":"R128","Tr":3014,"X":"643300.5","Y":"9202256.5","Rotation":0,"NAMOBJ":"Lawanganagung","WADMKC":"Sugio","WADMKK":"Lamongan"},"geometry":{"type":"Point","coordinates":[112.29790765,-7.21520933]}},{"type":"Feature","properties":{"Line":"R128","Tr":3015,"X":"643300.5","Y":"9202244.0","Rotation":0,"NAMOBJ":"Lawanganagung","WADMKC":"Sugio","WADMKK":"Lamongan"},"geometry":{"type":"Point","coordinates":[112.29790797,-7.21532238]}},{"type":"Feature","properties":{"Line":"R128","Tr":3016,"X":"643300.5","Y":"9202231.5","Rotation":0,"NAMOBJ":"Lawanganagung","WADMKC":"Sugio","WADMKK":"Lamongan"},"geometry":{"type":"Point","coordinates":[112.2979083,-7.21543542]}},{"type":"Feature","properties":{"Line":"R128","Tr":3017,"X":"643300.5","Y":"9202219.0","Rotation":0,"NAMOBJ":"Lawanganagung","WADMKC":"Sugio","WADMKK":"Lamongan"},"geometry":{"type":"Point","coordinates":[112.29790862,-7.21554847]}},{"type":"Feature","properties":{"Line":"R128","Tr":3018,"X":"643300.5","Y":"9202206.5","Rotation":0,"NAMOBJ":"Lawanganagung","WADMKC":"Sugio","WADMKK":"Lamongan"},"geometry":{"type":"Point","coordinates":[112.29790894,-7.21566151]}},{"type":"Feature","properties":{"Line":"R128","Tr":3019,"X":"643300.5","Y":"9202194.0","Rotation":0,"NAMOBJ":"Lawanganagung","WADMKC":"Sugio","WADMKK":"Lamongan"},"geometry":{"type":"Point","coordinates":[112.29790926,-7.21577455]}},{"type":"Feature","properties":{"Line":"R128","Tr":3020,"X":"643300.5","Y":"9202181.5","Rotation":0,"NAMOBJ":"Lawanganagung","WADMKC":"Sugio","WADMKK":"Lamongan"},"geometry":{"type":"Point","coordinates":[112.29790958,-7.2158876]}},{"type":"Feature","properties":{"Line":"R128","Tr":3021,"X":"643300.5","Y":"9202169.0","Rotation":0,"NAMOBJ":"Lawanganagung","WADMKC":"Sugio","WADMKK":"Lamongan"},"geometry":{"type":"Point","coordinates":[112.29790991,-7.21600064]}},{"type":"Feature","properties":{"Line":"R128","Tr":3022,"X":"643300.5","Y":"9202156.5","Rotation":0,"NAMOBJ":"Lawanganagung","WADMKC":"Sugio","WADMKK":"Lamongan"},"geometry":{"type":"Point","coordinates":[112.29791023,-7.21611369]}},{"type":"Feature","properties":{"Line":"R128","Tr":3023,"X":"643300.5","Y":"9202144.0","Rotation":0,"NAMOBJ":"Lawanganagung","WADMKC":"Sugio","WADMKK":"Lamongan"},"geometry":{"type":"Point","coordinates":[112.29791055,-7.21622673]}},{"type":"Feature","properties":{"Line":"R128","Tr":3024,"X":"643300.5","Y":"9202131.5","Rotation":0,"NAMOBJ":"Lawanganagung","WADMKC":"Sugio","WADMKK":"Lamongan"},"geometry":{"type":"Point","coordinates":[112.29791087,-7.21633978]}},{"type":"Feature","properties":{"Line":"R128","Tr":3025,"X":"643300.5","Y":"9202119.0","Rotation":0,"NAMOBJ":"Lawanganagung","WADMKC":"Sugio","WADMKK":"Lamongan"},"geometry":{"type":"Point","coordinates":[112.2979112,-7.21645282]}},{"type":"Feature","properties":{"Line":"R128","Tr":3026,"X":"643300.5","Y":"9202106.5","Rotation":0,"NAMOBJ":"Lawanganagung","WADMKC":"Sugio","WADMKK":"Lamongan"},"geometry":{"type":"Point","coordinates":[112.29791152,-7.21656586]}},{"type":"Feature","properties":{"Line":"R128","Tr":3027,"X":"643300.5","Y":"9202094.0","Rotation":0,"NAMOBJ":"Lawanganagung","WADMKC":"Sugio","WADMKK":"Lamongan"},"geometry":{"type":"Point","coordinates":[112.29791184,-7.21667891]}},{"type":"Feature","properties":{"Line":"R128","Tr":3028,"X":"643300.5","Y":"9202081.5","Rotation":0,"NAMOBJ":"Lawanganagung","WADMKC":"Sugio","WADMKK":"Lamongan"},"geometry":{"type":"Point","coordinates":[112.29791216,-7.21679195]}},{"type":"Feature","properties":{"Line":"R128","Tr":3029,"X":"643300.5","Y":"9202069.0","Rotation":0,"NAMOBJ":"Lawanganagung","WADMKC":"Sugio","WADMKK":"Lamongan"},"geometry":{"type":"Point","coordinates":[112.29791248,-7.216905]}},{"type":"Feature","properties":{"Line":"R128","Tr":3030,"X":"643300.5","Y":"9202056.5","Rotation":0,"NAMOBJ":"Lawanganagung","WADMKC":"Sugio","WADMKK":"Lamongan"},"geometry":{"type":"Point","coordinates":[112.29791281,-7.21701804]}},{"type":"Feature","properties":{"Line":"R128","Tr":3031,"X":"643300.5","Y":"9202044.0","Rotation":0,"NAMOBJ":"Lawanganagung","WADMKC":"Sugio","WADMKK":"Lamongan"},"geometry":{"type":"Point","coordinates":[112.29791313,-7.21713109]}},{"type":"Feature","properties":{"Line":"R128","Tr":3032,"X":"643300.5","Y":"9202031.5","Rotation":0,"NAMOBJ":"Lawanganagung","WADMKC":"Sugio","WADMKK":"Lamongan"},"geometry":{"type":"Point","coordinates":[112.29791345,-7.21724413]}},{"type":"Feature","properties":{"Line":"R128","Tr":3033,"X":"643300.5","Y":"9202019.0","Rotation":0,"NAMOBJ":"Lawanganagung","WADMKC":"Sugio","WADMKK":"Lamongan"},"geometry":{"type":"Point","coordinates":[112.29791377,-7.21735717]}},{"type":"Feature","properties":{"Line":"R128","Tr":3034,"X":"643300.5","Y":"9202006.5","Rotation":0,"NAMOBJ":"Lawanganagung","WADMKC":"Sugio","WADMKK":"Lamongan"},"geometry":{"type":"Point","coordinates":[112.2979141,-7.21747022]}},{"type":"Feature","properties":{"Line":"R128","Tr":3035,"X":"643300.5","Y":"9201994.0","Rotation":0,"NAMOBJ":"Lawanganagung","WADMKC":"Sugio","WADMKK":"Lamongan"},"geometry":{"type":"Point","coordinates":[112.29791442,-7.21758326]}},{"type":"Feature","properties":{"Line":"R128","Tr":3036,"X":"643300.5","Y":"9201981.5","Rotation":0,"NAMOBJ":"Lawanganagung","WADMKC":"Sugio","WADMKK":"Lamongan"},"geometry":{"type":"Point","coordinates":[112.29791474,-7.21769631]}},{"type":"Feature","properties":{"Line":"R128","Tr":3037,"X":"643300.5","Y":"9201969.0","Rotation":0,"NAMOBJ":"Lawanganagung","WADMKC":"Sugio","WADMKK":"Lamongan"},"geometry":{"type":"Point","coordinates":[112.29791506,-7.21780935]}},{"type":"Feature","properties":{"Line":"R128","Tr":3038,"X":"643300.5","Y":"9201956.5","Rotation":0,"NAMOBJ":"Lawanganagung","WADMKC":"Sugio","WADMKK":"Lamongan"},"geometry":{"type":"Point","coordinates":[112.29791538,-7.2179224]}},{"type":"Feature","properties":{"Line":"R128","Tr":3039,"X":"643300.5","Y":"9201944.0","Rotation":0,"NAMOBJ":"Lawanganagung","WADMKC":"Sugio","WADMKK":"Lamongan"},"geometry":{"type":"Point","coordinates":[112.29791571,-7.21803544]}},{"type":"Feature","properties":{"Line":"R128","Tr":3040,"X":"643300.5","Y":"9201931.5","Rotation":0,"NAMOBJ":"Lawanganagung","WADMKC":"Sugio","WADMKK":"Lamongan"},"geometry":{"type":"Point","coordinates":[112.29791603,-7.21814848]}},{"type":"Feature","properties":{"Line":"R126","Tr":3071,"X":"642300.5","Y":"9201744.0","Rotation":0,"NAMOBJ":"Wudi","WADMKC":"Sambeng","WADMKK":"Lamongan"},"geometry":{"type":"Point","coordinates":[112.28886509,-7.21986981]}},{"type":"Feature","properties":{"Line":"R126","Tr":3072,"X":"642300.5","Y":"9201731.5","Rotation":0,"NAMOBJ":"Wudi","WADMKC":"Sambeng","WADMKK":"Lamongan"},"geometry":{"type":"Point","coordinates":[112.28886541,-7.21998285]}},{"type":"Feature","properties":{"Line":"R126","Tr":3073,"X":"642300.5","Y":"9201719.0","Rotation":0,"NAMOBJ":"Wudi","WADMKC":"Sambeng","WADMKK":"Lamongan"},"geometry":{"type":"Point","coordinates":[112.28886573,-7.2200959]}},{"type":"Feature","properties":{"Line":"R126","Tr":3074,"X":"642300.5","Y":"9201706.5","Rotation":0,"NAMOBJ":"Wudi","WADMKC":"Sambeng","WADMKK":"Lamongan"},"geometry":{"type":"Point","coordinates":[112.28886605,-7.22020894]}},{"type":"Feature","properties":{"Line":"R126","Tr":3075,"X":"642300.5","Y":"9201694.0","Rotation":0,"NAMOBJ":"Wudi","WADMKC":"Sambeng","WADMKK":"Lamongan"},"geometry":{"type":"Point","coordinates":[112.28886637,-7.22032199]}},{"type":"Feature","properties":{"Line":"R126","Tr":3076,"X":"642300.5","Y":"9201681.5","Rotation":0,"NAMOBJ":"Wudi","WADMKC":"Sambeng","WADMKK":"Lamongan"},"geometry":{"type":"Point","coordinates":[112.28886669,-7.22043503]}},{"type":"Feature","properties":{"Line":"R126","Tr":3077,"X":"642300.5","Y":"9201669.0","Rotation":0,"NAMOBJ":"Wudi","WADMKC":"Sambeng","WADMKK":"Lamongan"},"geometry":{"type":"Point","coordinates":[112.28886701,-7.22054808]}},{"type":"Feature","properties":{"Line":"R126","Tr":3078,"X":"642300.5","Y":"9201656.5","Rotation":0,"NAMOBJ":"Wudi","WADMKC":"Sambeng","WADMKK":"Lamongan"},"geometry":{"type":"Point","coordinates":[112.28886733,-7.22066112]}},{"type":"Feature","properties":{"Line":"R126","Tr":3079,"X":"642300.5","Y":"9201644.0","Rotation":0,"NAMOBJ":"Wudi","WADMKC":"Sambeng","WADMKK":"Lamongan"},"geometry":{"type":"Point","coordinates":[112.28886765,-7.22077417]}},{"type":"Feature","properties":{"Line":"R126","Tr":3080,"X":"642300.5","Y":"9201631.5","Rotation":0,"NAMOBJ":"Wudi","WADMKC":"Sambeng","WADMKK":"Lamongan"},"geometry":{"type":"Point","coordinates":[112.28886797,-7.22088721]}},{"type":"Feature","properties":{"Line":"R126","Tr":3081,"X":"642300.5","Y":"9201619.0","Rotation":0,"NAMOBJ":"Wudi","WADMKC":"Sambeng","WADMKK":"Lamongan"},"geometry":{"type":"Point","coordinates":[112.28886829,-7.22100026]}},{"type":"Feature","properties":{"Line":"R126","Tr":3082,"X":"642300.5","Y":"9201606.5","Rotation":0,"NAMOBJ":"Wudi","WADMKC":"Sambeng","WADMKK":"Lamongan"},"geometry":{"type":"Point","coordinates":[112.28886861,-7.2211133]}},{"type":"Feature","properties":{"Line":"R126","Tr":3083,"X":"642300.5","Y":"9201594.0","Rotation":0,"NAMOBJ":"Wudi","WADMKC":"Sambeng","WADMKK":"Lamongan"},"geometry":{"type":"Point","coordinates":[112.28886894,-7.22122635]}},{"type":"Feature","properties":{"Line":"R126","Tr":3084,"X":"642300.5","Y":"9201581.5","Rotation":0,"NAMOBJ":"Wudi","WADMKC":"Sambeng","WADMKK":"Lamongan"},"geometry":{"type":"Point","coordinates":[112.28886926,-7.22133939]}},{"type":"Feature","properties":{"Line":"R128","Tr":3041,"X":"643300.5","Y":"9201919.0","Rotation":0,"NAMOBJ":"Wudi","WADMKC":"Sambeng","WADMKK":"Lamongan"},"geometry":{"type":"Point","coordinates":[112.29791635,-7.21826153]}},{"type":"Feature","properties":{"Line":"R128","Tr":3042,"X":"643300.5","Y":"9201906.5","Rotation":0,"NAMOBJ":"Wudi","WADMKC":"Sambeng","WADMKK":"Lamongan"},"geometry":{"type":"Point","coordinates":[112.29791667,-7.21837457]}},{"type":"Feature","properties":{"Line":"R128","Tr":3043,"X":"643300.5","Y":"9201894.0","Rotation":0,"NAMOBJ":"Wudi","WADMKC":"Sambeng","WADMKK":"Lamongan"},"geometry":{"type":"Point","coordinates":[112.297917,-7.21848762]}},{"type":"Feature","properties":{"Line":"R128","Tr":3044,"X":"643300.5","Y":"9201881.5","Rotation":0,"NAMOBJ":"Wudi","WADMKC":"Sambeng","WADMKK":"Lamongan"},"geometry":{"type":"Point","coordinates":[112.29791732,-7.21860066]}},{"type":"Feature","properties":{"Line":"R128","Tr":3045,"X":"643300.5","Y":"9201869.0","Rotation":0,"NAMOBJ":"Wudi","WADMKC":"Sambeng","WADMKK":"Lamongan"},"geometry":{"type":"Point","coordinates":[112.29791764,-7.21871371]}},{"type":"Feature","properties":{"Line":"R128","Tr":3046,"X":"643300.5","Y":"9201856.5","Rotation":0,"NAMOBJ":"Wudi","WADMKC":"Sambeng","WADMKK":"Lamongan"},"geometry":{"type":"Point","coordinates":[112.29791796,-7.21882675]}},{"type":"Feature","properties":{"Line":"R128","Tr":3047,"X":"643300.5","Y":"9201844.0","Rotation":0,"NAMOBJ":"Wudi","WADMKC":"Sambeng","WADMKK":"Lamongan"},"geometry":{"type":"Point","coordinates":[112.29791828,-7.21893979]}},{"type":"Feature","properties":{"Line":"R128","Tr":3048,"X":"643300.5","Y":"9201831.5","Rotation":0,"NAMOBJ":"Wudi","WADMKC":"Sambeng","WADMKK":"Lamongan"},"geometry":{"type":"Point","coordinates":[112.29791861,-7.21905284]}},{"type":"Feature","properties":{"Line":"R128","Tr":3049,"X":"643300.5","Y":"9201819.0","Rotation":0,"NAMOBJ":"Wudi","WADMKC":"Sambeng","WADMKK":"Lamongan"},"geometry":{"type":"Point","coordinates":[112.29791893,-7.21916588]}},{"type":"Feature","properties":{"Line":"R128","Tr":3050,"X":"643300.5","Y":"9201806.5","Rotation":0,"NAMOBJ":"Wudi","WADMKC":"Sambeng","WADMKK":"Lamongan"},"geometry":{"type":"Point","coordinates":[112.29791925,-7.21927893]}},{"type":"Feature","properties":{"Line":"R128","Tr":3051,"X":"643300.5","Y":"9201794.0","Rotation":0,"NAMOBJ":"Wudi","WADMKC":"Sambeng","WADMKK":"Lamongan"},"geometry":{"type":"Point","coordinates":[112.29791957,-7.21939197]}},{"type":"Feature","properties":{"Line":"R128","Tr":3052,"X":"643300.5","Y":"9201781.5","Rotation":0,"NAMOBJ":"Wudi","WADMKC":"Sambeng","WADMKK":"Lamongan"},"geometry":{"type":"Point","coordinates":[112.2979199,-7.21950502]}}]}