{
"type": "FeatureCollection",
"name": "D:\\Lamturo_GIS\\Alur_Irigasi.geojson",
"crs": { "type": "name", "properties": { "name": "urn:ogc:def:crs:OGC:1.3:CRS84" } },
"features": [
{ "type": "Feature", "properties": { "KODE": 1041059, "KATEGORI": "Sungai\/ Rawa", "KETERANGAN": "Alur Irigasi", "X": "6.31300500000e+05", "Y": "9.22629400000e+06" }, "geometry": { "type": "Point", "coordinates": [ 112.188678586121696, -6.998110970815772 ] } },
{ "type": "Feature", "properties": { "KODE": 1041092, "KATEGORI": "Sungai\/ Rawa", "KETERANGAN": "Alur Irigasi", "X": "6.31300500000e+05", "Y": "9.22588150000e+06" }, "geometry": { "type": "Point", "coordinates": [ 112.188688028038584, -7.00184162288283 ] } },
{ "type": "Feature", "properties": { "KODE": 1041139, "KATEGORI": "Sungai\/ Rawa", "KETERANGAN": "Alur Irigasi", "X": "6.31300500000e+05", "Y": "9.22529400000e+06" }, "geometry": { "type": "Point", "coordinates": [ 112.188701484520209, -7.007154974785782 ] } },
{ "type": "Feature", "properties": { "KODE": 1041188, "KATEGORI": "Sungai\/ Rawa", "KETERANGAN": "Alur Irigasi", "X": "6.31300500000e+05", "Y": "9.22468150000e+06" }, "geometry": { "type": "Point", "coordinates": [ 112.188715524756915, -7.012694425466417 ] } },
{ "type": "Feature", "properties": { "KODE": 1041271, "KATEGORI": "Sungai\/ Rawa", "KETERANGAN": "Alur Irigasi", "X": "6.31300500000e+05", "Y": "9.22364400000e+06" }, "geometry": { "type": "Point", "coordinates": [ 112.188739333143801, -7.022077573580984 ] } },
{ "type": "Feature", "properties": { "KODE": 1041370, "KATEGORI": "Sungai\/ Rawa", "KETERANGAN": "Alur Irigasi", "X": "6.31300500000e+05", "Y": "9.22240650000e+06" }, "geometry": { "type": "Point", "coordinates": [ 112.188767773771843, -7.033269516329216 ] } },
{ "type": "Feature", "properties": { "KODE": 1041418, "KATEGORI": "Sungai\/ Rawa", "KETERANGAN": "Alur Irigasi", "X": "6.31300500000e+05", "Y": "9.22180650000e+06" }, "geometry": { "type": "Point", "coordinates": [ 112.188781579879759, -7.038695910851667 ] } },
{ "type": "Feature", "properties": { "KODE": 1041430, "KATEGORI": "Sungai\/ Rawa", "KETERANGAN": "Alur Irigasi", "X": "6.31300500000e+05", "Y": "9.22165650000e+06" }, "geometry": { "type": "Point", "coordinates": [ 112.188785033112197, -7.040052509281954 ] } },
{ "type": "Feature", "properties": { "KODE": 1041471, "KATEGORI": "Sungai\/ Rawa", "KETERANGAN": "Alur Irigasi", "X": "6.31300500000e+05", "Y": "9.22114400000e+06" }, "geometry": { "type": "Point", "coordinates": [ 112.18879683680376, -7.044687553313861 ] } },
{ "type": "Feature", "properties": { "KODE": 1061412, "KATEGORI": "Sungai\/ Rawa", "KETERANGAN": "Alur Irigasi", "X": "6.32300500000e+05", "Y": "9.22208150000e+06" }, "geometry": { "type": "Point", "coordinates": [ 112.197827760030165, -7.036185736794306 ] } },
{ "type": "Feature", "properties": { "KODE": 1081330, "KATEGORI": "Sungai\/ Rawa", "KETERANGAN": "Alur Irigasi", "X": "6.33300500000e+05", "Y": "9.22290650000e+06" }, "geometry": { "type": "Point", "coordinates": [ 112.206860976280268, -7.028701241104334 ] } },
{ "type": "Feature", "properties": { "KODE": 1081815, "KATEGORI": "Sungai\/ Rawa", "KETERANGAN": "Alur Irigasi", "X": "6.33300500000e+05", "Y": "9.21684400000e+06" }, "geometry": { "type": "Point", "coordinates": [ 112.20700301525018, -7.083530022932564 ] } },
{ "type": "Feature", "properties": { "KODE": 1081850, "KATEGORI": "Sungai\/ Rawa", "KETERANGAN": "Alur Irigasi", "X": "6.33300500000e+05", "Y": "9.21640659000e+06" }, "geometry": { "type": "Point", "coordinates": [ 112.207013307146894, -7.087485920107443 ] } },
{ "type": "Feature", "properties": { "KODE": 1101418, "KATEGORI": "Sungai\/ Rawa", "KETERANGAN": "Alur Irigasi", "X": "6.34300500000e+05", "Y": "9.22210650000e+06" }, "geometry": { "type": "Point", "coordinates": [ 112.215932098361762, -7.03591296095302 ] } },
{ "type": "Feature", "properties": { "KODE": 1101419, "KATEGORI": "Sungai\/ Rawa", "KETERANGAN": "Alur Irigasi", "X": "6.34300500000e+05", "Y": "9.22209400000e+06" }, "geometry": { "type": "Point", "coordinates": [ 112.215932392558358, -7.036026009706982 ] } },
{ "type": "Feature", "properties": { "KODE": 1101420, "KATEGORI": "Sungai\/ Rawa", "KETERANGAN": "Alur Irigasi", "X": "6.34300500000e+05", "Y": "9.22208150000e+06" }, "geometry": { "type": "Point", "coordinates": [ 112.215932686759785, -7.036139058460388 ] } },
{ "type": "Feature", "properties": { "KODE": 1141595, "KATEGORI": "Sungai\/ Rawa", "KETERANGAN": "Alur Irigasi", "X": "6.36300500000e+05", "Y": "9.21959400000e+06" }, "geometry": { "type": "Point", "coordinates": [ 112.234097004591263, -7.058588218177211 ] } },
{ "type": "Feature", "properties": { "KODE": 1141756, "KATEGORI": "Sungai\/ Rawa", "KETERANGAN": "Alur Irigasi", "X": "6.36300500000e+05", "Y": "9.21758159000e+06" }, "geometry": { "type": "Point", "coordinates": [ 112.234145295417633, -7.076788104605844 ] } },
{ "type": "Feature", "properties": { "KODE": 1192080, "KATEGORI": "Sungai\/ Rawa", "KETERANGAN": "Alur Irigasi", "X": "6.36569300000e+05", "Y": "9.21780039000e+06" }, "geometry": { "type": "Point", "coordinates": [ 112.23657351680842, -7.074802859470125 ] } },
{ "type": "Feature", "properties": { "KODE": 1192212, "KATEGORI": "Sungai\/ Rawa", "KETERANGAN": "Alur Irigasi", "X": "6.38219300000e+05", "Y": "9.21780039000e+06" }, "geometry": { "type": "Point", "coordinates": [ 112.251511110710354, -7.074762947531299 ] } },
{ "type": "Feature", "properties": { "KODE": 1192315, "KATEGORI": "Lainnya", "KETERANGAN": "Alur Irigasi", "X": "6.39506800000e+05", "Y": "9.21780030000e+06" }, "geometry": { "type": "Point", "coordinates": [ 112.263166902385919, -7.074732285399709 ] } },
{ "type": "Feature", "properties": { "KODE": 1192316, "KATEGORI": "Lainnya", "KETERANGAN": "Alur Irigasi", "X": "6.39519300000e+05", "Y": "9.21780039000e+06" }, "geometry": { "type": "Point", "coordinates": [ 112.26328006291665, -7.074731164442471 ] } },
{ "type": "Feature", "properties": { "KODE": 1232148, "KATEGORI": "Sungai\/ Rawa", "KETERANGAN": "Alur Irigasi", "X": "6.37269300000e+05", "Y": "9.21980039000e+06" }, "geometry": { "type": "Point", "coordinates": [ 112.242862368000743, -7.056698391789418 ] } },
{ "type": "Feature", "properties": { "KODE": 1232185, "KATEGORI": "Sungai\/ Rawa", "KETERANGAN": "Alur Irigasi", "X": "6.37731800000e+05", "Y": "9.21980030000e+06" }, "geometry": { "type": "Point", "coordinates": [ 112.247049258790142, -7.056688038552496 ] } },
{ "type": "Feature", "properties": { "KODE": 1232205, "KATEGORI": "Sungai\/ Rawa", "KETERANGAN": "Alur Irigasi", "X": "6.37981800000e+05", "Y": "9.21980030000e+06" }, "geometry": { "type": "Point", "coordinates": [ 112.249312438995204, -7.056681986612353 ] } },
{ "type": "Feature", "properties": { "KODE": 1232229, "KATEGORI": "Sungai\/ Rawa", "KETERANGAN": "Alur Irigasi", "X": "6.38281800000e+05", "Y": "9.21980030000e+06" }, "geometry": { "type": "Point", "coordinates": [ 112.252028252611908, -7.056674709808554 ] } },
{ "type": "Feature", "properties": { "KODE": 1232245, "KATEGORI": "Sungai\/ Rawa", "KETERANGAN": "Alur Irigasi", "X": "6.38481800000e+05", "Y": "9.21980030000e+06" }, "geometry": { "type": "Point", "coordinates": [ 112.253838793426581, -7.056669849832953 ] } },
{ "type": "Feature", "properties": { "KODE": 1232280, "KATEGORI": "Sungai\/ Rawa", "KETERANGAN": "Alur Irigasi", "X": "6.38919300000e+05", "Y": "9.21980039000e+06" }, "geometry": { "type": "Point", "coordinates": [ 112.257799344798414, -7.056658380230432 ] } },
{ "type": "Feature", "properties": { "KODE": 1232304, "KATEGORI": "Sungai\/ Rawa", "KETERANGAN": "Alur Irigasi", "X": "6.39219300000e+05", "Y": "9.21980039000e+06" }, "geometry": { "type": "Point", "coordinates": [ 112.260515149407482, -7.05665105407927 ] } },
{ "type": "Feature", "properties": { "KODE": 1232395, "KATEGORI": "Sungai\/ Rawa", "KETERANGAN": "Alur Irigasi", "X": "6.40356800000e+05", "Y": "9.21980030000e+06" }, "geometry": { "type": "Point", "coordinates": [ 112.270812551096981, -7.056623946239114 ] } },
{ "type": "Feature", "properties": { "KODE": 1232402, "KATEGORI": "Sungai\/ Rawa", "KETERANGAN": "Alur Irigasi", "X": "6.40444300000e+05", "Y": "9.21980039000e+06" }, "geometry": { "type": "Point", "coordinates": [ 112.271604654795141, -7.056620975073762 ] } },
{ "type": "Feature", "properties": { "KODE": 1232429, "KATEGORI": "Sungai\/ Rawa", "KETERANGAN": "Alur Irigasi", "X": "6.40781800000e+05", "Y": "9.21980030000e+06" }, "geometry": { "type": "Point", "coordinates": [ 112.274659920380358, -7.056613455670166 ] } },
{ "type": "Feature", "properties": { "KODE": 1232504, "KATEGORI": "Sungai\/ Rawa", "KETERANGAN": "Alur Irigasi", "X": "6.41719300000e+05", "Y": "9.21980039000e+06" }, "geometry": { "type": "Point", "coordinates": [ 112.283146741355225, -7.056589388722907 ] } },
{ "type": "Feature", "properties": { "KODE": 1232603, "KATEGORI": "Sungai\/ Rawa", "KETERANGAN": "Alur Irigasi", "X": "6.42956800000e+05", "Y": "9.21980030000e+06" }, "geometry": { "type": "Point", "coordinates": [ 112.294349306164918, -7.056559272550644 ] } },
{ "type": "Feature", "properties": { "KODE": 1232606, "KATEGORI": "Sungai\/ Rawa", "KETERANGAN": "Alur Irigasi", "X": "6.42994300000e+05", "Y": "9.21980039000e+06" }, "geometry": { "type": "Point", "coordinates": [ 112.29468877470876, -7.056557517154893 ] } },
{ "type": "Feature", "properties": { "KODE": 1232620, "KATEGORI": "Sungai\/ Rawa", "KETERANGAN": "Alur Irigasi", "X": "6.43169300000e+05", "Y": "9.21980039000e+06" }, "geometry": { "type": "Point", "coordinates": [ 112.296272971185928, -7.05655312036599 ] } },
{ "type": "Feature", "properties": { "KODE": 1232632, "KATEGORI": "Sungai\/ Rawa", "KETERANGAN": "Alur Irigasi", "X": "6.43319300000e+05", "Y": "9.21980039000e+06" }, "geometry": { "type": "Point", "coordinates": [ 112.297630853074736, -7.056549347413284 ] } }
]
}
