{"type":"FeatureCollection","features":[{"type":"Feature","properties":{"Line":"R125","Tr":1001,"X":"625131.8","Y":"9220800.3","Rotation":90,"NAMOBJ":"Penidon","WADMKC":"Plumpang","WADMKK":"Tuban"},"geometry":{"type":"Point","coordinates":[112.1,-7.0]}},{"type":"Feature","properties":{"Line":"R125","Tr":1002,"X":"625144.3","Y":"9220800.3","Rotation":90,"NAMOBJ":"Penidon","WADMKC":"Plumpang","WADMKK":"Tuban"},"geometry":{"type":"Point","coordinates":[112.1,-7.0]}},{"type":"Feature","properties":{"Line":"R125","Tr":1003,"X":"625156.8","Y":"9220800.3","Rotation":90,"NAMOBJ":"Penidon","WADMKC":"Plumpang","WADMKK":"Tuban"},"geometry":{"type":"Point","coordinates":[112.1,-7.0]}},{"type":"Feature","properties":{"Line":"R125","Tr":1004,"X":"625169.3","Y":"9220800.3","Rotation":90,"NAMOBJ":"Penidon","WADMKC":"Plumpang","WADMKK":"Tuban"},"geometry":{"type":"Point","coordinates":[112.1,-7.0]}},{"type":"Feature","properties":{"Line":"R125","Tr":1005,"X":"625181.8","Y":"9220800.3","Rotation":90,"NAMOBJ":"Penidon","WADMKC":"Plumpang","WADMKK":"Tuban"},"geometry":{"type":"Point","coordinates":[112.1,-7.0]}},{"type":"Feature","properties":{"Line":"R125","Tr":1006,"X":"625194.3","Y":"9220800.3","Rotation":90,"NAMOBJ":"Penidon","WADMKC":"Plumpang","WADMKK":"Tuban"},"geometry":{"type":"Point","coordinates":[112.1,-7.0]}},{"type":"Feature","properties":{"Line":"R125","Tr":1007,"X":"625206.8","Y":"9220800.3","Rotation":90,"NAMOBJ":"Penidon","WADMKC":"Plumpang","WADMKK":"Tuban"},"geometry":{"type":"Point","coordinates":[112.1,-7.0]}},{"type":"Feature","properties":{"Line":"R125","Tr":1008,"X":"625219.3","Y":"9220800.3","Rotation":90,"NAMOBJ":"Penidon","WADMKC":"Plumpang","WADMKK":"Tuban"},"geometry":{"type":"Point","coordinates":[112.1,-7.0]}},{"type":"Feature","properties":{"Line":"R125","Tr":1009,"X":"625231.8","Y":"9220800.3","Rotation":90,"NAMOBJ":"Penidon","WADMKC":"Plumpang","WADMKK":"Tuban"},"geometry":{"type":"Point","coordinates":[112.1,-7.0]}},{"type":"Feature","properties":{"Line":"R125","Tr":1010,"X":"625244.3","Y":"9220800.3","Rotation":90,"NAMOBJ":"Penidon","WADMKC":"Plumpang","WADMKK":"Tuban"},"geometry":{"type":"Point","coordinates":[112.1,-7.0]}},{"type":"Feature","properties":{"Line":"R125","Tr":1011,"X":"625256.8","Y":"9220800.3","Rotation":90,"NAMOBJ":"Penidon","WADMKC":"Plumpang","WADMKK":"Tuban"},"geometry":{"type":"Point","coordinates":[112.1,-7.0]}},{"type":"Feature","properties":{"Line":"R125","Tr":1012,"X":"625269.3","Y":"9220800.3","Rotation":90,"NAMOBJ":"Penidon","WADMKC":"Plumpang","WADMKK":"Tuban"},"geometry":{"type":"Point","coordinates":[112.1,-7.0]}},{"type":"Feature","properties":{"Line":"R125","Tr":1013,"X":"625281.8","Y":"9220800.3","Rotation":90,"NAMOBJ":"Penidon","WADMKC":"Plumpang","WADMKK":"Tuban"},"geometry":{"type":"Point","coordinates":[112.1,-7.0]}},{"type":"Feature","properties":{"Line":"R125","Tr":1014,"X":"625294.3","Y":"9220800.3","Rotation":90,"NAMOBJ":"Penidon","WADMKC":"Plumpang","WADMKK":"Tuban"},"geometry":{"type":"Point","coordinates":[112.1,-7.0]}},{"type":"Feature","properties":{"Line":"R125","Tr":1015,"X":"625306.8","Y":"9220800.3","Rotation":90,"NAMOBJ":"Penidon","WADMKC":"Plumpang","WADMKK":"Tuban"},"geometry":{"type":"Point","coordinates":[112.1,-7.0]}},{"type":"Feature","properties":{"Line":"R125","Tr":1016,"X":"625319.3","Y":"9220800.3","Rotation":90,"NAMOBJ":"Penidon","WADMKC":"Plumpang","WADMKK":"Tuban"},"geometry":{"type":"Point","coordinates":[112.1,-7.0]}},{"type":"Feature","properties":{"Line":"R125","Tr":1017,"X":"625331.8","Y":"9220800.3","Rotation":90,"NAMOBJ":"Penidon","WADMKC":"Plumpang","WADMKK":"Tuban"},"geometry":{"type":"Point","coordinates":[112.1,-7.0]}},{"type":"Feature","properties":{"Line":"R125","Tr":1018,"X":"625344.3","Y":"9220800.3","Rotation":90,"NAMOBJ":"Penidon","WADMKC":"Plumpang","WADMKK":"Tuban"},"geometry":{"type":"Point","coordinates":[112.1,-7.0]}},{"type":"Feature","properties":{"Line":"R125","Tr":1019,"X":"625356.8","Y":"9220800.3","Rotation":90,"NAMOBJ":"Penidon","WADMKC":"Plumpang","WADMKK":"Tuban"},"geometry":{"type":"Point","coordinates":[112.1,-7.0]}},{"type":"Feature","properties":{"Line":"R125","Tr":1020,"X":"625369.3","Y":"9220800.3","Rotation":90,"NAMOBJ":"Penidon","WADMKC":"Plumpang","WADMKK":"Tuban"},"geometry":{"type":"Point","coordinates":[112.1,-7.0]}},{"type":"Feature","properties":{"Line":"R125","Tr":1021,"X":"625381.8","Y":"9220800.3","Rotation":90,"NAMOBJ":"Penidon","WADMKC":"Plumpang","WADMKK":"Tuban"},"geometry":{"type":"Point","coordinates":[112.1,-7.0]}},{"type":"Feature","properties":{"Line":"R125","Tr":1022,"X":"625394.3","Y":"9220800.3","Rotation":90,"NAMOBJ":"Penidon","WADMKC":"Plumpang","WADMKK":"Tuban"},"geometry":{"type":"Point","coordinates":[112.1,-7.0]}},{"type":"Feature","properties":{"Line":"R125","Tr":1023,"X":"625406.8","Y":"9220800.3","Rotation":90,"NAMOBJ":"Penidon","WADMKC":"Plumpang","WADMKK":"Tuban"},"geometry":{"type":"Point","coordinates":[112.1,-7.0]}},{"type":"Feature","properties":{"Line":"R125","Tr":1024,"X":"625419.3","Y":"9220800.3","Rotation":90,"NAMOBJ":"Penidon","WADMKC":"Plumpang","WADMKK":"Tuban"},"geometry":{"type":"Point","coordinates":[112.1,-7.0]}},{"type":"Feature","properties":{"Line":"R125","Tr":1025,"X":"625431.8","Y":"9220800.3","Rotation":90,"NAMOBJ":"Penidon","WADMKC":"Plumpang","WADMKK":"Tuban"},"geometry":{"type":"Point","coordinates":[112.1,-7.0]}},{"type":"Feature","properties":{"Line":"R125","Tr":1026,"X":"625444.3","Y":"9220800.3","Rotation":90,"NAMOBJ":"Penidon","WADMKC":"Plumpang","WADMKK":"Tuban"},"geometry":{"type":"Point","coordinates":[112.1,-7.0]}},{"type":"Feature","properties":{"Line":"R125","Tr":1027,"X":"625456.8","Y":"9220800.3","Rotation":90,"NAMOBJ":"Penidon","WADMKC":"Plumpang","WADMKK":"Tuban"},"geometry":{"type":"Point","coordinates":[112.1,-7.0]}},{"type":"Feature","properties":{"Line":"R125","Tr":1028,"X":"625469.3","Y":"9220800.3","Rotation":90,"NAMOBJ":"Penidon","WADMKC":"Plumpang","WADMKK":"Tuban"},"geometry":{"type":"Point","coordinates":[112.1,-7.0]}},{"type":"Feature","properties":{"Line":"R125","Tr":1029,"X":"625481.8","Y":"9220800.3","Rotation":90,"NAMOBJ":"Penidon","WADMKC":"Plumpang","WADMKK":"Tuban"},"geometry":{"type":"Point","coordinates":[112.1,-7.0]}},{"type":"Feature","properties":{"Line":"R125","Tr":1030,"X":"625494.3","Y":"9220800.3","Rotation":90,"NAMOBJ":"Penidon","WADMKC":"Plumpang","WADMKK":"Tuban"},"geometry":{"type":"Point","coordinates":[112.1,-7.0]}},{"type":"Feature","properties":{"Line":"R125","Tr":1031,"X":"625506.8","Y":"9220800.3","Rotation":90,"NAMOBJ":"Penidon","WADMKC":"Plumpang","WADMKK":"Tuban"},"geometry":{"type":"Point","coordinates":[112.1,-7.0]}},{"type":"Feature","properties":{"Line":"R125","Tr":1032,"X":"625519.3","Y":"9220800.3","Rotation":90,"NAMOBJ":"Penidon","WADMKC":"Plumpang","WADMKK":"Tuban"},"geometry":{"type":"Point","coordinates":[112.1,-7.0]}},{"type":"Feature","properties":{"Line":"R125","Tr":1033,"X":"625531.8","Y":"9220800.3","Rotation":90,"NAMOBJ":"Penidon","WADMKC":"Plumpang","WADMKK":"Tuban"},"geometry":{"type":"Point","coordinates":[112.1,-7.0]}},{"type":"Feature","properties":{"Line":"R125","Tr":1034,"X":"625544.3","Y":"9220800.3","Rotation":90,"NAMOBJ":"Penidon","WADMKC":"Plumpang","WADMKK":"Tuban"},"geometry":{"type":"Point","coordinates":[112.1,-7.0]}},{"type":"Feature","properties":{"Line":"R125","Tr":1035,"X":"625556.8","Y":"9220800.3","Rotation":90,"NAMOBJ":"Penidon","WADMKC":"Plumpang","WADMKK":"Tuban"},"geometry":{"type":"Point","coordinates":[112.1,-7.0]}},{"type":"Feature","properties":{"Line":"R125","Tr":1036,"X":"625569.3","Y":"9220800.3","Rotation":90,"NAMOBJ":"Penidon","WADMKC":"Plumpang","WADMKK":"Tuban"},"geometry":{"type":"Point","coordinates":[112.1,-7.0]}},{"type":"Feature","properties":{"Line":"R125","Tr":1037,"X":"625581.8","Y":"9220800.3","Rotation":90,"NAMOBJ":"Penidon","WADMKC":"Plumpang","WADMKK":"Tuban"},"geometry":{"type":"Point","coordinates":[112.1,-7.0]}},{"type":"Feature","properties":{"Line":"R125","Tr":1038,"X":"625594.3","Y":"9220800.3","Rotation":90,"NAMOBJ":"Penidon","WADMKC":"Plumpang","WADMKK":"Tuban"},"geometry":{"type":"Point","coordinates":[112.1,-7.0]}},{"type":"Feature","properties":{"Line":"R125","Tr":1039,"X":"625606.8","Y":"9220800.3","Rotation":90,"NAMOBJ":"Penidon","WADMKC":"Plumpang","WADMKK":"Tuban"},"geometry":{"type":"Point","coordinates":[112.1,-7.0]}},{"type":"Feature","properties":{"Line":"R125","Tr":1040,"X":"625619.3","Y":"9220800.3","Rotation":90,"NAMOBJ":"Penidon","WADMKC":"Plumpang","WADMKK":"Tuban"},"geometry":{"type":"Point","coordinates":[112.1,-7.0]}},{"type":"Feature","properties":{"Line":"R125","Tr":1041,"X":"625631.8","Y":"9220800.3","Rotation":90,"NAMOBJ":"Penidon","WADMKC":"Plumpang","WADMKK":"Tuban"},"geometry":{"type":"Point","coordinates":[112.1,-7.0]}},{"type":"Feature","properties":{"Line":"R125","Tr":1042,"X":"625644.3","Y":"9220800.3","Rotation":90,"NAMOBJ":"Penidon","WADMKC":"Plumpang","WADMKK":"Tuban"},"geometry":{"type":"Point","coordinates":[112.1,-7.0]}},{"type":"Feature","properties":{"Line":"R125","Tr":1043,"X":"625656.8","Y":"9220800.3","Rotation":90,"NAMOBJ":"Penidon","WADMKC":"Plumpang","WADMKK":"Tuban"},"geometry":{"type":"Point","coordinates":[112.1,-7.0]}},{"type":"Feature","properties":{"Line":"R125","Tr":1044,"X":"625669.3","Y":"9220800.3","Rotation":90,"NAMOBJ":"Penidon","WADMKC":"Plumpang","WADMKK":"Tuban"},"geometry":{"type":"Point","coordinates":[112.1,-7.0]}},{"type":"Feature","properties":{"Line":"R125","Tr":1045,"X":"625681.8","Y":"9220800.3","Rotation":90,"NAMOBJ":"Penidon","WADMKC":"Plumpang","WADMKK":"Tuban"},"geometry":{"type":"Point","coordinates":[112.1,-7.0]}},{"type":"Feature","properties":{"Line":"R125","Tr":1046,"X":"625694.3","Y":"9220800.3","Rotation":90,"NAMOBJ":"Penidon","WADMKC":"Plumpang","WADMKK":"Tuban"},"geometry":{"type":"Point","coordinates":[112.1,-7.0]}},{"type":"Feature","properties":{"Line":"R125","Tr":1047,"X":"625706.8","Y":"9220800.3","Rotation":90,"NAMOBJ":"Penidon","WADMKC":"Plumpang","WADMKK":"Tuban"},"geometry":{"type":"Point","coordinates":[112.1,-7.0]}},{"type":"Feature","properties":{"Line":"R125","Tr":1048,"X":"625719.3","Y":"9220800.3","Rotation":90,"NAMOBJ":"Penidon","WADMKC":"Plumpang","WADMKK":"Tuban"},"geometry":{"type":"Point","coordinates":[112.1,-7.0]}},{"type":"Feature","properties":{"Line":"R125","Tr":1049,"X":"625731.8","Y":"9220800.3","Rotation":90,"NAMOBJ":"Penidon","WADMKC":"Plumpang","WADMKK":"Tuban"},"geometry":{"type":"Point","coordinates":[112.1,-7.0]}},{"type":"Feature","properties":{"Line":"R125","Tr":1050,"X":"625744.3","Y":"9220800.3","Rotation":90,"NAMOBJ":"Penidon","WADMKC":"Plumpang","WADMKK":"Tuban"},"geometry":{"type":"Point","coordinates":[112.1,-7.0]}},{"type":"Feature","properties":{"Line":"R125","Tr":1051,"X":"625756.8","Y":"9220800.3","Rotation":90,"NAMOBJ":"Penidon","WADMKC":"Plumpang","WADMKK":"Tuban"},"geometry":{"type":"Point","coordinates":[112.1,-7.0]}},{"type":"Feature","properties":{"Line":"R125","Tr":1052,"X":"625769.3","Y":"9220800.3","Rotation":90,"NAMOBJ":"Penidon","WADMKC":"Plumpang","WADMKK":"Tuban"},"geometry":{"type":"Point","coordinates":[112.1,-7.0]}},{"type":"Feature","properties":{"Line":"R125","Tr":1053,"X":"625781.8","Y":"9220800.3","Rotation":90,"NAMOBJ":"Penidon","WADMKC":"Plumpang","WADMKK":"Tuban"},"geometry":{"type":"Point","coordinates":[112.1,-7.0]}},{"type":"Feature","properties":{"Line":"R125","Tr":1054,"X":"625794.3","Y":"9220800.3","Rotation":90,"NAMOBJ":"Penidon","WADMKC":"Plumpang","WADMKK":"Tuban"},"geometry":{"type":"Point","coordinates":[112.1,-7.0]}},{"type":"Feature","properties":{"Line":"R125","Tr":1055,"X":"625806.8","Y":"9220800.3","Rotation":90,"NAMOBJ":"Penidon","WADMKC":"Plumpang","WADMKK":"Tuban"},"geometry":{"type":"Point","coordinates":[112.1,-7.0]}},{"type":"Feature","properties":{"Line":"R125","Tr":1056,"X":"625819.3","Y":"9220800.3","Rotation":90,"NAMOBJ":"Penidon","WADMKC":"Plumpang","WADMKK":"Tuban"},"geometry":{"type":"Point","coordinates":[112.1,-7.0]}},{"type":"Feature","properties":{"Line":"R125","Tr":1057,"X":"625831.8","Y":"9220800.3","Rotation":90,"NAMOBJ":"Penidon","WADMKC":"Plumpang","WADMKK":"Tuban"},"geometry":{"type":"Point","coordinates":[112.1,-7.0]}},{"type":"Feature","properties":{"Line":"R125","Tr":1058,"X":"625844.3","Y":"9220800.3","Rotation":90,"NAMOBJ":"Penidon","WADMKC":"Plumpang","WADMKK":"Tuban"},"geometry":{"type":"Point","coordinates":[112.1,-7.0]}},{"type":"Feature","properties":{"Line":"R125","Tr":1059,"X":"625856.8","Y":"9220800.3","Rotation":90,"NAMOBJ":"Penidon","WADMKC":"Plumpang","WADMKK":"Tuban"},"geometry":{"type":"Point","coordinates":[112.1,-7.0]}},{"type":"Feature","properties":{"Line":"R125","Tr":1060,"X":"625869.3","Y":"9220800.3","Rotation":90,"NAMOBJ":"Penidon","WADMKC":"Plumpang","WADMKK":"Tuban"},"geometry":{"type":"Point","coordinates":[112.1,-7.0]}},{"type":"Feature","properties":{"Line":"R125","Tr":1061,"X":"625881.8","Y":"9220800.3","Rotation":90,"NAMOBJ":"Penidon","WADMKC":"Plumpang","WADMKK":"Tuban"},"geometry":{"type":"Point","coordinates":[112.1,-7.0]}},{"type":"Feature","properties":{"Line":"R125","Tr":1062,"X":"625894.3","Y":"9220800.3","Rotation":90,"NAMOBJ":"Penidon","WADMKC":"Plumpang","WADMKK":"Tuban"},"geometry":{"type":"Point","coordinates":[112.1,-7.0]}},{"type":"Feature","properties":{"Line":"R125","Tr":1063,"X":"625906.8","Y":"9220800.3","Rotation":90,"NAMOBJ":"Penidon","WADMKC":"Plumpang","WADMKK":"Tuban"},"geometry":{"type":"Point","coordinates":[112.1,-7.0]}},{"type":"Feature","properties":{"Line":"R125","Tr":1064,"X":"625919.3","Y":"9220800.3","Rotation":90,"NAMOBJ":"Penidon","WADMKC":"Plumpang","WADMKK":"Tuban"},"geometry":{"type":"Point","coordinates":[112.1,-7.0]}},{"type":"Feature","properties":{"Line":"R125","Tr":1065,"X":"625931.8","Y":"9220800.3","Rotation":90,"NAMOBJ":"Penidon","WADMKC":"Plumpang","WADMKK":"Tuban"},"geometry":{"type":"Point","coordinates":[112.1,-7.0]}},{"type":"Feature","properties":{"Line":"R125","Tr":1066,"X":"625944.3","Y":"9220800.3","Rotation":90,"NAMOBJ":"Penidon","WADMKC":"Plumpang","WADMKK":"Tuban"},"geometry":{"type":"Point","coordinates":[112.1,-7.0]}},{"type":"Feature","properties":{"Line":"R125","Tr":1067,"X":"625956.8","Y":"9220800.3","Rotation":90,"NAMOBJ":"Penidon","WADMKC":"Plumpang","WADMKK":"Tuban"},"geometry":{"type":"Point","coordinates":[112.1,-7.0]}},{"type":"Feature","properties":{"Line":"R125","Tr":1068,"X":"625969.3","Y":"9220800.3","Rotation":90,"NAMOBJ":"Penidon","WADMKC":"Plumpang","WADMKK":"Tuban"},"geometry":{"type":"Point","coordinates":[112.1,-7.0]}},{"type":"Feature","properties":{"Line":"R125","Tr":1069,"X":"625981.8","Y":"9220800.3","Rotation":90,"NAMOBJ":"Penidon","WADMKC":"Plumpang","WADMKK":"Tuban"},"geometry":{"type":"Point","coordinates":[112.1,-7.0]}},{"type":"Feature","properties":{"Line":"R125","Tr":1070,"X":"625994.3","Y":"9220800.3","Rotation":90,"NAMOBJ":"Penidon","WADMKC":"Plumpang","WADMKK":"Tuban"},"geometry":{"type":"Point","coordinates":[112.1,-7.0]}},{"type":"Feature","properties":{"Line":"R125","Tr":1071,"X":"626006.8","Y":"9220800.3","Rotation":90,"NAMOBJ":"Penidon","WADMKC":"Plumpang","WADMKK":"Tuban"},"geometry":{"type":"Point","coordinates":[112.1,-7.0]}},{"type":"Feature","properties":{"Line":"R125","Tr":1072,"X":"626019.3","Y":"9220800.3","Rotation":90,"NAMOBJ":"Penidon","WADMKC":"Plumpang","WADMKK":"Tuban"},"geometry":{"type":"Point","coordinates":[112.1,-7.0]}},{"type":"Feature","properties":{"Line":"R125","Tr":1073,"X":"626031.8","Y":"9220800.3","Rotation":90,"NAMOBJ":"Penidon","WADMKC":"Plumpang","WADMKK":"Tuban"},"geometry":{"type":"Point","coordinates":[112.1,-7.0]}},{"type":"Feature","properties":{"Line":"R125","Tr":1074,"X":"626044.3","Y":"9220800.3","Rotation":90,"NAMOBJ":"Penidon","WADMKC":"Plumpang","WADMKK":"Tuban"},"geometry":{"type":"Point","coordinates":[112.1,-7.0]}},{"type":"Feature","properties":{"Line":"R125","Tr":1075,"X":"626056.8","Y":"9220800.3","Rotation":90,"NAMOBJ":"Penidon","WADMKC":"Plumpang","WADMKK":"Tuban"},"geometry":{"type":"Point","coordinates":[112.1,-7.0]}},{"type":"Feature","properties":{"Line":"R125","Tr":1076,"X":"626069.3","Y":"9220800.3","Rotation":90,"NAMOBJ":"Penidon","WADMKC":"Plumpang","WADMKK":"Tuban"},"geometry":{"type":"Point","coordinates":[112.1,-7.0]}},{"type":"Feature","properties":{"Line":"R125","Tr":1077,"X":"626081.8","Y":"9220800.3","Rotation":90,"NAMOBJ":"Penidon","WADMKC":"Plumpang","WADMKK":"Tuban"},"geometry":{"type":"Point","coordinates":[112.1,-7.0]}},{"type":"Feature","properties":{"Line":"R125","Tr":1078,"X":"626094.3","Y":"9220800.3","Rotation":90,"NAMOBJ":"Penidon","WADMKC":"Plumpang","WADMKK":"Tuban"},"geometry":{"type":"Point","coordinates":[112.1,-7.0]}},{"type":"Feature","properties":{"Line":"R125","Tr":1079,"X":"626106.8","Y":"9220800.3","Rotation":90,"NAMOBJ":"Penidon","WADMKC":"Plumpang","WADMKK":"Tuban"},"geometry":{"type":"Point","coordinates":[112.1,-7.0]}},{"type":"Feature","properties":{"Line":"R125","Tr":1080,"X":"626119.3","Y":"9220800.3","Rotation":90,"NAMOBJ":"Penidon","WADMKC":"Plumpang","WADMKK":"Tuban"},"geometry":{"type":"Point","coordinates":[112.1,-7.0]}},{"type":"Feature","properties":{"Line":"R125","Tr":1081,"X":"626131.8","Y":"9220800.3","Rotation":90,"NAMOBJ":"Penidon","WADMKC":"Plumpang","WADMKK":"Tuban"},"geometry":{"type":"Point","coordinates":[112.1,-7.0]}},{"type":"Feature","properties":{"Line":"R125","Tr":1082,"X":"626144.3","Y":"9220800.3","Rotation":90,"NAMOBJ":"Penidon","WADMKC":"Plumpang","WADMKK":"Tuban"},"geometry":{"type":"Point","coordinates":[112.1,-7.0]}},{"type":"Feature","properties":{"Line":"R125","Tr":1083,"X":"626156.8","Y":"9220800.3","Rotation":90,"NAMOBJ":"Penidon","WADMKC":"Plumpang","WADMKK":"Tuban"},"geometry":{"type":"Point","coordinates":[112.1,-7.0]}},{"type":"Feature","properties":{"Line":"R125","Tr":1084,"X":"626169.3","Y":"9220800.3","Rotation":90,"NAMOBJ":"Penidon","WADMKC":"Plumpang","WADMKK":"Tuban"},"geometry":{"type":"Point","coordinates":[112.1,-7.0]}},{"type":"Feature","properties":{"Line":"R125","Tr":1085,"X":"626181.8","Y":"9220800.3","Rotation":90,"NAMOBJ":"Penidon","WADMKC":"Plumpang","WADMKK":"Tuban"},"geometry":{"type":"Point","coordinates":[112.1,-7.0]}},{"type":"Feature","properties":{"Line":"R125","Tr":1086,"X":"626194.3","Y":"9220800.3","Rotation":90,"NAMOBJ":"Penidon","WADMKC":"Plumpang","WADMKK":"Tuban"},"geometry":{"type":"Point","coordinates":[112.1,-7.0]}},{"type":"Feature","properties":{"Line":"R125","Tr":1087,"X":"626206.8","Y":"9220800.3","Rotation":90,"NAMOBJ":"Penidon","WADMKC":"Plumpang","WADMKK":"Tuban"},"geometry":{"type":"Point","coordinates":[112.1,-7.0]}},{"type":"Feature","properties":{"Line":"R125","Tr":1088,"X":"626219.3","Y":"9220800.3","Rotation":90,"NAMOBJ":"Penidon","WADMKC":"Plumpang","WADMKK":"Tuban"},"geometry":{"type":"Point","coordinates":[112.1,-7.0]}},{"type":"Feature","properties":{"Line":"R125","Tr":1089,"X":"626231.8","Y":"9220800.3","Rotation":90,"NAMOBJ":"Penidon","WADMKC":"Plumpang","WADMKK":"Tuban"},"geometry":{"type":"Point","coordinates":[112.1,-7.0]}},{"type":"Feature","properties":{"Line":"R125","Tr":1090,"X":"626244.3","Y":"9220800.3","Rotation":90,"NAMOBJ":"Penidon","WADMKC":"Plumpang","WADMKK":"Tuban"},"geometry":{"type":"Point","coordinates":[112.1,-7.0]}},{"type":"Feature","properties":{"Line":"R125","Tr":1091,"X":"626256.8","Y":"9220800.3","Rotation":90,"NAMOBJ":"Penidon","WADMKC":"Plumpang","WADMKK":"Tuban"},"geometry":{"type":"Point","coordinates":[112.1,-7.0]}},{"type":"Feature","properties":{"Line":"R125","Tr":1092,"X":"626269.3","Y":"9220800.3","Rotation":90,"NAMOBJ":"Penidon","WADMKC":"Plumpang","WADMKK":"Tuban"},"geometry":{"type":"Point","coordinates":[112.1,-7.0]}},{"type":"Feature","properties":{"Line":"R125","Tr":1093,"X":"626281.8","Y":"9220800.3","Rotation":90,"NAMOBJ":"Penidon","WADMKC":"Plumpang","WADMKK":"Tuban"},"geometry":{"type":"Point","coordinates":[112.1,-7.0]}},{"type":"Feature","properties":{"Line":"R125","Tr":1094,"X":"626294.3","Y":"9220800.3","Rotation":90,"NAMOBJ":"Penidon","WADMKC":"Plumpang","WADMKK":"Tuban"},"geometry":{"type":"Point","coordinates":[112.1,-7.0]}},{"type":"Feature","properties":{"Line":"R125","Tr":1095,"X":"626306.8","Y":"9220800.3","Rotation":90,"NAMOBJ":"Penidon","WADMKC":"Plumpang","WADMKK":"Tuban"},"geometry":{"type":"Point","coordinates":[112.1,-7.0]}},{"type":"Feature","properties":{"Line":"R125","Tr":1096,"X":"626319.3","Y":"9220800.3","Rotation":90,"NAMOBJ":"Penidon","WADMKC":"Plumpang","WADMKK":"Tuban"},"geometry":{"type":"Point","coordinates":[112.1,-7.0]}},{"type":"Feature","properties":{"Line":"R125","Tr":1097,"X":"626331.8","Y":"9220800.3","Rotation":90,"NAMOBJ":"Penidon","WADMKC":"Plumpang","WADMKK":"Tuban"},"geometry":{"type":"Point","coordinates":[112.1,-7.0]}},{"type":"Feature","properties":{"Line":"R125","Tr":1098,"X":"626344.3","Y":"9220800.3","Rotation":90,"NAMOBJ":"Penidon","WADMKC":"Plumpang","WADMKK":"Tuban"},"geometry":{"type":"Point","coordinates":[112.1,-7.0]}},{"type":"Feature","properties":{"Line":"R125","Tr":1099,"X":"626356.8","Y":"9220800.3","Rotation":90,"NAMOBJ":"Penidon","WADMKC":"Plumpang","WADMKK":"Tuban"},"geometry":{"type":"Point","coordinates":[112.1,-7.0]}},{"type":"Feature","properties":{"Line":"R125","Tr":1100,"X":"626369.3","Y":"9220800.3","Rotation":90,"NAMOBJ":"Penidon","WADMKC":"Plumpang","WADMKK":"Tuban"},"geometry":{"type":"Point","coordinates":[112.1,-7.0]}},{"type":"Feature","properties":{"Line":"R125","Tr":1101,"X":"626381.8","Y":"9220800.3","Rotation":90,"NAMOBJ":"Penidon","WADMKC":"Plumpang","WADMKK":"Tuban"},"geometry":{"type":"Point","coordinates":[112.1,-7.0]}},{"type":"Feature","properties":{"Line":"R125","Tr":1102,"X":"626394.3","Y":"9220800.3","Rotation":90,"NAMOBJ":"Penidon","WADMKC":"Plumpang","WADMKK":"Tuban"},"geometry":{"type":"Point","coordinates":[112.1,-7.0]}},{"type":"Feature","properties":{"Line":"R125","Tr":1103,"X":"626406.8","Y":"9220800.3","Rotation":90,"NAMOBJ":"Penidon","WADMKC":"Plumpang","WADMKK":"Tuban"},"geometry":{"type":"Point","coordinates":[112.1,-7.0]}},{"type":"Feature","properties":{"Line":"R125","Tr":1104,"X":"626419.3","Y":"9220800.3","Rotation":90,"NAMOBJ":"Penidon","WADMKC":"Plumpang","WADMKK":"Tuban"},"geometry":{"type":"Point","coordinates":[112.1,-7.0]}},{"type":"Feature","properties":{"Line":"R125","Tr":1105,"X":"626431.8","Y":"9220800.3","Rotation":90,"NAMOBJ":"Penidon","WADMKC":"Plumpang","WADMKK":"Tuban"},"geometry":{"type":"Point","coordinates":[112.1,-7.0]}},{"type":"Feature","properties":{"Line":"R125","Tr":1106,"X":"626444.3","Y":"9220800.3","Rotation":90,"NAMOBJ":"Penidon","WADMKC":"Plumpang","WADMKK":"Tuban"},"geometry":{"type":"Point","coordinates":[112.1,-7.0]}},{"type":"Feature","properties":{"Line":"R125","Tr":1107,"X":"626456.8","Y":"9220800.3","Rotation":90,"NAMOBJ":"Penidon","WADMKC":"Plumpang","WADMKK":"Tuban"},"geometry":{"type":"Point","coordinates":[112.1,-7.0]}},{"type":"Feature","properties":{"Line":"R125","Tr":1108,"X":"626469.3","Y":"9220800.3","Rotation":90,"NAMOBJ":"Penidon","WADMKC":"Plumpang","WADMKK":"Tuban"},"geometry":{"type":"Point","coordinates":[112.1,-7.0]}},{"type":"Feature","properties":{"Line":"R125","Tr":1109,"X":"626481.8","Y":"9220800.3","Rotation":90,"NAMOBJ":"Penidon","WADMKC":"Plumpang","WADMKK":"Tuban"},"geometry":{"type":"Point","coordinates":[112.1,-7.0]}},{"type":"Feature","properties":{"Line":"R125","Tr":1110,"X":"626494.3","Y":"9220800.3","Rotation":90,"NAMOBJ":"Penidon","WADMKC":"Plumpang","WADMKK":"Tuban"},"geometry":{"type":"Point","coordinates":[112.1,-7.0]}},{"type":"Feature","properties":{"Line":"R125","Tr":1111,"X":"626506.8","Y":"9220800.3","Rotation":90,"NAMOBJ":"Penidon","WADMKC":"Plumpang","WADMKK":"Tuban"},"geometry":{"type":"Point","coordinates":[112.1,-7.0]}},{"type":"Feature","properties":{"Line":"R125","Tr":1112,"X":"626519.3","Y":"9220800.3","Rotation":90,"NAMOBJ":"Penidon","WADMKC":"Plumpang","WADMKK":"Tuban"},"geometry":{"type":"Point","coordinates":[112.1,-7.0]}},{"type":"Feature","properties":{"Line":"R125","Tr":1113,"X":"626531.8","Y":"9220800.3","Rotation":90,"NAMOBJ":"Penidon","WADMKC":"Plumpang","WADMKK":"Tuban"},"geometry":{"type":"Point","coordinates":[112.1,-7.0]}},{"type":"Feature","properties":{"Line":"R125","Tr":1114,"X":"626544.3","Y":"9220800.3","Rotation":90,"NAMOBJ":"Penidon","WADMKC":"Plumpang","WADMKK":"Tuban"},"geometry":{"type":"Point","coordinates":[112.1,-7.0]}},{"type":"Feature","properties":{"Line":"R125","Tr":1115,"X":"626556.8","Y":"9220800.3","Rotation":90,"NAMOBJ":"Penidon","WADMKC":"Plumpang","WADMKK":"Tuban"},"geometry":{"type":"Point","coordinates":[112.1,-7.0]}},{"type":"Feature","properties":{"Line":"R125","Tr":1116,"X":"626569.3","Y":"9220800.3","Rotation":90,"NAMOBJ":"Penidon","WADMKC":"Plumpang","WADMKK":"Tuban"},"geometry":{"type":"Point","coordinates":[112.1,-7.0]}},{"type":"Feature","properties":{"Line":"R125","Tr":1117,"X":"626581.8","Y":"9220800.3","Rotation":90,"NAMOBJ":"Penidon","WADMKC":"Plumpang","WADMKK":"Tuban"},"geometry":{"type":"Point","coordinates":[112.1,-7.0]}},{"type":"Feature","properties":{"Line":"R125","Tr":1118,"X":"626594.3","Y":"9220800.3","Rotation":90,"NAMOBJ":"Penidon","WADMKC":"Plumpang","WADMKK":"Tuban"},"geometry":{"type":"Point","coordinates":[112.1,-7.0]}},{"type":"Feature","properties":{"Line":"R125","Tr":1119,"X":"626606.8","Y":"9220800.3","Rotation":90,"NAMOBJ":"Penidon","WADMKC":"Plumpang","WADMKK":"Tuban"},"geometry":{"type":"Point","coordinates":[112.1,-7.0]}},{"type":"Feature","properties":{"Line":"R125","Tr":1120,"X":"626619.3","Y":"9220800.3","Rotation":90,"NAMOBJ":"Penidon","WADMKC":"Plumpang","WADMKK":"Tuban"},"geometry":{"type":"Point","coordinates":[112.1,-7.0]}},{"type":"Feature","properties":{"Line":"R125","Tr":1121,"X":"626631.8","Y":"9220800.3","Rotation":90,"NAMOBJ":"Penidon","WADMKC":"Plumpang","WADMKK":"Tuban"},"geometry":{"type":"Point","coordinates":[112.1,-7.0]}},{"type":"Feature","properties":{"Line":"R125","Tr":1122,"X":"626644.3","Y":"9220800.3","Rotation":90,"NAMOBJ":"Penidon","WADMKC":"Plumpang","WADMKK":"Tuban"},"geometry":{"type":"Point","coordinates":[112.1,-7.0]}},{"type":"Feature","properties":{"Line":"R125","Tr":1123,"X":"626656.8","Y":"9220800.3","Rotation":90,"NAMOBJ":"Penidon","WADMKC":"Plumpang","WADMKK":"Tuban"},"geometry":{"type":"Point","coordinates":[112.1,-7.0]}},{"type":"Feature","properties":{"Line":"R125","Tr":1124,"X":"626669.3","Y":"9220800.3","Rotation":90,"NAMOBJ":"Penidon","WADMKC":"Plumpang","WADMKK":"Tuban"},"geometry":{"type":"Point","coordinates":[112.1,-7.0]}},{"type":"Feature","properties":{"Line":"R125","Tr":1125,"X":"626681.8","Y":"9220800.3","Rotation":90,"NAMOBJ":"Penidon","WADMKC":"Plumpang","WADMKK":"Tuban"},"geometry":{"type":"Point","coordinates":[112.1,-7.0]}},{"type":"Feature","properties":{"Line":"R125","Tr":1126,"X":"626694.3","Y":"9220800.3","Rotation":90,"NAMOBJ":"Penidon","WADMKC":"Plumpang","WADMKK":"Tuban"},"geometry":{"type":"Point","coordinates":[112.1,-7.0]}},{"type":"Feature","properties":{"Line":"R125","Tr":1127,"X":"626706.8","Y":"9220800.3","Rotation":90,"NAMOBJ":"Penidon","WADMKC":"Plumpang","WADMKK":"Tuban"},"geometry":{"type":"Point","coordinates":[112.1,-7.0]}},{"type":"Feature","properties":{"Line":"R125","Tr":1128,"X":"626719.3","Y":"9220800.3","Rotation":90,"NAMOBJ":"Penidon","WADMKC":"Plumpang","WADMKK":"Tuban"},"geometry":{"type":"Point","coordinates":[112.1,-7.0]}},{"type":"Feature","properties":{"Line":"R125","Tr":1129,"X":"626731.8","Y":"9220800.3","Rotation":90,"NAMOBJ":"Penidon","WADMKC":"Plumpang","WADMKK":"Tuban"},"geometry":{"type":"Point","coordinates":[112.1,-7.0]}},{"type":"Feature","properties":{"Line":"R125","Tr":1130,"X":"626744.3","Y":"9220800.3","Rotation":90,"NAMOBJ":"Penidon","WADMKC":"Plumpang","WADMKK":"Tuban"},"geometry":{"type":"Point","coordinates":[112.1,-7.0]}},{"type":"Feature","properties":{"Line":"R125","Tr":1131,"X":"626756.8","Y":"9220800.3","Rotation":90,"NAMOBJ":"Penidon","WADMKC":"Plumpang","WADMKK":"Tuban"},"geometry":{"type":"Point","coordinates":[112.1,-7.0]}},{"type":"Feature","properties":{"Line":"R125","Tr":1132,"X":"626769.3","Y":"9220800.3","Rotation":90,"NAMOBJ":"Penidon","WADMKC":"Plumpang","WADMKK":"Tuban"},"geometry":{"type":"Point","coordinates":[112.1,-7.0]}},{"type":"Feature","properties":{"Line":"R125","Tr":1133,"X":"626781.8","Y":"9220800.3","Rotation":90,"NAMOBJ":"Penidon","WADMKC":"Plumpang","WADMKK":"Tuban"},"geometry":{"type":"Point","coordinates":[112.1,-7.0]}},{"type":"Feature","properties":{"Line":"R125","Tr":1134,"X":"626794.3","Y":"9220800.3","Rotation":90,"NAMOBJ":"Penidon","WADMKC":"Plumpang","WADMKK":"Tuban"},"geometry":{"type":"Point","coordinates":[112.1,-7.0]}},{"type":"Feature","properties":{"Line":"R125","Tr":1135,"X":"626806.8","Y":"9220800.3","Rotation":90,"NAMOBJ":"Penidon","WADMKC":"Plumpang","WADMKK":"Tuban"},"geometry":{"type":"Point","coordinates":[112.1,-7.0]}},{"type":"Feature","properties":{"Line":"R125","Tr":1136,"X":"626819.3","Y":"9220800.3","Rotation":90,"NAMOBJ":"Penidon","WADMKC":"Plumpang","WADMKK":"Tuban"},"geometry":{"type":"Point","coordinates":[112.1,-7.0]}},{"type":"Feature","properties":{"Line":"R125","Tr":1137,"X":"626831.8","Y":"9220800.3","Rotation":90,"NAMOBJ":"Penidon","WADMKC":"Plumpang","WADMKK":"Tuban"},"geometry":{"type":"Point","coordinates":[112.1,-7.0]}},{"type":"Feature","properties":{"Line":"R125","Tr":1138,"X":"626844.3","Y":"9220800.3","Rotation":90,"NAMOBJ":"Penidon","WADMKC":"Plumpang","WADMKK":"Tuban"},"geometry":{"type":"Point","coordinates":[112.1,-7.0]}},{"type":"Feature","properties":{"Line":"R125","Tr":1139,"X":"626856.8","Y":"9220800.3","Rotation":90,"NAMOBJ":"Penidon","WADMKC":"Plumpang","WADMKK":"Tuban"},"geometry":{"type":"Point","coordinates":[112.1,-7.0]}},{"type":"Feature","properties":{"Line":"R125","Tr":1140,"X":"626869.3","Y":"9220800.3","Rotation":90,"NAMOBJ":"Penidon","WADMKC":"Plumpang","WADMKK":"Tuban"},"geometry":{"type":"Point","coordinates":[112.1,-7.0]}},{"type":"Feature","properties":{"Line":"R125","Tr":1141,"X":"626881.8","Y":"9220800.3","Rotation":90,"NAMOBJ":"Penidon","WADMKC":"Plumpang","WADMKK":"Tuban"},"geometry":{"type":"Point","coordinates":[112.1,-7.0]}},{"type":"Feature","properties":{"Line":"R125","Tr":1142,"X":"626894.3","Y":"9220800.3","Rotation":90,"NAMOBJ":"Penidon","WADMKC":"Plumpang","WADMKK":"Tuban"},"geometry":{"type":"Point","coordinates":[112.1,-7.0]}},{"type":"Feature","properties":{"Line":"R125","Tr":1143,"X":"626906.8","Y":"9220800.3","Rotation":90,"NAMOBJ":"Penidon","WADMKC":"Plumpang","WADMKK":"Tuban"},"geometry":{"type":"Point","coordinates":[112.1,-7.0]}},{"type":"Feature","properties":{"Line":"R125","Tr":1144,"X":"626919.3","Y":"9220800.3","Rotation":90,"NAMOBJ":"Penidon","WADMKC":"Plumpang","WADMKK":"Tuban"},"geometry":{"type":"Point","coordinates":[112.1,-7.0]}},{"type":"Feature","properties":{"Line":"R125","Tr":1145,"X":"626931.8","Y":"9220800.3","Rotation":90,"NAMOBJ":"Penidon","WADMKC":"Plumpang","WADMKK":"Tuban"},"geometry":{"type":"Point","coordinates":[112.1,-7.0]}},{"type":"Feature","properties":{"Line":"R125","Tr":1146,"X":"626944.3","Y":"9220800.3","Rotation":90,"NAMOBJ":"Penidon","WADMKC":"Plumpang","WADMKK":"Tuban"},"geometry":{"type":"Point","coordinates":[112.1,-7.0]}},{"type":"Feature","properties":{"Line":"R125","Tr":1147,"X":"626956.8","Y":"9220800.3","Rotation":90,"NAMOBJ":"Penidon","WADMKC":"Plumpang","WADMKK":"Tuban"},"geometry":{"type":"Point","coordinates":[112.1,-7.0]}},{"type":"Feature","properties":{"Line":"R125","Tr":1148,"X":"626969.3","Y":"9220800.3","Rotation":90,"NAMOBJ":"Penidon","WADMKC":"Plumpang","WADMKK":"Tuban"},"geometry":{"type":"Point","coordinates":[112.1,-7.0]}},{"type":"Feature","properties":{"Line":"R125","Tr":1149,"X":"626981.8","Y":"9220800.3","Rotation":90,"NAMOBJ":"Penidon","WADMKC":"Plumpang","WADMKK":"Tuban"},"geometry":{"type":"Point","coordinates":[112.1,-7.0]}},{"type":"Feature","properties":{"Line":"R125","Tr":1150,"X":"626994.3","Y":"9220800.3","Rotation":90,"NAMOBJ":"Penidon","WADMKC":"Plumpang","WADMKK":"Tuban"},"geometry":{"type":"Point","coordinates":[112.1,-7.0]}},{"type":"Feature","properties":{"Line":"R125","Tr":1151,"X":"627006.8","Y":"9220800.3","Rotation":90,"NAMOBJ":"Penidon","WADMKC":"Plumpang","WADMKK":"Tuban"},"geometry":{"type":"Point","coordinates":[112.1,-7.0]}}]}