{"type":"FeatureCollection","features":[{"type":"Feature","properties":{"Line":"R101","Tr":1001,"X":"624231.8","Y":"9208800.3","Rotation":90,"NAMOBJ":"Karangan","WADMKC":"Kepohbaru","WADMKK":"Bojonegoro"},"geometry":{"type":"Point","coordinates":[112.1,-7.2]}},{"type":"Feature","properties":{"Line":"R101","Tr":1002,"X":"624244.3","Y":"9208800.3","Rotation":90,"NAMOBJ":"Karangan","WADMKC":"Kepohbaru","WADMKK":"Bojonegoro"},"geometry":{"type":"Point","coordinates":[112.1,-7.2]}},{"type":"Feature","properties":{"Line":"R101","Tr":1003,"X":"624256.8","Y":"9208800.3","Rotation":90,"NAMOBJ":"Karangan","WADMKC":"Kepohbaru","WADMKK":"Bojonegoro"},"geometry":{"type":"Point","coordinates":[112.1,-7.2]}},{"type":"Feature","properties":{"Line":"R101","Tr":1004,"X":"624269.3","Y":"9208800.3","Rotation":90,"NAMOBJ":"Karangan","WADMKC":"Kepohbaru","WADMKK":"Bojonegoro"},"geometry":{"type":"Point","coordinates":[112.1,-7.2]}},{"type":"Feature","properties":{"Line":"R101","Tr":1005,"X":"624281.8","Y":"9208800.3","Rotation":90,"NAMOBJ":"Karangan","WADMKC":"Kepohbaru","WADMKK":"Bojonegoro"},"geometry":{"type":"Point","coordinates":[112.1,-7.2]}},{"type":"Feature","properties":{"Line":"R101","Tr":1006,"X":"624294.3","Y":"9208800.3","Rotation":90,"NAMOBJ":"Karangan","WADMKC":"Kepohbaru","WADMKK":"Bojonegoro"},"geometry":{"type":"Point","coordinates":[112.1,-7.2]}},{"type":"Feature","properties":{"Line":"R101","Tr":1007,"X":"624306.8","Y":"9208800.3","Rotation":90,"NAMOBJ":"Karangan","WADMKC":"Kepohbaru","WADMKK":"Bojonegoro"},"geometry":{"type":"Point","coordinates":[112.1,-7.2]}},{"type":"Feature","properties":{"Line":"R101","Tr":1008,"X":"624319.3","Y":"9208800.3","Rotation":90,"NAMOBJ":"Karangan","WADMKC":"Kepohbaru","WADMKK":"Bojonegoro"},"geometry":{"type":"Point","coordinates":[112.1,-7.2]}},{"type":"Feature","properties":{"Line":"R101","Tr":1009,"X":"624331.8","Y":"9208800.3","Rotation":90,"NAMOBJ":"Karangan","WADMKC":"Kepohbaru","WADMKK":"Bojonegoro"},"geometry":{"type":"Point","coordinates":[112.1,-7.2]}},{"type":"Feature","properties":{"Line":"R101","Tr":1010,"X":"624344.3","Y":"9208800.3","Rotation":90,"NAMOBJ":"Karangan","WADMKC":"Kepohbaru","WADMKK":"Bojonegoro"},"geometry":{"type":"Point","coordinates":[112.1,-7.2]}},{"type":"Feature","properties":{"Line":"R101","Tr":1011,"X":"624356.8","Y":"9208800.3","Rotation":90,"NAMOBJ":"Karangan","WADMKC":"Kepohbaru","WADMKK":"Bojonegoro"},"geometry":{"type":"Point","coordinates":[112.1,-7.2]}},{"type":"Feature","properties":{"Line":"R101","Tr":1012,"X":"624369.3","Y":"9208800.3","Rotation":90,"NAMOBJ":"Karangan","WADMKC":"Kepohbaru","WADMKK":"Bojonegoro"},"geometry":{"type":"Point","coordinates":[112.1,-7.2]}},{"type":"Feature","properties":{"Line":"R101","Tr":1013,"X":"624381.8","Y":"9208800.3","Rotation":90,"NAMOBJ":"Karangan","WADMKC":"Kepohbaru","WADMKK":"Bojonegoro"},"geometry":{"type":"Point","coordinates":[112.1,-7.2]}},{"type":"Feature","properties":{"Line":"R101","Tr":1014,"X":"624394.3","Y":"9208800.3","Rotation":90,"NAMOBJ":"Karangan","WADMKC":"Kepohbaru","WADMKK":"Bojonegoro"},"geometry":{"type":"Point","coordinates":[112.1,-7.2]}},{"type":"Feature","properties":{"Line":"R101","Tr":1015,"X":"624406.8","Y":"9208800.3","Rotation":90,"NAMOBJ":"Karangan","WADMKC":"Kepohbaru","WADMKK":"Bojonegoro"},"geometry":{"type":"Point","coordinates":[112.1,-7.2]}},{"type":"Feature","properties":{"Line":"R101","Tr":1016,"X":"624419.3","Y":"9208800.3","Rotation":90,"NAMOBJ":"Karangan","WADMKC":"Kepohbaru","WADMKK":"Bojonegoro"},"geometry":{"type":"Point","coordinates":[112.1,-7.2]}},{"type":"Feature","properties":{"Line":"R101","Tr":1017,"X":"624431.8","Y":"9208800.3","Rotation":90,"NAMOBJ":"Karangan","WADMKC":"Kepohbaru","WADMKK":"Bojonegoro"},"geometry":{"type":"Point","coordinates":[112.1,-7.2]}},{"type":"Feature","properties":{"Line":"R101","Tr":1018,"X":"624444.3","Y":"9208800.3","Rotation":90,"NAMOBJ":"Karangan","WADMKC":"Kepohbaru","WADMKK":"Bojonegoro"},"geometry":{"type":"Point","coordinates":[112.1,-7.2]}},{"type":"Feature","properties":{"Line":"R101","Tr":1019,"X":"624456.8","Y":"9208800.3","Rotation":90,"NAMOBJ":"Karangan","WADMKC":"Kepohbaru","WADMKK":"Bojonegoro"},"geometry":{"type":"Point","coordinates":[112.1,-7.2]}},{"type":"Feature","properties":{"Line":"R101","Tr":1020,"X":"624469.3","Y":"9208800.3","Rotation":90,"NAMOBJ":"Karangan","WADMKC":"Kepohbaru","WADMKK":"Bojonegoro"},"geometry":{"type":"Point","coordinates":[112.1,-7.2]}},{"type":"Feature","properties":{"Line":"R101","Tr":1021,"X":"624481.8","Y":"9208800.3","Rotation":90,"NAMOBJ":"Karangan","WADMKC":"Kepohbaru","WADMKK":"Bojonegoro"},"geometry":{"type":"Point","coordinates":[112.1,-7.2]}},{"type":"Feature","properties":{"Line":"R101","Tr":1022,"X":"624494.3","Y":"9208800.3","Rotation":90,"NAMOBJ":"Karangan","WADMKC":"Kepohbaru","WADMKK":"Bojonegoro"},"geometry":{"type":"Point","coordinates":[112.1,-7.2]}},{"type":"Feature","properties":{"Line":"R101","Tr":1023,"X":"624506.8","Y":"9208800.3","Rotation":90,"NAMOBJ":"Karangan","WADMKC":"Kepohbaru","WADMKK":"Bojonegoro"},"geometry":{"type":"Point","coordinates":[112.1,-7.2]}},{"type":"Feature","properties":{"Line":"R101","Tr":1024,"X":"624519.3","Y":"9208800.3","Rotation":90,"NAMOBJ":"Karangan","WADMKC":"Kepohbaru","WADMKK":"Bojonegoro"},"geometry":{"type":"Point","coordinates":[112.1,-7.2]}},{"type":"Feature","properties":{"Line":"R101","Tr":1025,"X":"624531.8","Y":"9208800.3","Rotation":90,"NAMOBJ":"Karangan","WADMKC":"Kepohbaru","WADMKK":"Bojonegoro"},"geometry":{"type":"Point","coordinates":[112.1,-7.2]}},{"type":"Feature","properties":{"Line":"R101","Tr":1026,"X":"624544.3","Y":"9208800.3","Rotation":90,"NAMOBJ":"Karangan","WADMKC":"Kepohbaru","WADMKK":"Bojonegoro"},"geometry":{"type":"Point","coordinates":[112.1,-7.2]}},{"type":"Feature","properties":{"Line":"R101","Tr":1027,"X":"624556.8","Y":"9208800.3","Rotation":90,"NAMOBJ":"Karangan","WADMKC":"Kepohbaru","WADMKK":"Bojonegoro"},"geometry":{"type":"Point","coordinates":[112.1,-7.2]}},{"type":"Feature","properties":{"Line":"R101","Tr":1028,"X":"624569.3","Y":"9208800.3","Rotation":90,"NAMOBJ":"Karangan","WADMKC":"Kepohbaru","WADMKK":"Bojonegoro"},"geometry":{"type":"Point","coordinates":[112.1,-7.2]}},{"type":"Feature","properties":{"Line":"R101","Tr":1029,"X":"624581.8","Y":"9208800.3","Rotation":90,"NAMOBJ":"Karangan","WADMKC":"Kepohbaru","WADMKK":"Bojonegoro"},"geometry":{"type":"Point","coordinates":[112.1,-7.2]}},{"type":"Feature","properties":{"Line":"R101","Tr":1030,"X":"624594.3","Y":"9208800.3","Rotation":90,"NAMOBJ":"Karangan","WADMKC":"Kepohbaru","WADMKK":"Bojonegoro"},"geometry":{"type":"Point","coordinates":[112.1,-7.2]}},{"type":"Feature","properties":{"Line":"R101","Tr":1031,"X":"624606.8","Y":"9208800.3","Rotation":90,"NAMOBJ":"Karangan","WADMKC":"Kepohbaru","WADMKK":"Bojonegoro"},"geometry":{"type":"Point","coordinates":[112.1,-7.2]}},{"type":"Feature","properties":{"Line":"R101","Tr":1032,"X":"624619.3","Y":"9208800.3","Rotation":90,"NAMOBJ":"Karangan","WADMKC":"Kepohbaru","WADMKK":"Bojonegoro"},"geometry":{"type":"Point","coordinates":[112.1,-7.2]}},{"type":"Feature","properties":{"Line":"R101","Tr":1033,"X":"624631.8","Y":"9208800.3","Rotation":90,"NAMOBJ":"Karangan","WADMKC":"Kepohbaru","WADMKK":"Bojonegoro"},"geometry":{"type":"Point","coordinates":[112.1,-7.2]}},{"type":"Feature","properties":{"Line":"R101","Tr":1034,"X":"624644.3","Y":"9208800.3","Rotation":90,"NAMOBJ":"Karangan","WADMKC":"Kepohbaru","WADMKK":"Bojonegoro"},"geometry":{"type":"Point","coordinates":[112.1,-7.2]}},{"type":"Feature","properties":{"Line":"R101","Tr":1035,"X":"624656.8","Y":"9208800.3","Rotation":90,"NAMOBJ":"Karangan","WADMKC":"Kepohbaru","WADMKK":"Bojonegoro"},"geometry":{"type":"Point","coordinates":[112.1,-7.2]}},{"type":"Feature","properties":{"Line":"R101","Tr":1036,"X":"624669.3","Y":"9208800.3","Rotation":90,"NAMOBJ":"Karangan","WADMKC":"Kepohbaru","WADMKK":"Bojonegoro"},"geometry":{"type":"Point","coordinates":[112.1,-7.2]}},{"type":"Feature","properties":{"Line":"R101","Tr":1037,"X":"624681.8","Y":"9208800.3","Rotation":90,"NAMOBJ":"Karangan","WADMKC":"Kepohbaru","WADMKK":"Bojonegoro"},"geometry":{"type":"Point","coordinates":[112.1,-7.2]}},{"type":"Feature","properties":{"Line":"R101","Tr":1038,"X":"624694.3","Y":"9208800.3","Rotation":90,"NAMOBJ":"Karangan","WADMKC":"Kepohbaru","WADMKK":"Bojonegoro"},"geometry":{"type":"Point","coordinates":[112.1,-7.2]}},{"type":"Feature","properties":{"Line":"R101","Tr":1039,"X":"624706.8","Y":"9208800.3","Rotation":90,"NAMOBJ":"Karangan","WADMKC":"Kepohbaru","WADMKK":"Bojonegoro"},"geometry":{"type":"Point","coordinates":[112.1,-7.2]}},{"type":"Feature","properties":{"Line":"R101","Tr":1040,"X":"624719.3","Y":"9208800.3","Rotation":90,"NAMOBJ":"Karangan","WADMKC":"Kepohbaru","WADMKK":"Bojonegoro"},"geometry":{"type":"Point","coordinates":[112.1,-7.2]}},{"type":"Feature","properties":{"Line":"R101","Tr":1041,"X":"624731.8","Y":"9208800.3","Rotation":90,"NAMOBJ":"Karangan","WADMKC":"Kepohbaru","WADMKK":"Bojonegoro"},"geometry":{"type":"Point","coordinates":[112.1,-7.2]}},{"type":"Feature","properties":{"Line":"R101","Tr":1042,"X":"624744.3","Y":"9208800.3","Rotation":90,"NAMOBJ":"Karangan","WADMKC":"Kepohbaru","WADMKK":"Bojonegoro"},"geometry":{"type":"Point","coordinates":[112.1,-7.2]}},{"type":"Feature","properties":{"Line":"R101","Tr":1043,"X":"624756.8","Y":"9208800.3","Rotation":90,"NAMOBJ":"Karangan","WADMKC":"Kepohbaru","WADMKK":"Bojonegoro"},"geometry":{"type":"Point","coordinates":[112.1,-7.2]}},{"type":"Feature","properties":{"Line":"R101","Tr":1044,"X":"624769.3","Y":"9208800.3","Rotation":90,"NAMOBJ":"Karangan","WADMKC":"Kepohbaru","WADMKK":"Bojonegoro"},"geometry":{"type":"Point","coordinates":[112.1,-7.2]}},{"type":"Feature","properties":{"Line":"R101","Tr":1045,"X":"624781.8","Y":"9208800.3","Rotation":90,"NAMOBJ":"Karangan","WADMKC":"Kepohbaru","WADMKK":"Bojonegoro"},"geometry":{"type":"Point","coordinates":[112.1,-7.2]}},{"type":"Feature","properties":{"Line":"R101","Tr":1046,"X":"624794.3","Y":"9208800.3","Rotation":90,"NAMOBJ":"Karangan","WADMKC":"Kepohbaru","WADMKK":"Bojonegoro"},"geometry":{"type":"Point","coordinates":[112.1,-7.2]}},{"type":"Feature","properties":{"Line":"R101","Tr":1047,"X":"624806.8","Y":"9208800.3","Rotation":90,"NAMOBJ":"Karangan","WADMKC":"Kepohbaru","WADMKK":"Bojonegoro"},"geometry":{"type":"Point","coordinates":[112.1,-7.2]}},{"type":"Feature","properties":{"Line":"R101","Tr":1048,"X":"624819.3","Y":"9208800.3","Rotation":90,"NAMOBJ":"Karangan","WADMKC":"Kepohbaru","WADMKK":"Bojonegoro"},"geometry":{"type":"Point","coordinates":[112.1,-7.2]}},{"type":"Feature","properties":{"Line":"R101","Tr":1049,"X":"624831.8","Y":"9208800.3","Rotation":90,"NAMOBJ":"Karangan","WADMKC":"Kepohbaru","WADMKK":"Bojonegoro"},"geometry":{"type":"Point","coordinates":[112.1,-7.2]}},{"type":"Feature","properties":{"Line":"R101","Tr":1050,"X":"624844.3","Y":"9208800.3","Rotation":90,"NAMOBJ":"Karangan","WADMKC":"Kepohbaru","WADMKK":"Bojonegoro"},"geometry":{"type":"Point","coordinates":[112.1,-7.2]}},{"type":"Feature","properties":{"Line":"R101","Tr":1051,"X":"624856.8","Y":"9208800.3","Rotation":90,"NAMOBJ":"Karangan","WADMKC":"Kepohbaru","WADMKK":"Bojonegoro"},"geometry":{"type":"Point","coordinates":[112.1,-7.2]}},{"type":"Feature","properties":{"Line":"R101","Tr":1052,"X":"624869.3","Y":"9208800.3","Rotation":90,"NAMOBJ":"Karangan","WADMKC":"Kepohbaru","WADMKK":"Bojonegoro"},"geometry":{"type":"Point","coordinates":[112.1,-7.2]}},{"type":"Feature","properties":{"Line":"R101","Tr":1053,"X":"624881.8","Y":"9208800.3","Rotation":90,"NAMOBJ":"Karangan","WADMKC":"Kepohbaru","WADMKK":"Bojonegoro"},"geometry":{"type":"Point","coordinates":[112.1,-7.2]}},{"type":"Feature","properties":{"Line":"R101","Tr":1054,"X":"624894.3","Y":"9208800.3","Rotation":90,"NAMOBJ":"Karangan","WADMKC":"Kepohbaru","WADMKK":"Bojonegoro"},"geometry":{"type":"Point","coordinates":[112.1,-7.2]}},{"type":"Feature","properties":{"Line":"R101","Tr":1055,"X":"624906.8","Y":"9208800.3","Rotation":90,"NAMOBJ":"Karangan","WADMKC":"Kepohbaru","WADMKK":"Bojonegoro"},"geometry":{"type":"Point","coordinates":[112.1,-7.2]}},{"type":"Feature","properties":{"Line":"R101","Tr":1056,"X":"624919.3","Y":"9208800.3","Rotation":90,"NAMOBJ":"Karangan","WADMKC":"Kepohbaru","WADMKK":"Bojonegoro"},"geometry":{"type":"Point","coordinates":[112.1,-7.2]}},{"type":"Feature","properties":{"Line":"R101","Tr":1057,"X":"624931.8","Y":"9208800.3","Rotation":90,"NAMOBJ":"Karangan","WADMKC":"Kepohbaru","WADMKK":"Bojonegoro"},"geometry":{"type":"Point","coordinates":[112.1,-7.2]}},{"type":"Feature","properties":{"Line":"R101","Tr":1058,"X":"624944.3","Y":"9208800.3","Rotation":90,"NAMOBJ":"Karangan","WADMKC":"Kepohbaru","WADMKK":"Bojonegoro"},"geometry":{"type":"Point","coordinates":[112.1,-7.2]}},{"type":"Feature","properties":{"Line":"R101","Tr":1059,"X":"624956.8","Y":"9208800.3","Rotation":90,"NAMOBJ":"Karangan","WADMKC":"Kepohbaru","WADMKK":"Bojonegoro"},"geometry":{"type":"Point","coordinates":[112.1,-7.2]}},{"type":"Feature","properties":{"Line":"R101","Tr":1060,"X":"624969.3","Y":"9208800.3","Rotation":90,"NAMOBJ":"Karangan","WADMKC":"Kepohbaru","WADMKK":"Bojonegoro"},"geometry":{"type":"Point","coordinates":[112.1,-7.2]}},{"type":"Feature","properties":{"Line":"R101","Tr":1061,"X":"624981.8","Y":"9208800.3","Rotation":90,"NAMOBJ":"Karangan","WADMKC":"Kepohbaru","WADMKK":"Bojonegoro"},"geometry":{"type":"Point","coordinates":[112.1,-7.2]}},{"type":"Feature","properties":{"Line":"R101","Tr":1062,"X":"624994.3","Y":"9208800.3","Rotation":90,"NAMOBJ":"Karangan","WADMKC":"Kepohbaru","WADMKK":"Bojonegoro"},"geometry":{"type":"Point","coordinates":[112.1,-7.2]}},{"type":"Feature","properties":{"Line":"R101","Tr":1063,"X":"625006.8","Y":"9208800.3","Rotation":90,"NAMOBJ":"Karangan","WADMKC":"Kepohbaru","WADMKK":"Bojonegoro"},"geometry":{"type":"Point","coordinates":[112.1,-7.2]}},{"type":"Feature","properties":{"Line":"R101","Tr":1064,"X":"625019.3","Y":"9208800.3","Rotation":90,"NAMOBJ":"Karangan","WADMKC":"Kepohbaru","WADMKK":"Bojonegoro"},"geometry":{"type":"Point","coordinates":[112.1,-7.2]}},{"type":"Feature","properties":{"Line":"R101","Tr":1065,"X":"625031.8","Y":"9208800.3","Rotation":90,"NAMOBJ":"Karangan","WADMKC":"Kepohbaru","WADMKK":"Bojonegoro"},"geometry":{"type":"Point","coordinates":[112.1,-7.2]}},{"type":"Feature","properties":{"Line":"R101","Tr":1066,"X":"625044.3","Y":"9208800.3","Rotation":90,"NAMOBJ":"Karangan","WADMKC":"Kepohbaru","WADMKK":"Bojonegoro"},"geometry":{"type":"Point","coordinates":[112.1,-7.2]}},{"type":"Feature","properties":{"Line":"R101","Tr":1067,"X":"625056.8","Y":"9208800.3","Rotation":90,"NAMOBJ":"Karangan","WADMKC":"Kepohbaru","WADMKK":"Bojonegoro"},"geometry":{"type":"Point","coordinates":[112.1,-7.2]}},{"type":"Feature","properties":{"Line":"R101","Tr":1068,"X":"625069.3","Y":"9208800.3","Rotation":90,"NAMOBJ":"Karangan","WADMKC":"Kepohbaru","WADMKK":"Bojonegoro"},"geometry":{"type":"Point","coordinates":[112.1,-7.2]}},{"type":"Feature","properties":{"Line":"R101","Tr":1069,"X":"625081.8","Y":"9208800.3","Rotation":90,"NAMOBJ":"Karangan","WADMKC":"Kepohbaru","WADMKK":"Bojonegoro"},"geometry":{"type":"Point","coordinates":[112.1,-7.2]}},{"type":"Feature","properties":{"Line":"R101","Tr":1070,"X":"625094.3","Y":"9208800.3","Rotation":90,"NAMOBJ":"Karangan","WADMKC":"Kepohbaru","WADMKK":"Bojonegoro"},"geometry":{"type":"Point","coordinates":[112.1,-7.2]}},{"type":"Feature","properties":{"Line":"R101","Tr":1071,"X":"625106.8","Y":"9208800.3","Rotation":90,"NAMOBJ":"Karangan","WADMKC":"Kepohbaru","WADMKK":"Bojonegoro"},"geometry":{"type":"Point","coordinates":[112.1,-7.2]}},{"type":"Feature","properties":{"Line":"R101","Tr":1072,"X":"625119.3","Y":"9208800.3","Rotation":90,"NAMOBJ":"Karangan","WADMKC":"Kepohbaru","WADMKK":"Bojonegoro"},"geometry":{"type":"Point","coordinates":[112.1,-7.2]}},{"type":"Feature","properties":{"Line":"R101","Tr":1073,"X":"625131.8","Y":"9208800.3","Rotation":90,"NAMOBJ":"Karangan","WADMKC":"Kepohbaru","WADMKK":"Bojonegoro"},"geometry":{"type":"Point","coordinates":[112.1,-7.2]}},{"type":"Feature","properties":{"Line":"R101","Tr":1074,"X":"625144.3","Y":"9208800.3","Rotation":90,"NAMOBJ":"Karangan","WADMKC":"Kepohbaru","WADMKK":"Bojonegoro"},"geometry":{"type":"Point","coordinates":[112.1,-7.2]}},{"type":"Feature","properties":{"Line":"R101","Tr":1075,"X":"625156.8","Y":"9208800.3","Rotation":90,"NAMOBJ":"Karangan","WADMKC":"Kepohbaru","WADMKK":"Bojonegoro"},"geometry":{"type":"Point","coordinates":[112.1,-7.2]}},{"type":"Feature","properties":{"Line":"R101","Tr":1076,"X":"625169.3","Y":"9208800.3","Rotation":90,"NAMOBJ":"Karangan","WADMKC":"Kepohbaru","WADMKK":"Bojonegoro"},"geometry":{"type":"Point","coordinates":[112.1,-7.2]}},{"type":"Feature","properties":{"Line":"R101","Tr":1077,"X":"625181.8","Y":"9208800.3","Rotation":90,"NAMOBJ":"Karangan","WADMKC":"Kepohbaru","WADMKK":"Bojonegoro"},"geometry":{"type":"Point","coordinates":[112.1,-7.2]}},{"type":"Feature","properties":{"Line":"R101","Tr":1078,"X":"625194.3","Y":"9208800.3","Rotation":90,"NAMOBJ":"Karangan","WADMKC":"Kepohbaru","WADMKK":"Bojonegoro"},"geometry":{"type":"Point","coordinates":[112.1,-7.2]}},{"type":"Feature","properties":{"Line":"R101","Tr":1079,"X":"625206.8","Y":"9208800.3","Rotation":90,"NAMOBJ":"Karangan","WADMKC":"Kepohbaru","WADMKK":"Bojonegoro"},"geometry":{"type":"Point","coordinates":[112.1,-7.2]}},{"type":"Feature","properties":{"Line":"R101","Tr":1080,"X":"625219.3","Y":"9208800.3","Rotation":90,"NAMOBJ":"Karangan","WADMKC":"Kepohbaru","WADMKK":"Bojonegoro"},"geometry":{"type":"Point","coordinates":[112.1,-7.2]}},{"type":"Feature","properties":{"Line":"R101","Tr":1081,"X":"625231.8","Y":"9208800.3","Rotation":90,"NAMOBJ":"Karangan","WADMKC":"Kepohbaru","WADMKK":"Bojonegoro"},"geometry":{"type":"Point","coordinates":[112.1,-7.2]}},{"type":"Feature","properties":{"Line":"R101","Tr":1082,"X":"625244.3","Y":"9208800.3","Rotation":90,"NAMOBJ":"Karangan","WADMKC":"Kepohbaru","WADMKK":"Bojonegoro"},"geometry":{"type":"Point","coordinates":[112.1,-7.2]}},{"type":"Feature","properties":{"Line":"R101","Tr":1083,"X":"625256.8","Y":"9208800.3","Rotation":90,"NAMOBJ":"Karangan","WADMKC":"Kepohbaru","WADMKK":"Bojonegoro"},"geometry":{"type":"Point","coordinates":[112.1,-7.2]}},{"type":"Feature","properties":{"Line":"R101","Tr":1084,"X":"625269.3","Y":"9208800.3","Rotation":90,"NAMOBJ":"Karangan","WADMKC":"Kepohbaru","WADMKK":"Bojonegoro"},"geometry":{"type":"Point","coordinates":[112.1,-7.2]}},{"type":"Feature","properties":{"Line":"R101","Tr":1085,"X":"625281.8","Y":"9208800.3","Rotation":90,"NAMOBJ":"Karangan","WADMKC":"Kepohbaru","WADMKK":"Bojonegoro"},"geometry":{"type":"Point","coordinates":[112.1,-7.2]}},{"type":"Feature","properties":{"Line":"R101","Tr":1086,"X":"625294.3","Y":"9208800.3","Rotation":90,"NAMOBJ":"Karangan","WADMKC":"Kepohbaru","WADMKK":"Bojonegoro"},"geometry":{"type":"Point","coordinates":[112.1,-7.2]}},{"type":"Feature","properties":{"Line":"R101","Tr":1087,"X":"625306.8","Y":"9208800.3","Rotation":90,"NAMOBJ":"Karangan","WADMKC":"Kepohbaru","WADMKK":"Bojonegoro"},"geometry":{"type":"Point","coordinates":[112.1,-7.2]}},{"type":"Feature","properties":{"Line":"R101","Tr":1088,"X":"625319.3","Y":"9208800.3","Rotation":90,"NAMOBJ":"Karangan","WADMKC":"Kepohbaru","WADMKK":"Bojonegoro"},"geometry":{"type":"Point","coordinates":[112.1,-7.2]}},{"type":"Feature","properties":{"Line":"R101","Tr":1089,"X":"625331.8","Y":"9208800.3","Rotation":90,"NAMOBJ":"Karangan","WADMKC":"Kepohbaru","WADMKK":"Bojonegoro"},"geometry":{"type":"Point","coordinates":[112.1,-7.2]}},{"type":"Feature","properties":{"Line":"R101","Tr":1090,"X":"625344.3","Y":"9208800.3","Rotation":90,"NAMOBJ":"Karangan","WADMKC":"Kepohbaru","WADMKK":"Bojonegoro"},"geometry":{"type":"Point","coordinates":[112.1,-7.2]}},{"type":"Feature","properties":{"Line":"R101","Tr":1091,"X":"625356.8","Y":"9208800.3","Rotation":90,"NAMOBJ":"Karangan","WADMKC":"Kepohbaru","WADMKK":"Bojonegoro"},"geometry":{"type":"Point","coordinates":[112.1,-7.2]}},{"type":"Feature","properties":{"Line":"R101","Tr":1092,"X":"625369.3","Y":"9208800.3","Rotation":90,"NAMOBJ":"Karangan","WADMKC":"Kepohbaru","WADMKK":"Bojonegoro"},"geometry":{"type":"Point","coordinates":[112.1,-7.2]}},{"type":"Feature","properties":{"Line":"R101","Tr":1093,"X":"625381.8","Y":"9208800.3","Rotation":90,"NAMOBJ":"Karangan","WADMKC":"Kepohbaru","WADMKK":"Bojonegoro"},"geometry":{"type":"Point","coordinates":[112.1,-7.2]}},{"type":"Feature","properties":{"Line":"R101","Tr":1094,"X":"625394.3","Y":"9208800.3","Rotation":90,"NAMOBJ":"Karangan","WADMKC":"Kepohbaru","WADMKK":"Bojonegoro"},"geometry":{"type":"Point","coordinates":[112.1,-7.2]}},{"type":"Feature","properties":{"Line":"R101","Tr":1095,"X":"625406.8","Y":"9208800.3","Rotation":90,"NAMOBJ":"Karangan","WADMKC":"Kepohbaru","WADMKK":"Bojonegoro"},"geometry":{"type":"Point","coordinates":[112.1,-7.2]}},{"type":"Feature","properties":{"Line":"R101","Tr":1096,"X":"625419.3","Y":"9208800.3","Rotation":90,"NAMOBJ":"Karangan","WADMKC":"Kepohbaru","WADMKK":"Bojonegoro"},"geometry":{"type":"Point","coordinates":[112.1,-7.2]}},{"type":"Feature","properties":{"Line":"R101","Tr":1097,"X":"625431.8","Y":"9208800.3","Rotation":90,"NAMOBJ":"Karangan","WADMKC":"Kepohbaru","WADMKK":"Bojonegoro"},"geometry":{"type":"Point","coordinates":[112.1,-7.2]}},{"type":"Feature","properties":{"Line":"R101","Tr":1098,"X":"625444.3","Y":"9208800.3","Rotation":90,"NAMOBJ":"Karangan","WADMKC":"Kepohbaru","WADMKK":"Bojonegoro"},"geometry":{"type":"Point","coordinates":[112.1,-7.2]}},{"type":"Feature","properties":{"Line":"R101","Tr":1099,"X":"625456.8","Y":"9208800.3","Rotation":90,"NAMOBJ":"Karangan","WADMKC":"Kepohbaru","WADMKK":"Bojonegoro"},"geometry":{"type":"Point","coordinates":[112.1,-7.2]}},{"type":"Feature","properties":{"Line":"R101","Tr":1100,"X":"625469.3","Y":"9208800.3","Rotation":90,"NAMOBJ":"Karangan","WADMKC":"Kepohbaru","WADMKK":"Bojonegoro"},"geometry":{"type":"Point","coordinates":[112.1,-7.2]}},{"type":"Feature","properties":{"Line":"R101","Tr":1101,"X":"625481.8","Y":"9208800.3","Rotation":90,"NAMOBJ":"Karangan","WADMKC":"Kepohbaru","WADMKK":"Bojonegoro"},"geometry":{"type":"Point","coordinates":[112.1,-7.2]}},{"type":"Feature","properties":{"Line":"R101","Tr":1102,"X":"625494.3","Y":"9208800.3","Rotation":90,"NAMOBJ":"Karangan","WADMKC":"Kepohbaru","WADMKK":"Bojonegoro"},"geometry":{"type":"Point","coordinates":[112.1,-7.2]}},{"type":"Feature","properties":{"Line":"R101","Tr":1103,"X":"625506.8","Y":"9208800.3","Rotation":90,"NAMOBJ":"Karangan","WADMKC":"Kepohbaru","WADMKK":"Bojonegoro"},"geometry":{"type":"Point","coordinates":[112.1,-7.2]}},{"type":"Feature","properties":{"Line":"R101","Tr":1104,"X":"625519.3","Y":"9208800.3","Rotation":90,"NAMOBJ":"Karangan","WADMKC":"Kepohbaru","WADMKK":"Bojonegoro"},"geometry":{"type":"Point","coordinates":[112.1,-7.2]}},{"type":"Feature","properties":{"Line":"R101","Tr":1105,"X":"625531.8","Y":"9208800.3","Rotation":90,"NAMOBJ":"Karangan","WADMKC":"Kepohbaru","WADMKK":"Bojonegoro"},"geometry":{"type":"Point","coordinates":[112.1,-7.2]}},{"type":"Feature","properties":{"Line":"R101","Tr":1106,"X":"625544.3","Y":"9208800.3","Rotation":90,"NAMOBJ":"Karangan","WADMKC":"Kepohbaru","WADMKK":"Bojonegoro"},"geometry":{"type":"Point","coordinates":[112.1,-7.2]}},{"type":"Feature","properties":{"Line":"R101","Tr":1107,"X":"625556.8","Y":"9208800.3","Rotation":90,"NAMOBJ":"Karangan","WADMKC":"Kepohbaru","WADMKK":"Bojonegoro"},"geometry":{"type":"Point","coordinates":[112.1,-7.2]}},{"type":"Feature","properties":{"Line":"R101","Tr":1108,"X":"625569.3","Y":"9208800.3","Rotation":90,"NAMOBJ":"Karangan","WADMKC":"Kepohbaru","WADMKK":"Bojonegoro"},"geometry":{"type":"Point","coordinates":[112.1,-7.2]}},{"type":"Feature","properties":{"Line":"R101","Tr":1109,"X":"625581.8","Y":"9208800.3","Rotation":90,"NAMOBJ":"Karangan","WADMKC":"Kepohbaru","WADMKK":"Bojonegoro"},"geometry":{"type":"Point","coordinates":[112.1,-7.2]}},{"type":"Feature","properties":{"Line":"R101","Tr":1110,"X":"625594.3","Y":"9208800.3","Rotation":90,"NAMOBJ":"Karangan","WADMKC":"Kepohbaru","WADMKK":"Bojonegoro"},"geometry":{"type":"Point","coordinates":[112.1,-7.2]}},{"type":"Feature","properties":{"Line":"R101","Tr":1111,"X":"625606.8","Y":"9208800.3","Rotation":90,"NAMOBJ":"Karangan","WADMKC":"Kepohbaru","WADMKK":"Bojonegoro"},"geometry":{"type":"Point","coordinates":[112.1,-7.2]}},{"type":"Feature","properties":{"Line":"R101","Tr":1112,"X":"625619.3","Y":"9208800.3","Rotation":90,"NAMOBJ":"Karangan","WADMKC":"Kepohbaru","WADMKK":"Bojonegoro"},"geometry":{"type":"Point","coordinates":[112.1,-7.2]}},{"type":"Feature","properties":{"Line":"R101","Tr":1113,"X":"625631.8","Y":"9208800.3","Rotation":90,"NAMOBJ":"Karangan","WADMKC":"Kepohbaru","WADMKK":"Bojonegoro"},"geometry":{"type":"Point","coordinates":[112.1,-7.2]}},{"type":"Feature","properties":{"Line":"R101","Tr":1114,"X":"625644.3","Y":"9208800.3","Rotation":90,"NAMOBJ":"Karangan","WADMKC":"Kepohbaru","WADMKK":"Bojonegoro"},"geometry":{"type":"Point","coordinates":[112.1,-7.2]}},{"type":"Feature","properties":{"Line":"R101","Tr":1115,"X":"625656.8","Y":"9208800.3","Rotation":90,"NAMOBJ":"Karangan","WADMKC":"Kepohbaru","WADMKK":"Bojonegoro"},"geometry":{"type":"Point","coordinates":[112.1,-7.2]}},{"type":"Feature","properties":{"Line":"R101","Tr":1116,"X":"625669.3","Y":"9208800.3","Rotation":90,"NAMOBJ":"Karangan","WADMKC":"Kepohbaru","WADMKK":"Bojonegoro"},"geometry":{"type":"Point","coordinates":[112.1,-7.2]}},{"type":"Feature","properties":{"Line":"R101","Tr":1117,"X":"625681.8","Y":"9208800.3","Rotation":90,"NAMOBJ":"Karangan","WADMKC":"Kepohbaru","WADMKK":"Bojonegoro"},"geometry":{"type":"Point","coordinates":[112.1,-7.2]}},{"type":"Feature","properties":{"Line":"R101","Tr":1118,"X":"625694.3","Y":"9208800.3","Rotation":90,"NAMOBJ":"Karangan","WADMKC":"Kepohbaru","WADMKK":"Bojonegoro"},"geometry":{"type":"Point","coordinates":[112.1,-7.2]}},{"type":"Feature","properties":{"Line":"R101","Tr":1119,"X":"625706.8","Y":"9208800.3","Rotation":90,"NAMOBJ":"Karangan","WADMKC":"Kepohbaru","WADMKK":"Bojonegoro"},"geometry":{"type":"Point","coordinates":[112.1,-7.2]}},{"type":"Feature","properties":{"Line":"R101","Tr":1120,"X":"625719.3","Y":"9208800.3","Rotation":90,"NAMOBJ":"Karangan","WADMKC":"Kepohbaru","WADMKK":"Bojonegoro"},"geometry":{"type":"Point","coordinates":[112.1,-7.2]}},{"type":"Feature","properties":{"Line":"R101","Tr":1121,"X":"625731.8","Y":"9208800.3","Rotation":90,"NAMOBJ":"Karangan","WADMKC":"Kepohbaru","WADMKK":"Bojonegoro"},"geometry":{"type":"Point","coordinates":[112.1,-7.2]}},{"type":"Feature","properties":{"Line":"R101","Tr":1122,"X":"625744.3","Y":"9208800.3","Rotation":90,"NAMOBJ":"Karangan","WADMKC":"Kepohbaru","WADMKK":"Bojonegoro"},"geometry":{"type":"Point","coordinates":[112.1,-7.2]}},{"type":"Feature","properties":{"Line":"R101","Tr":1123,"X":"625756.8","Y":"9208800.3","Rotation":90,"NAMOBJ":"Karangan","WADMKC":"Kepohbaru","WADMKK":"Bojonegoro"},"geometry":{"type":"Point","coordinates":[112.1,-7.2]}},{"type":"Feature","properties":{"Line":"R101","Tr":1124,"X":"625769.3","Y":"9208800.3","Rotation":90,"NAMOBJ":"Karangan","WADMKC":"Kepohbaru","WADMKK":"Bojonegoro"},"geometry":{"type":"Point","coordinates":[112.1,-7.2]}},{"type":"Feature","properties":{"Line":"R101","Tr":1125,"X":"625781.8","Y":"9208800.3","Rotation":90,"NAMOBJ":"Karangan","WADMKC":"Kepohbaru","WADMKK":"Bojonegoro"},"geometry":{"type":"Point","coordinates":[112.1,-7.2]}},{"type":"Feature","properties":{"Line":"R101","Tr":1126,"X":"625794.3","Y":"9208800.3","Rotation":90,"NAMOBJ":"Karangan","WADMKC":"Kepohbaru","WADMKK":"Bojonegoro"},"geometry":{"type":"Point","coordinates":[112.1,-7.2]}},{"type":"Feature","properties":{"Line":"R101","Tr":1127,"X":"625806.8","Y":"9208800.3","Rotation":90,"NAMOBJ":"Karangan","WADMKC":"Kepohbaru","WADMKK":"Bojonegoro"},"geometry":{"type":"Point","coordinates":[112.1,-7.2]}},{"type":"Feature","properties":{"Line":"R101","Tr":1128,"X":"625819.3","Y":"9208800.3","Rotation":90,"NAMOBJ":"Karangan","WADMKC":"Kepohbaru","WADMKK":"Bojonegoro"},"geometry":{"type":"Point","coordinates":[112.1,-7.2]}},{"type":"Feature","properties":{"Line":"R101","Tr":1129,"X":"625831.8","Y":"9208800.3","Rotation":90,"NAMOBJ":"Karangan","WADMKC":"Kepohbaru","WADMKK":"Bojonegoro"},"geometry":{"type":"Point","coordinates":[112.1,-7.2]}},{"type":"Feature","properties":{"Line":"R101","Tr":1130,"X":"625844.3","Y":"9208800.3","Rotation":90,"NAMOBJ":"Karangan","WADMKC":"Kepohbaru","WADMKK":"Bojonegoro"},"geometry":{"type":"Point","coordinates":[112.1,-7.2]}},{"type":"Feature","properties":{"Line":"R101","Tr":1131,"X":"625856.8","Y":"9208800.3","Rotation":90,"NAMOBJ":"Karangan","WADMKC":"Kepohbaru","WADMKK":"Bojonegoro"},"geometry":{"type":"Point","coordinates":[112.1,-7.2]}},{"type":"Feature","properties":{"Line":"R101","Tr":1132,"X":"625869.3","Y":"9208800.3","Rotation":90,"NAMOBJ":"Karangan","WADMKC":"Kepohbaru","WADMKK":"Bojonegoro"},"geometry":{"type":"Point","coordinates":[112.1,-7.2]}},{"type":"Feature","properties":{"Line":"R101","Tr":1133,"X":"625881.8","Y":"9208800.3","Rotation":90,"NAMOBJ":"Karangan","WADMKC":"Kepohbaru","WADMKK":"Bojonegoro"},"geometry":{"type":"Point","coordinates":[112.1,-7.2]}},{"type":"Feature","properties":{"Line":"R101","Tr":1134,"X":"625894.3","Y":"9208800.3","Rotation":90,"NAMOBJ":"Karangan","WADMKC":"Kepohbaru","WADMKK":"Bojonegoro"},"geometry":{"type":"Point","coordinates":[112.1,-7.2]}},{"type":"Feature","properties":{"Line":"R101","Tr":1135,"X":"625906.8","Y":"9208800.3","Rotation":90,"NAMOBJ":"Karangan","WADMKC":"Kepohbaru","WADMKK":"Bojonegoro"},"geometry":{"type":"Point","coordinates":[112.1,-7.2]}},{"type":"Feature","properties":{"Line":"R101","Tr":1136,"X":"625919.3","Y":"9208800.3","Rotation":90,"NAMOBJ":"Karangan","WADMKC":"Kepohbaru","WADMKK":"Bojonegoro"},"geometry":{"type":"Point","coordinates":[112.1,-7.2]}},{"type":"Feature","properties":{"Line":"R101","Tr":1137,"X":"625931.8","Y":"9208800.3","Rotation":90,"NAMOBJ":"Karangan","WADMKC":"Kepohbaru","WADMKK":"Bojonegoro"},"geometry":{"type":"Point","coordinates":[112.1,-7.2]}},{"type":"Feature","properties":{"Line":"R101","Tr":1138,"X":"625944.3","Y":"9208800.3","Rotation":90,"NAMOBJ":"Karangan","WADMKC":"Kepohbaru","WADMKK":"Bojonegoro"},"geometry":{"type":"Point","coordinates":[112.1,-7.2]}},{"type":"Feature","properties":{"Line":"R101","Tr":1139,"X":"625956.8","Y":"9208800.3","Rotation":90,"NAMOBJ":"Karangan","WADMKC":"Kepohbaru","WADMKK":"Bojonegoro"},"geometry":{"type":"Point","coordinates":[112.1,-7.2]}},{"type":"Feature","properties":{"Line":"R101","Tr":1140,"X":"625969.3","Y":"9208800.3","Rotation":90,"NAMOBJ":"Karangan","WADMKC":"Kepohbaru","WADMKK":"Bojonegoro"},"geometry":{"type":"Point","coordinates":[112.1,-7.2]}},{"type":"Feature","properties":{"Line":"R101","Tr":1141,"X":"625981.8","Y":"9208800.3","Rotation":90,"NAMOBJ":"Karangan","WADMKC":"Kepohbaru","WADMKK":"Bojonegoro"},"geometry":{"type":"Point","coordinates":[112.1,-7.2]}},{"type":"Feature","properties":{"Line":"R101","Tr":1142,"X":"625994.3","Y":"9208800.3","Rotation":90,"NAMOBJ":"Karangan","WADMKC":"Kepohbaru","WADMKK":"Bojonegoro"},"geometry":{"type":"Point","coordinates":[112.1,-7.2]}},{"type":"Feature","properties":{"Line":"R101","Tr":1143,"X":"626006.8","Y":"9208800.3","Rotation":90,"NAMOBJ":"Karangan","WADMKC":"Kepohbaru","WADMKK":"Bojonegoro"},"geometry":{"type":"Point","coordinates":[112.1,-7.2]}},{"type":"Feature","properties":{"Line":"R101","Tr":1144,"X":"626019.3","Y":"9208800.3","Rotation":90,"NAMOBJ":"Karangan","WADMKC":"Kepohbaru","WADMKK":"Bojonegoro"},"geometry":{"type":"Point","coordinates":[112.1,-7.2]}},{"type":"Feature","properties":{"Line":"R101","Tr":1145,"X":"626031.8","Y":"9208800.3","Rotation":90,"NAMOBJ":"Karangan","WADMKC":"Kepohbaru","WADMKK":"Bojonegoro"},"geometry":{"type":"Point","coordinates":[112.1,-7.2]}},{"type":"Feature","properties":{"Line":"R101","Tr":1146,"X":"626044.3","Y":"9208800.3","Rotation":90,"NAMOBJ":"Karangan","WADMKC":"Kepohbaru","WADMKK":"Bojonegoro"},"geometry":{"type":"Point","coordinates":[112.1,-7.2]}},{"type":"Feature","properties":{"Line":"R101","Tr":1147,"X":"626056.8","Y":"9208800.3","Rotation":90,"NAMOBJ":"Karangan","WADMKC":"Kepohbaru","WADMKK":"Bojonegoro"},"geometry":{"type":"Point","coordinates":[112.1,-7.2]}},{"type":"Feature","properties":{"Line":"R101","Tr":1148,"X":"626069.3","Y":"9208800.3","Rotation":90,"NAMOBJ":"Karangan","WADMKC":"Kepohbaru","WADMKK":"Bojonegoro"},"geometry":{"type":"Point","coordinates":[112.1,-7.2]}},{"type":"Feature","properties":{"Line":"R101","Tr":1149,"X":"626081.8","Y":"9208800.3","Rotation":90,"NAMOBJ":"Karangan","WADMKC":"Kepohbaru","WADMKK":"Bojonegoro"},"geometry":{"type":"Point","coordinates":[112.1,-7.2]}},{"type":"Feature","properties":{"Line":"R101","Tr":1150,"X":"626094.3","Y":"9208800.3","Rotation":90,"NAMOBJ":"Karangan","WADMKC":"Kepohbaru","WADMKK":"Bojonegoro"},"geometry":{"type":"Point","coordinates":[112.1,-7.2]}},{"type":"Feature","properties":{"Line":"R101","Tr":1151,"X":"626106.8","Y":"9208800.3","Rotation":90,"NAMOBJ":"Karangan","WADMKC":"Kepohbaru","WADMKK":"Bojonegoro"},"geometry":{"type":"Point","coordinates":[112.1,-7.2]}},{"type":"Feature","properties":{"Line":"R101","Tr":1152,"X":"626119.3","Y":"9208800.3","Rotation":90,"NAMOBJ":"Karangan","WADMKC":"Kepohbaru","WADMKK":"Bojonegoro"},"geometry":{"type":"Point","coordinates":[112.1,-7.2]}},{"type":"Feature","properties":{"Line":"R101","Tr":1153,"X":"626131.8","Y":"9208800.3","Rotation":90,"NAMOBJ":"Karangan","WADMKC":"Kepohbaru","WADMKK":"Bojonegoro"},"geometry":{"type":"Point","coordinates":[112.1,-7.2]}},{"type":"Feature","properties":{"Line":"R101","Tr":1154,"X":"626144.3","Y":"9208800.3","Rotation":90,"NAMOBJ":"Karangan","WADMKC":"Kepohbaru","WADMKK":"Bojonegoro"},"geometry":{"type":"Point","coordinates":[112.1,-7.2]}},{"type":"Feature","properties":{"Line":"R101","Tr":1155,"X":"626156.8","Y":"9208800.3","Rotation":90,"NAMOBJ":"Karangan","WADMKC":"Kepohbaru","WADMKK":"Bojonegoro"},"geometry":{"type":"Point","coordinates":[112.1,-7.2]}},{"type":"Feature","properties":{"Line":"R101","Tr":1156,"X":"626169.3","Y":"9208800.3","Rotation":90,"NAMOBJ":"Karangan","WADMKC":"Kepohbaru","WADMKK":"Bojonegoro"},"geometry":{"type":"Point","coordinates":[112.1,-7.2]}},{"type":"Feature","properties":{"Line":"R101","Tr":1157,"X":"626181.8","Y":"9208800.3","Rotation":90,"NAMOBJ":"Karangan","WADMKC":"Kepohbaru","WADMKK":"Bojonegoro"},"geometry":{"type":"Point","coordinates":[112.1,-7.2]}},{"type":"Feature","properties":{"Line":"R101","Tr":1158,"X":"626194.3","Y":"9208800.3","Rotation":90,"NAMOBJ":"Karangan","WADMKC":"Kepohbaru","WADMKK":"Bojonegoro"},"geometry":{"type":"Point","coordinates":[112.1,-7.2]}},{"type":"Feature","properties":{"Line":"R101","Tr":1159,"X":"626206.8","Y":"9208800.3","Rotation":90,"NAMOBJ":"Karangan","WADMKC":"Kepohbaru","WADMKK":"Bojonegoro"},"geometry":{"type":"Point","coordinates":[112.1,-7.2]}},{"type":"Feature","properties":{"Line":"R101","Tr":1160,"X":"626219.3","Y":"9208800.3","Rotation":90,"NAMOBJ":"Karangan","WADMKC":"Kepohbaru","WADMKK":"Bojonegoro"},"geometry":{"type":"Point","coordinates":[112.1,-7.2]}},{"type":"Feature","properties":{"Line":"R101","Tr":1161,"X":"626231.8","Y":"9208800.3","Rotation":90,"NAMOBJ":"Karangan","WADMKC":"Kepohbaru","WADMKK":"Bojonegoro"},"geometry":{"type":"Point","coordinates":[112.1,-7.2]}},{"type":"Feature","properties":{"Line":"R101","Tr":1162,"X":"626244.3","Y":"9208800.3","Rotation":90,"NAMOBJ":"Karangan","WADMKC":"Kepohbaru","WADMKK":"Bojonegoro"},"geometry":{"type":"Point","coordinates":[112.1,-7.2]}},{"type":"Feature","properties":{"Line":"R101","Tr":1163,"X":"626256.8","Y":"9208800.3","Rotation":90,"NAMOBJ":"Karangan","WADMKC":"Kepohbaru","WADMKK":"Bojonegoro"},"geometry":{"type":"Point","coordinates":[112.1,-7.2]}},{"type":"Feature","properties":{"Line":"R101","Tr":1164,"X":"626269.3","Y":"9208800.3","Rotation":90,"NAMOBJ":"Karangan","WADMKC":"Kepohbaru","WADMKK":"Bojonegoro"},"geometry":{"type":"Point","coordinates":[112.1,-7.2]}},{"type":"Feature","properties":{"Line":"R101","Tr":1165,"X":"626281.8","Y":"9208800.3","Rotation":90,"NAMOBJ":"Karangan","WADMKC":"Kepohbaru","WADMKK":"Bojonegoro"},"geometry":{"type":"Point","coordinates":[112.1,-7.2]}},{"type":"Feature","properties":{"Line":"R101","Tr":1166,"X":"626294.3","Y":"9208800.3","Rotation":90,"NAMOBJ":"Karangan","WADMKC":"Kepohbaru","WADMKK":"Bojonegoro"},"geometry":{"type":"Point","coordinates":[112.1,-7.2]}},{"type":"Feature","properties":{"Line":"R101","Tr":1167,"X":"626306.8","Y":"9208800.3","Rotation":90,"NAMOBJ":"Karangan","WADMKC":"Kepohbaru","WADMKK":"Bojonegoro"},"geometry":{"type":"Point","coordinates":[112.1,-7.2]}},{"type":"Feature","properties":{"Line":"R101","Tr":1168,"X":"626319.3","Y":"9208800.3","Rotation":90,"NAMOBJ":"Karangan","WADMKC":"Kepohbaru","WADMKK":"Bojonegoro"},"geometry":{"type":"Point","coordinates":[112.1,-7.2]}},{"type":"Feature","properties":{"Line":"R101","Tr":1169,"X":"626331.8","Y":"9208800.3","Rotation":90,"NAMOBJ":"Karangan","WADMKC":"Kepohbaru","WADMKK":"Bojonegoro"},"geometry":{"type":"Point","coordinates":[112.1,-7.2]}},{"type":"Feature","properties":{"Line":"R101","Tr":1170,"X":"626344.3","Y":"9208800.3","Rotation":90,"NAMOBJ":"Karangan","WADMKC":"Kepohbaru","WADMKK":"Bojonegoro"},"geometry":{"type":"Point","coordinates":[112.1,-7.2]}},{"type":"Feature","properties":{"Line":"R101","Tr":1171,"X":"626356.8","Y":"9208800.3","Rotation":90,"NAMOBJ":"Karangan","WADMKC":"Kepohbaru","WADMKK":"Bojonegoro"},"geometry":{"type":"Point","coordinates":[112.1,-7.2]}},{"type":"Feature","properties":{"Line":"R101","Tr":1172,"X":"626369.3","Y":"9208800.3","Rotation":90,"NAMOBJ":"Karangan","WADMKC":"Kepohbaru","WADMKK":"Bojonegoro"},"geometry":{"type":"Point","coordinates":[112.1,-7.2]}},{"type":"Feature","properties":{"Line":"R101","Tr":1173,"X":"626381.8","Y":"9208800.3","Rotation":90,"NAMOBJ":"Karangan","WADMKC":"Kepohbaru","WADMKK":"Bojonegoro"},"geometry":{"type":"Point","coordinates":[112.1,-7.2]}},{"type":"Feature","properties":{"Line":"R101","Tr":1174,"X":"626394.3","Y":"9208800.3","Rotation":90,"NAMOBJ":"Karangan","WADMKC":"Kepohbaru","WADMKK":"Bojonegoro"},"geometry":{"type":"Point","coordinates":[112.1,-7.2]}},{"type":"Feature","properties":{"Line":"R101","Tr":1175,"X":"626406.8","Y":"9208800.3","Rotation":90,"NAMOBJ":"Karangan","WADMKC":"Kepohbaru","WADMKK":"Bojonegoro"},"geometry":{"type":"Point","coordinates":[112.1,-7.2]}},{"type":"Feature","properties":{"Line":"R101","Tr":1176,"X":"626419.3","Y":"9208800.3","Rotation":90,"NAMOBJ":"Karangan","WADMKC":"Kepohbaru","WADMKK":"Bojonegoro"},"geometry":{"type":"Point","coordinates":[112.1,-7.2]}},{"type":"Feature","properties":{"Line":"R101","Tr":1177,"X":"626431.8","Y":"9208800.3","Rotation":90,"NAMOBJ":"Sumuragung","WADMKC":"Baureno","WADMKK":"Bojonegoro"},"geometry":{"type":"Point","coordinates":[112.1,-7.2]}},{"type":"Feature","properties":{"Line":"R101","Tr":1178,"X":"626444.3","Y":"9208800.3","Rotation":90,"NAMOBJ":"Sumuragung","WADMKC":"Baureno","WADMKK":"Bojonegoro"},"geometry":{"type":"Point","coordinates":[112.1,-7.2]}},{"type":"Feature","properties":{"Line":"R101","Tr":1179,"X":"626456.8","Y":"9208800.3","Rotation":90,"NAMOBJ":"Sumuragung","WADMKC":"Baureno","WADMKK":"Bojonegoro"},"geometry":{"type":"Point","coordinates":[112.1,-7.2]}},{"type":"Feature","properties":{"Line":"R101","Tr":1180,"X":"626469.3","Y":"9208800.3","Rotation":90,"NAMOBJ":"Sumuragung","WADMKC":"Baureno","WADMKK":"Bojonegoro"},"geometry":{"type":"Point","coordinates":[112.1,-7.2]}},{"type":"Feature","properties":{"Line":"R101","Tr":1181,"X":"626481.8","Y":"9208800.3","Rotation":90,"NAMOBJ":"Sumuragung","WADMKC":"Baureno","WADMKK":"Bojonegoro"},"geometry":{"type":"Point","coordinates":[112.1,-7.2]}},{"type":"Feature","properties":{"Line":"R101","Tr":1182,"X":"626494.3","Y":"9208800.3","Rotation":90,"NAMOBJ":"Sumuragung","WADMKC":"Baureno","WADMKK":"Bojonegoro"},"geometry":{"type":"Point","coordinates":[112.1,-7.2]}},{"type":"Feature","properties":{"Line":"R101","Tr":1183,"X":"626506.8","Y":"9208800.3","Rotation":90,"NAMOBJ":"Sumuragung","WADMKC":"Baureno","WADMKK":"Bojonegoro"},"geometry":{"type":"Point","coordinates":[112.1,-7.2]}},{"type":"Feature","properties":{"Line":"R101","Tr":1184,"X":"626519.3","Y":"9208800.3","Rotation":90,"NAMOBJ":"Sumuragung","WADMKC":"Baureno","WADMKK":"Bojonegoro"},"geometry":{"type":"Point","coordinates":[112.1,-7.2]}},{"type":"Feature","properties":{"Line":"R101","Tr":1185,"X":"626531.8","Y":"9208800.3","Rotation":90,"NAMOBJ":"Sumuragung","WADMKC":"Baureno","WADMKK":"Bojonegoro"},"geometry":{"type":"Point","coordinates":[112.1,-7.2]}},{"type":"Feature","properties":{"Line":"R101","Tr":1186,"X":"626544.3","Y":"9208800.3","Rotation":90,"NAMOBJ":"Sumuragung","WADMKC":"Baureno","WADMKK":"Bojonegoro"},"geometry":{"type":"Point","coordinates":[112.1,-7.2]}},{"type":"Feature","properties":{"Line":"R101","Tr":1187,"X":"626556.8","Y":"9208800.3","Rotation":90,"NAMOBJ":"Sumuragung","WADMKC":"Baureno","WADMKK":"Bojonegoro"},"geometry":{"type":"Point","coordinates":[112.1,-7.2]}},{"type":"Feature","properties":{"Line":"R101","Tr":1188,"X":"626569.3","Y":"9208800.3","Rotation":90,"NAMOBJ":"Sumuragung","WADMKC":"Baureno","WADMKK":"Bojonegoro"},"geometry":{"type":"Point","coordinates":[112.1,-7.2]}},{"type":"Feature","properties":{"Line":"R101","Tr":1189,"X":"626581.8","Y":"9208800.3","Rotation":90,"NAMOBJ":"Sumuragung","WADMKC":"Baureno","WADMKK":"Bojonegoro"},"geometry":{"type":"Point","coordinates":[112.1,-7.2]}},{"type":"Feature","properties":{"Line":"R101","Tr":1190,"X":"626594.3","Y":"9208800.3","Rotation":90,"NAMOBJ":"Sumuragung","WADMKC":"Baureno","WADMKK":"Bojonegoro"},"geometry":{"type":"Point","coordinates":[112.1,-7.2]}},{"type":"Feature","properties":{"Line":"R101","Tr":1191,"X":"626606.8","Y":"9208800.3","Rotation":90,"NAMOBJ":"Sumuragung","WADMKC":"Baureno","WADMKK":"Bojonegoro"},"geometry":{"type":"Point","coordinates":[112.1,-7.2]}},{"type":"Feature","properties":{"Line":"R101","Tr":1192,"X":"626619.3","Y":"9208800.3","Rotation":90,"NAMOBJ":"Sumuragung","WADMKC":"Baureno","WADMKK":"Bojonegoro"},"geometry":{"type":"Point","coordinates":[112.1,-7.2]}},{"type":"Feature","properties":{"Line":"R101","Tr":1193,"X":"626631.8","Y":"9208800.3","Rotation":90,"NAMOBJ":"Sumuragung","WADMKC":"Baureno","WADMKK":"Bojonegoro"},"geometry":{"type":"Point","coordinates":[112.1,-7.2]}},{"type":"Feature","properties":{"Line":"R101","Tr":1194,"X":"626644.3","Y":"9208800.3","Rotation":90,"NAMOBJ":"Sumuragung","WADMKC":"Baureno","WADMKK":"Bojonegoro"},"geometry":{"type":"Point","coordinates":[112.1,-7.2]}},{"type":"Feature","properties":{"Line":"R101","Tr":1195,"X":"626656.8","Y":"9208800.3","Rotation":90,"NAMOBJ":"Sumuragung","WADMKC":"Baureno","WADMKK":"Bojonegoro"},"geometry":{"type":"Point","coordinates":[112.1,-7.2]}},{"type":"Feature","properties":{"Line":"R101","Tr":1196,"X":"626669.3","Y":"9208800.3","Rotation":90,"NAMOBJ":"Sumuragung","WADMKC":"Baureno","WADMKK":"Bojonegoro"},"geometry":{"type":"Point","coordinates":[112.1,-7.2]}},{"type":"Feature","properties":{"Line":"R101","Tr":1197,"X":"626681.8","Y":"9208800.3","Rotation":90,"NAMOBJ":"Sumuragung","WADMKC":"Baureno","WADMKK":"Bojonegoro"},"geometry":{"type":"Point","coordinates":[112.1,-7.2]}},{"type":"Feature","properties":{"Line":"R101","Tr":1198,"X":"626694.3","Y":"9208800.3","Rotation":90,"NAMOBJ":"Sumuragung","WADMKC":"Baureno","WADMKK":"Bojonegoro"},"geometry":{"type":"Point","coordinates":[112.1,-7.2]}},{"type":"Feature","properties":{"Line":"R101","Tr":1199,"X":"626706.8","Y":"9208800.3","Rotation":90,"NAMOBJ":"Sumuragung","WADMKC":"Baureno","WADMKK":"Bojonegoro"},"geometry":{"type":"Point","coordinates":[112.1,-7.2]}},{"type":"Feature","properties":{"Line":"R101","Tr":1200,"X":"626719.3","Y":"9208800.3","Rotation":90,"NAMOBJ":"Sumuragung","WADMKC":"Baureno","WADMKK":"Bojonegoro"},"geometry":{"type":"Point","coordinates":[112.1,-7.2]}},{"type":"Feature","properties":{"Line":"R101","Tr":1201,"X":"626731.8","Y":"9208800.3","Rotation":90,"NAMOBJ":"Sumuragung","WADMKC":"Baureno","WADMKK":"Bojonegoro"},"geometry":{"type":"Point","coordinates":[112.1,-7.2]}},{"type":"Feature","properties":{"Line":"R101","Tr":1202,"X":"626744.3","Y":"9208800.3","Rotation":90,"NAMOBJ":"Sumuragung","WADMKC":"Baureno","WADMKK":"Bojonegoro"},"geometry":{"type":"Point","coordinates":[112.1,-7.2]}},{"type":"Feature","properties":{"Line":"R101","Tr":1203,"X":"626756.8","Y":"9208800.3","Rotation":90,"NAMOBJ":"Sumuragung","WADMKC":"Baureno","WADMKK":"Bojonegoro"},"geometry":{"type":"Point","coordinates":[112.1,-7.2]}},{"type":"Feature","properties":{"Line":"R101","Tr":1204,"X":"626769.3","Y":"9208800.3","Rotation":90,"NAMOBJ":"Sumuragung","WADMKC":"Baureno","WADMKK":"Bojonegoro"},"geometry":{"type":"Point","coordinates":[112.1,-7.2]}},{"type":"Feature","properties":{"Line":"R101","Tr":1205,"X":"626781.8","Y":"9208800.3","Rotation":90,"NAMOBJ":"Sumuragung","WADMKC":"Baureno","WADMKK":"Bojonegoro"},"geometry":{"type":"Point","coordinates":[112.1,-7.2]}},{"type":"Feature","properties":{"Line":"R101","Tr":1206,"X":"626794.3","Y":"9208800.3","Rotation":90,"NAMOBJ":"Sumuragung","WADMKC":"Baureno","WADMKK":"Bojonegoro"},"geometry":{"type":"Point","coordinates":[112.1,-7.2]}},{"type":"Feature","properties":{"Line":"R101","Tr":1207,"X":"626806.8","Y":"9208800.3","Rotation":90,"NAMOBJ":"Sumuragung","WADMKC":"Baureno","WADMKK":"Bojonegoro"},"geometry":{"type":"Point","coordinates":[112.1,-7.2]}},{"type":"Feature","properties":{"Line":"R101","Tr":1208,"X":"626819.3","Y":"9208800.3","Rotation":90,"NAMOBJ":"Sumuragung","WADMKC":"Baureno","WADMKK":"Bojonegoro"},"geometry":{"type":"Point","coordinates":[112.1,-7.2]}},{"type":"Feature","properties":{"Line":"R101","Tr":1209,"X":"626831.8","Y":"9208800.3","Rotation":90,"NAMOBJ":"Sumuragung","WADMKC":"Baureno","WADMKK":"Bojonegoro"},"geometry":{"type":"Point","coordinates":[112.1,-7.2]}},{"type":"Feature","properties":{"Line":"R101","Tr":1210,"X":"626844.3","Y":"9208800.3","Rotation":90,"NAMOBJ":"Sumuragung","WADMKC":"Baureno","WADMKK":"Bojonegoro"},"geometry":{"type":"Point","coordinates":[112.1,-7.2]}},{"type":"Feature","properties":{"Line":"R101","Tr":1211,"X":"626856.8","Y":"9208800.3","Rotation":90,"NAMOBJ":"Sumuragung","WADMKC":"Baureno","WADMKK":"Bojonegoro"},"geometry":{"type":"Point","coordinates":[112.1,-7.2]}},{"type":"Feature","properties":{"Line":"R101","Tr":1212,"X":"626869.3","Y":"9208800.3","Rotation":90,"NAMOBJ":"Sumuragung","WADMKC":"Baureno","WADMKK":"Bojonegoro"},"geometry":{"type":"Point","coordinates":[112.1,-7.2]}},{"type":"Feature","properties":{"Line":"R101","Tr":1213,"X":"626881.8","Y":"9208800.3","Rotation":90,"NAMOBJ":"Sumuragung","WADMKC":"Baureno","WADMKK":"Bojonegoro"},"geometry":{"type":"Point","coordinates":[112.1,-7.2]}},{"type":"Feature","properties":{"Line":"R101","Tr":1214,"X":"626894.3","Y":"9208800.3","Rotation":90,"NAMOBJ":"Sumuragung","WADMKC":"Baureno","WADMKK":"Bojonegoro"},"geometry":{"type":"Point","coordinates":[112.1,-7.2]}},{"type":"Feature","properties":{"Line":"R101","Tr":1215,"X":"626906.8","Y":"9208800.3","Rotation":90,"NAMOBJ":"Sumuragung","WADMKC":"Baureno","WADMKK":"Bojonegoro"},"geometry":{"type":"Point","coordinates":[112.1,-7.2]}},{"type":"Feature","properties":{"Line":"R101","Tr":1216,"X":"626919.3","Y":"9208800.3","Rotation":90,"NAMOBJ":"Sumuragung","WADMKC":"Baureno","WADMKK":"Bojonegoro"},"geometry":{"type":"Point","coordinates":[112.1,-7.2]}},{"type":"Feature","properties":{"Line":"R101","Tr":1217,"X":"626931.8","Y":"9208800.3","Rotation":90,"NAMOBJ":"Sumuragung","WADMKC":"Baureno","WADMKK":"Bojonegoro"},"geometry":{"type":"Point","coordinates":[112.1,-7.2]}},{"type":"Feature","properties":{"Line":"R101","Tr":1218,"X":"626944.3","Y":"9208800.3","Rotation":90,"NAMOBJ":"Sumuragung","WADMKC":"Baureno","WADMKK":"Bojonegoro"},"geometry":{"type":"Point","coordinates":[112.1,-7.2]}},{"type":"Feature","properties":{"Line":"R101","Tr":1219,"X":"626956.8","Y":"9208800.3","Rotation":90,"NAMOBJ":"Sumuragung","WADMKC":"Baureno","WADMKK":"Bojonegoro"},"geometry":{"type":"Point","coordinates":[112.1,-7.2]}},{"type":"Feature","properties":{"Line":"R101","Tr":1220,"X":"626969.3","Y":"9208800.3","Rotation":90,"NAMOBJ":"Sumuragung","WADMKC":"Baureno","WADMKK":"Bojonegoro"},"geometry":{"type":"Point","coordinates":[112.1,-7.2]}},{"type":"Feature","properties":{"Line":"R101","Tr":1221,"X":"626981.8","Y":"9208800.3","Rotation":90,"NAMOBJ":"Sumuragung","WADMKC":"Baureno","WADMKK":"Bojonegoro"},"geometry":{"type":"Point","coordinates":[112.1,-7.2]}}]}