{"type":"FeatureCollection","features":[{"type":"Feature","properties":{"Line":"S142","Sp":"1408.5","X":"650300.5","Y":"9220725.3","NAMOBJ":"Badurame","WADMKC":"Turi","WADMKK":"Lamongan"},"geometry":{"type":"Point","coordinates":[112.4,-7.0]}},{"type":"Feature","properties":{"Line":"S142","Sp":"1412.5","X":"650300.5","Y":"9220675.3","NAMOBJ":"Karangwedoro","WADMKC":"Turi","WADMKK":"Lamongan"},"geometry":{"type":"Point","coordinates":[112.4,-7.0]}},{"type":"Feature","properties":{"Line":"S142","Sp":"1416.5","X":"650300.5","Y":"9220625.3","NAMOBJ":"Karangwedoro","WADMKC":"Turi","WADMKK":"Lamongan"},"geometry":{"type":"Point","coordinates":[112.4,-7.0]}},{"type":"Feature","properties":{"Line":"S142","Sp":"1420.5","X":"650300.5","Y":"9220575.3","NAMOBJ":"Karangwedoro","WADMKC":"Turi","WADMKK":"Lamongan"},"geometry":{"type":"Point","coordinates":[112.4,-7.0]}},{"type":"Feature","properties":{"Line":"S142","Sp":"1424.5","X":"650300.5","Y":"9220525.3","NAMOBJ":"Karangwedoro","WADMKC":"Turi","WADMKK":"Lamongan"},"geometry":{"type":"Point","coordinates":[112.4,-7.0]}},{"type":"Feature","properties":{"Line":"S140","Sp":"1424.5","X":"649300.5","Y":"9221575.3","NAMOBJ":"Pucangro","WADMKC":"Kalitengah","WADMKK":"Lamongan"},"geometry":{"type":"Point","coordinates":[112.4,-7.0]}},{"type":"Feature","properties":{"Line":"S140","Sp":"1428.5","X":"649300.5","Y":"9221525.3","NAMOBJ":"Pucangro","WADMKC":"Kalitengah","WADMKK":"Lamongan"},"geometry":{"type":"Point","coordinates":[112.4,-7.0]}},{"type":"Feature","properties":{"Line":"S140","Sp":"1432.5","X":"649300.5","Y":"9221475.3","NAMOBJ":"Pucangro","WADMKC":"Kalitengah","WADMKK":"Lamongan"},"geometry":{"type":"Point","coordinates":[112.4,-7.0]}},{"type":"Feature","properties":{"Line":"S140","Sp":"1436.5","X":"649300.5","Y":"9221425.3","NAMOBJ":"Pucangro","WADMKC":"Kalitengah","WADMKK":"Lamongan"},"geometry":{"type":"Point","coordinates":[112.4,-7.0]}},{"type":"Feature","properties":{"Line":"S140","Sp":"1440.5","X":"649300.5","Y":"9221375.3","NAMOBJ":"Pucangro","WADMKC":"Kalitengah","WADMKK":"Lamongan"},"geometry":{"type":"Point","coordinates":[112.4,-7.0]}},{"type":"Feature","properties":{"Line":"S140","Sp":"1444.5","X":"649300.5","Y":"9221325.3","NAMOBJ":"Pucangro","WADMKC":"Kalitengah","WADMKK":"Lamongan"},"geometry":{"type":"Point","coordinates":[112.4,-7.0]}},{"type":"Feature","properties":{"Line":"S140","Sp":"1448.5","X":"649300.5","Y":"9221275.3","NAMOBJ":"Pucangro","WADMKC":"Kalitengah","WADMKK":"Lamongan"},"geometry":{"type":"Point","coordinates":[112.4,-7.0]}},{"type":"Feature","properties":{"Line":"S140","Sp":"1452.5","X":"649300.5","Y":"9221225.3","NAMOBJ":"Pucangro","WADMKC":"Kalitengah","WADMKK":"Lamongan"},"geometry":{"type":"Point","coordinates":[112.4,-7.0]}},{"type":"Feature","properties":{"Line":"S140","Sp":"1456.5","X":"649300.5","Y":"9221175.3","NAMOBJ":"Pucangro","WADMKC":"Kalitengah","WADMKK":"Lamongan"},"geometry":{"type":"Point","coordinates":[112.4,-7.0]}},{"type":"Feature","properties":{"Line":"S140","Sp":"1460.5","X":"649300.5","Y":"9221125.3","NAMOBJ":"Pucangro","WADMKC":"Kalitengah","WADMKK":"Lamongan"},"geometry":{"type":"Point","coordinates":[112.4,-7.0]}},{"type":"Feature","properties":{"Line":"S140","Sp":"1464.5","X":"649300.5","Y":"9221075.3","NAMOBJ":"Pucangro","WADMKC":"Kalitengah","WADMKK":"Lamongan"},"geometry":{"type":"Point","coordinates":[112.4,-7.0]}},{"type":"Feature","properties":{"Line":"S140","Sp":"1468.5","X":"649300.5","Y":"9221025.3","NAMOBJ":"Pucangro","WADMKC":"Kalitengah","WADMKK":"Lamongan"},"geometry":{"type":"Point","coordinates":[112.4,-7.0]}},{"type":"Feature","properties":{"Line":"S140","Sp":"1472.5","X":"649300.5","Y":"9220975.3","NAMOBJ":"Pucangro","WADMKC":"Kalitengah","WADMKK":"Lamongan"},"geometry":{"type":"Point","coordinates":[112.4,-7.0]}},{"type":"Feature","properties":{"Line":"S140","Sp":"1476.5","X":"649300.5","Y":"9220925.3","NAMOBJ":"Pucangro","WADMKC":"Kalitengah","WADMKK":"Lamongan"},"geometry":{"type":"Point","coordinates":[112.4,-7.0]}},{"type":"Feature","properties":{"Line":"S140","Sp":"1480.5","X":"649300.5","Y":"9220875.3","NAMOBJ":"Pucangro","WADMKC":"Kalitengah","WADMKK":"Lamongan"},"geometry":{"type":"Point","coordinates":[112.4,-7.0]}},{"type":"Feature","properties":{"Line":"S140","Sp":"1484.5","X":"649300.5","Y":"9220825.3","NAMOBJ":"Pucangro","WADMKC":"Kalitengah","WADMKK":"Lamongan"},"geometry":{"type":"Point","coordinates":[112.4,-7.0]}},{"type":"Feature","properties":{"Line":"S140","Sp":"1488.5","X":"649300.5","Y":"9220775.3","NAMOBJ":"Pucangro","WADMKC":"Kalitengah","WADMKK":"Lamongan"},"geometry":{"type":"Point","coordinates":[112.4,-7.0]}},{"type":"Feature","properties":{"Line":"S140","Sp":"1492.5","X":"649300.5","Y":"9220725.3","NAMOBJ":"Pucangro","WADMKC":"Kalitengah","WADMKK":"Lamongan"},"geometry":{"type":"Point","coordinates":[112.4,-7.0]}},{"type":"Feature","properties":{"Line":"S140","Sp":"1496.5","X":"649300.5","Y":"9220675.3","NAMOBJ":"Pucangro","WADMKC":"Kalitengah","WADMKK":"Lamongan"},"geometry":{"type":"Point","coordinates":[112.4,-7.0]}},{"type":"Feature","properties":{"Line":"S140","Sp":"1500.5","X":"649300.5","Y":"9220625.3","NAMOBJ":"Pucangro","WADMKC":"Kalitengah","WADMKK":"Lamongan"},"geometry":{"type":"Point","coordinates":[112.4,-7.0]}},{"type":"Feature","properties":{"Line":"S140","Sp":"1504.5","X":"649300.5","Y":"9220575.3","NAMOBJ":"Pucangro","WADMKC":"Kalitengah","WADMKK":"Lamongan"},"geometry":{"type":"Point","coordinates":[112.4,-7.0]}},{"type":"Feature","properties":{"Line":"S140","Sp":"1508.5","X":"649300.5","Y":"9220525.3","NAMOBJ":"Pucangro","WADMKC":"Kalitengah","WADMKK":"Lamongan"},"geometry":{"type":"Point","coordinates":[112.4,-7.0]}},{"type":"Feature","properties":{"Line":"S142","Sp":"1360.5","X":"650300.5","Y":"9221325.3","NAMOBJ":"Pucangro","WADMKC":"Kalitengah","WADMKK":"Lamongan"},"geometry":{"type":"Point","coordinates":[112.4,-7.0]}},{"type":"Feature","properties":{"Line":"S142","Sp":"1364.5","X":"650300.5","Y":"9221275.3","NAMOBJ":"Pucangro","WADMKC":"Kalitengah","WADMKK":"Lamongan"},"geometry":{"type":"Point","coordinates":[112.4,-7.0]}},{"type":"Feature","properties":{"Line":"S142","Sp":"1368.5","X":"650300.5","Y":"9221225.3","NAMOBJ":"Pucangro","WADMKC":"Kalitengah","WADMKK":"Lamongan"},"geometry":{"type":"Point","coordinates":[112.4,-7.0]}},{"type":"Feature","properties":{"Line":"S142","Sp":"1372.5","X":"650300.5","Y":"9221175.3","NAMOBJ":"Pucangro","WADMKC":"Kalitengah","WADMKK":"Lamongan"},"geometry":{"type":"Point","coordinates":[112.4,-7.0]}},{"type":"Feature","properties":{"Line":"S142","Sp":"1376.5","X":"650300.5","Y":"9221125.3","NAMOBJ":"Pucangro","WADMKC":"Kalitengah","WADMKK":"Lamongan"},"geometry":{"type":"Point","coordinates":[112.4,-7.0]}},{"type":"Feature","properties":{"Line":"S142","Sp":"1380.5","X":"650300.5","Y":"9221075.3","NAMOBJ":"Pucangro","WADMKC":"Kalitengah","WADMKK":"Lamongan"},"geometry":{"type":"Point","coordinates":[112.4,-7.0]}},{"type":"Feature","properties":{"Line":"S142","Sp":"1384.5","X":"650300.5","Y":"9221025.3","NAMOBJ":"Pucangro","WADMKC":"Kalitengah","WADMKK":"Lamongan"},"geometry":{"type":"Point","coordinates":[112.4,-7.0]}},{"type":"Feature","properties":{"Line":"S142","Sp":"1388.5","X":"650300.5","Y":"9220975.3","NAMOBJ":"Pucangro","WADMKC":"Kalitengah","WADMKK":"Lamongan"},"geometry":{"type":"Point","coordinates":[112.4,-7.0]}},{"type":"Feature","properties":{"Line":"S142","Sp":"1392.5","X":"650300.5","Y":"9220925.3","NAMOBJ":"Pucangro","WADMKC":"Kalitengah","WADMKK":"Lamongan"},"geometry":{"type":"Point","coordinates":[112.4,-7.0]}},{"type":"Feature","properties":{"Line":"S142","Sp":"1396.5","X":"650300.5","Y":"9220875.3","NAMOBJ":"Pucangro","WADMKC":"Kalitengah","WADMKK":"Lamongan"},"geometry":{"type":"Point","coordinates":[112.4,-7.0]}},{"type":"Feature","properties":{"Line":"S142","Sp":"1400.5","X":"650300.5","Y":"9220825.3","NAMOBJ":"Pucangro","WADMKC":"Kalitengah","WADMKK":"Lamongan"},"geometry":{"type":"Point","coordinates":[112.4,-7.0]}},{"type":"Feature","properties":{"Line":"S142","Sp":"1404.5","X":"650300.5","Y":"9220775.3","NAMOBJ":"Pucangro","WADMKC":"Kalitengah","WADMKK":"Lamongan"},"geometry":{"type":"Point","coordinates":[112.4,-7.0]}},{"type":"Feature","properties":{"Line":"S140","Sp":"1360.5","X":"649300.5","Y":"9222375.3","NAMOBJ":"Pucangtelu","WADMKC":"Kalitengah","WADMKK":"Lamongan"},"geometry":{"type":"Point","coordinates":[112.4,-7.0]}},{"type":"Feature","properties":{"Line":"S140","Sp":"1364.5","X":"649300.5","Y":"9222325.3","NAMOBJ":"Pucangtelu","WADMKC":"Kalitengah","WADMKK":"Lamongan"},"geometry":{"type":"Point","coordinates":[112.4,-7.0]}},{"type":"Feature","properties":{"Line":"S140","Sp":"1368.5","X":"649300.5","Y":"9222275.3","NAMOBJ":"Pucangtelu","WADMKC":"Kalitengah","WADMKK":"Lamongan"},"geometry":{"type":"Point","coordinates":[112.4,-7.0]}},{"type":"Feature","properties":{"Line":"S140","Sp":"1372.5","X":"649300.5","Y":"9222225.3","NAMOBJ":"Pucangtelu","WADMKC":"Kalitengah","WADMKK":"Lamongan"},"geometry":{"type":"Point","coordinates":[112.4,-7.0]}},{"type":"Feature","properties":{"Line":"S140","Sp":"1376.5","X":"649300.5","Y":"9222175.3","NAMOBJ":"Pucangtelu","WADMKC":"Kalitengah","WADMKK":"Lamongan"},"geometry":{"type":"Point","coordinates":[112.4,-7.0]}},{"type":"Feature","properties":{"Line":"S140","Sp":"1380.5","X":"649300.5","Y":"9222125.3","NAMOBJ":"Sungelebak","WADMKC":"Karanggeneng","WADMKK":"Lamongan"},"geometry":{"type":"Point","coordinates":[112.4,-7.0]}},{"type":"Feature","properties":{"Line":"S140","Sp":"1384.5","X":"649300.5","Y":"9222075.3","NAMOBJ":"Sungelebak","WADMKC":"Karanggeneng","WADMKK":"Lamongan"},"geometry":{"type":"Point","coordinates":[112.4,-7.0]}},{"type":"Feature","properties":{"Line":"S140","Sp":"1388.5","X":"649300.5","Y":"9222025.3","NAMOBJ":"Sungelebak","WADMKC":"Karanggeneng","WADMKK":"Lamongan"},"geometry":{"type":"Point","coordinates":[112.4,-7.0]}},{"type":"Feature","properties":{"Line":"S140","Sp":"1392.5","X":"649300.5","Y":"9221975.3","NAMOBJ":"Sungelebak","WADMKC":"Karanggeneng","WADMKK":"Lamongan"},"geometry":{"type":"Point","coordinates":[112.4,-7.0]}},{"type":"Feature","properties":{"Line":"S140","Sp":"1396.5","X":"649300.5","Y":"9221925.3","NAMOBJ":"Sungelebak","WADMKC":"Karanggeneng","WADMKK":"Lamongan"},"geometry":{"type":"Point","coordinates":[112.4,-7.0]}},{"type":"Feature","properties":{"Line":"S140","Sp":"1400.5","X":"649300.5","Y":"9221875.3","NAMOBJ":"Sungelebak","WADMKC":"Karanggeneng","WADMKK":"Lamongan"},"geometry":{"type":"Point","coordinates":[112.4,-7.0]}},{"type":"Feature","properties":{"Line":"S140","Sp":"1404.5","X":"649300.5","Y":"9221825.3","NAMOBJ":"Sungelebak","WADMKC":"Karanggeneng","WADMKK":"Lamongan"},"geometry":{"type":"Point","coordinates":[112.4,-7.0]}},{"type":"Feature","properties":{"Line":"S140","Sp":"1408.5","X":"649300.5","Y":"9221775.3","NAMOBJ":"Sungelebak","WADMKC":"Karanggeneng","WADMKK":"Lamongan"},"geometry":{"type":"Point","coordinates":[112.4,-7.0]}},{"type":"Feature","properties":{"Line":"S140","Sp":"1412.5","X":"649300.5","Y":"9221725.3","NAMOBJ":"Sungelebak","WADMKC":"Karanggeneng","WADMKK":"Lamongan"},"geometry":{"type":"Point","coordinates":[112.4,-7.0]}},{"type":"Feature","properties":{"Line":"S140","Sp":"1416.5","X":"649300.5","Y":"9221675.3","NAMOBJ":"Sungelebak","WADMKC":"Karanggeneng","WADMKK":"Lamongan"},"geometry":{"type":"Point","coordinates":[112.4,-7.0]}},{"type":"Feature","properties":{"Line":"S140","Sp":"1420.5","X":"649300.5","Y":"9221625.3","NAMOBJ":"Sungelebak","WADMKC":"Karanggeneng","WADMKK":"Lamongan"},"geometry":{"type":"Point","coordinates":[112.4,-7.0]}}]}