{"type":"FeatureCollection","features":[{"type":"Feature","properties":{"Line":"S110","Sp":"3312.5","X":"634300.5","Y":"9198425.3","NAMOBJ":"Girik","WADMKC":"Ngimbang","WADMKK":"Lamongan"},"geometry":{"type":"Point","coordinates":[112.2,-7.3]}},{"type":"Feature","properties":{"Line":"S110","Sp":"3316.5","X":"634300.5","Y":"9198375.3","NAMOBJ":"Girik","WADMKC":"Ngimbang","WADMKK":"Lamongan"},"geometry":{"type":"Point","coordinates":[112.2,-7.3]}},{"type":"Feature","properties":{"Line":"S110","Sp":"3320.5","X":"634300.5","Y":"9198325.3","NAMOBJ":"Girik","WADMKC":"Ngimbang","WADMKK":"Lamongan"},"geometry":{"type":"Point","coordinates":[112.2,-7.3]}},{"type":"Feature","properties":{"Line":"S110","Sp":"3324.5","X":"634300.5","Y":"9198275.3","NAMOBJ":"Girik","WADMKC":"Ngimbang","WADMKK":"Lamongan"},"geometry":{"type":"Point","coordinates":[112.2,-7.3]}},{"type":"Feature","properties":{"Line":"S110","Sp":"3328.5","X":"634300.5","Y":"9198225.3","NAMOBJ":"Girik","WADMKC":"Ngimbang","WADMKK":"Lamongan"},"geometry":{"type":"Point","coordinates":[112.2,-7.3]}},{"type":"Feature","properties":{"Line":"S110","Sp":"3332.5","X":"634300.5","Y":"9198175.3","NAMOBJ":"Girik","WADMKC":"Ngimbang","WADMKK":"Lamongan"},"geometry":{"type":"Point","coordinates":[112.2,-7.3]}},{"type":"Feature","properties":{"Line":"S110","Sp":"3336.5","X":"634300.5","Y":"9198125.3","NAMOBJ":"Girik","WADMKC":"Ngimbang","WADMKK":"Lamongan"},"geometry":{"type":"Point","coordinates":[112.2,-7.3]}},{"type":"Feature","properties":{"Line":"S110","Sp":"3340.5","X":"634300.5","Y":"9198075.3","NAMOBJ":"Girik","WADMKC":"Ngimbang","WADMKK":"Lamongan"},"geometry":{"type":"Point","coordinates":[112.2,-7.3]}},{"type":"Feature","properties":{"Line":"S110","Sp":"3344.5","X":"634300.5","Y":"9198025.3","NAMOBJ":"Girik","WADMKC":"Ngimbang","WADMKK":"Lamongan"},"geometry":{"type":"Point","coordinates":[112.2,-7.3]}},{"type":"Feature","properties":{"Line":"S110","Sp":"3348.5","X":"634300.5","Y":"9197975.3","NAMOBJ":"Girik","WADMKC":"Ngimbang","WADMKK":"Lamongan"},"geometry":{"type":"Point","coordinates":[112.2,-7.3]}},{"type":"Feature","properties":{"Line":"S110","Sp":"3352.5","X":"634300.5","Y":"9197925.3","NAMOBJ":"Girik","WADMKC":"Ngimbang","WADMKK":"Lamongan"},"geometry":{"type":"Point","coordinates":[112.2,-7.3]}},{"type":"Feature","properties":{"Line":"S110","Sp":"3356.5","X":"634300.5","Y":"9197875.3","NAMOBJ":"Girik","WADMKC":"Ngimbang","WADMKK":"Lamongan"},"geometry":{"type":"Point","coordinates":[112.2,-7.3]}},{"type":"Feature","properties":{"Line":"S110","Sp":"3360.5","X":"634300.5","Y":"9197825.3","NAMOBJ":"Girik","WADMKC":"Ngimbang","WADMKK":"Lamongan"},"geometry":{"type":"Point","coordinates":[112.2,-7.3]}},{"type":"Feature","properties":{"Line":"S110","Sp":"3364.5","X":"634300.5","Y":"9197775.3","NAMOBJ":"Girik","WADMKC":"Ngimbang","WADMKK":"Lamongan"},"geometry":{"type":"Point","coordinates":[112.2,-7.3]}},{"type":"Feature","properties":{"Line":"S110","Sp":"3368.5","X":"634300.5","Y":"9197725.3","NAMOBJ":"Girik","WADMKC":"Ngimbang","WADMKK":"Lamongan"},"geometry":{"type":"Point","coordinates":[112.2,-7.3]}},{"type":"Feature","properties":{"Line":"S110","Sp":"3372.5","X":"634300.5","Y":"9197675.3","NAMOBJ":"Girik","WADMKC":"Ngimbang","WADMKK":"Lamongan"},"geometry":{"type":"Point","coordinates":[112.2,-7.3]}},{"type":"Feature","properties":{"Line":"S110","Sp":"3376.5","X":"634300.5","Y":"9197625.3","NAMOBJ":"Girik","WADMKC":"Ngimbang","WADMKK":"Lamongan"},"geometry":{"type":"Point","coordinates":[112.2,-7.3]}},{"type":"Feature","properties":{"Line":"S110","Sp":"3380.5","X":"634300.5","Y":"9197575.3","NAMOBJ":"Girik","WADMKC":"Ngimbang","WADMKK":"Lamongan"},"geometry":{"type":"Point","coordinates":[112.2,-7.3]}},{"type":"Feature","properties":{"Line":"S110","Sp":"3384.5","X":"634300.5","Y":"9197525.3","NAMOBJ":"Girik","WADMKC":"Ngimbang","WADMKK":"Lamongan"},"geometry":{"type":"Point","coordinates":[112.2,-7.3]}},{"type":"Feature","properties":{"Line":"S110","Sp":"3388.5","X":"634300.5","Y":"9197475.3","NAMOBJ":"Girik","WADMKC":"Ngimbang","WADMKK":"Lamongan"},"geometry":{"type":"Point","coordinates":[112.2,-7.3]}},{"type":"Feature","properties":{"Line":"S110","Sp":"3392.5","X":"634300.5","Y":"9197425.3","NAMOBJ":"Girik","WADMKC":"Ngimbang","WADMKK":"Lamongan"},"geometry":{"type":"Point","coordinates":[112.2,-7.3]}},{"type":"Feature","properties":{"Line":"S110","Sp":"3396.5","X":"634300.5","Y":"9197375.3","NAMOBJ":"Girik","WADMKC":"Ngimbang","WADMKK":"Lamongan"},"geometry":{"type":"Point","coordinates":[112.2,-7.3]}},{"type":"Feature","properties":{"Line":"S110","Sp":"3400.5","X":"634300.5","Y":"9197325.3","NAMOBJ":"Girik","WADMKC":"Ngimbang","WADMKK":"Lamongan"},"geometry":{"type":"Point","coordinates":[112.2,-7.3]}},{"type":"Feature","properties":{"Line":"S110","Sp":"3404.5","X":"634300.5","Y":"9197275.3","NAMOBJ":"Girik","WADMKC":"Ngimbang","WADMKK":"Lamongan"},"geometry":{"type":"Point","coordinates":[112.2,-7.3]}},{"type":"Feature","properties":{"Line":"S110","Sp":"3408.5","X":"634300.5","Y":"9197225.3","NAMOBJ":"Girik","WADMKC":"Ngimbang","WADMKK":"Lamongan"},"geometry":{"type":"Point","coordinates":[112.2,-7.3]}},{"type":"Feature","properties":{"Line":"S110","Sp":"3412.5","X":"634300.5","Y":"9197175.3","NAMOBJ":"Girik","WADMKC":"Ngimbang","WADMKK":"Lamongan"},"geometry":{"type":"Point","coordinates":[112.2,-7.3]}},{"type":"Feature","properties":{"Line":"S110","Sp":"3416.5","X":"634300.5","Y":"9197125.3","NAMOBJ":"Girik","WADMKC":"Ngimbang","WADMKK":"Lamongan"},"geometry":{"type":"Point","coordinates":[112.2,-7.3]}},{"type":"Feature","properties":{"Line":"S110","Sp":"3420.5","X":"634300.5","Y":"9197075.3","NAMOBJ":"Girik","WADMKC":"Ngimbang","WADMKK":"Lamongan"},"geometry":{"type":"Point","coordinates":[112.2,-7.3]}},{"type":"Feature","properties":{"Line":"S110","Sp":"3424.5","X":"634300.5","Y":"9197025.3","NAMOBJ":"Girik","WADMKC":"Ngimbang","WADMKK":"Lamongan"},"geometry":{"type":"Point","coordinates":[112.2,-7.3]}},{"type":"Feature","properties":{"Line":"S110","Sp":"3428.5","X":"634300.5","Y":"9196975.3","NAMOBJ":"Girik","WADMKC":"Ngimbang","WADMKK":"Lamongan"},"geometry":{"type":"Point","coordinates":[112.2,-7.3]}},{"type":"Feature","properties":{"Line":"S110","Sp":"3432.5","X":"634300.5","Y":"9196925.3","NAMOBJ":"Girik","WADMKC":"Ngimbang","WADMKK":"Lamongan"},"geometry":{"type":"Point","coordinates":[112.2,-7.3]}},{"type":"Feature","properties":{"Line":"S110","Sp":"3436.5","X":"634300.5","Y":"9196875.3","NAMOBJ":"Girik","WADMKC":"Ngimbang","WADMKK":"Lamongan"},"geometry":{"type":"Point","coordinates":[112.2,-7.3]}},{"type":"Feature","properties":{"Line":"S110","Sp":"3460.5","X":"634300.5","Y":"9196575.3","NAMOBJ":"Girik","WADMKC":"Ngimbang","WADMKK":"Lamongan"},"geometry":{"type":"Point","coordinates":[112.2,-7.3]}},{"type":"Feature","properties":{"Line":"S110","Sp":"3464.5","X":"634300.5","Y":"9196525.3","NAMOBJ":"Girik","WADMKC":"Ngimbang","WADMKK":"Lamongan"},"geometry":{"type":"Point","coordinates":[112.2,-7.3]}},{"type":"Feature","properties":{"Line":"S110","Sp":"3440.5","X":"634300.5","Y":"9196825.3","NAMOBJ":"Sendangrejo","WADMKC":"Ngimbang","WADMKK":"Lamongan"},"geometry":{"type":"Point","coordinates":[112.2,-7.3]}},{"type":"Feature","properties":{"Line":"S110","Sp":"3444.5","X":"634300.5","Y":"9196775.3","NAMOBJ":"Sendangrejo","WADMKC":"Ngimbang","WADMKK":"Lamongan"},"geometry":{"type":"Point","coordinates":[112.2,-7.3]}},{"type":"Feature","properties":{"Line":"S110","Sp":"3448.5","X":"634300.5","Y":"9196725.3","NAMOBJ":"Sendangrejo","WADMKC":"Ngimbang","WADMKK":"Lamongan"},"geometry":{"type":"Point","coordinates":[112.2,-7.3]}},{"type":"Feature","properties":{"Line":"S110","Sp":"3452.5","X":"634300.5","Y":"9196675.3","NAMOBJ":"Sendangrejo","WADMKC":"Ngimbang","WADMKK":"Lamongan"},"geometry":{"type":"Point","coordinates":[112.2,-7.3]}},{"type":"Feature","properties":{"Line":"S110","Sp":"3456.5","X":"634300.5","Y":"9196625.3","NAMOBJ":"Sendangrejo","WADMKC":"Ngimbang","WADMKK":"Lamongan"},"geometry":{"type":"Point","coordinates":[112.2,-7.3]}},{"type":"Feature","properties":{"Line":"S110","Sp":"3468.5","X":"634300.5","Y":"9196475.3","NAMOBJ":"Sendangrejo","WADMKC":"Ngimbang","WADMKK":"Lamongan"},"geometry":{"type":"Point","coordinates":[112.2,-7.3]}},{"type":"Feature","properties":{"Line":"S110","Sp":"3472.5","X":"634300.5","Y":"9196425.3","NAMOBJ":"Sendangrejo","WADMKC":"Ngimbang","WADMKK":"Lamongan"},"geometry":{"type":"Point","coordinates":[112.2,-7.3]}},{"type":"Feature","properties":{"Line":"S110","Sp":"3476.5","X":"634300.5","Y":"9196375.3","NAMOBJ":"Sendangrejo","WADMKC":"Ngimbang","WADMKK":"Lamongan"},"geometry":{"type":"Point","coordinates":[112.2,-7.3]}},{"type":"Feature","properties":{"Line":"S110","Sp":"3480.5","X":"634300.5","Y":"9196325.3","NAMOBJ":"Sendangrejo","WADMKC":"Ngimbang","WADMKK":"Lamongan"},"geometry":{"type":"Point","coordinates":[112.2,-7.3]}},{"type":"Feature","properties":{"Line":"S110","Sp":"3484.5","X":"634300.5","Y":"9196275.3","NAMOBJ":"Sendangrejo","WADMKC":"Ngimbang","WADMKK":"Lamongan"},"geometry":{"type":"Point","coordinates":[112.2,-7.3]}},{"type":"Feature","properties":{"Line":"S110","Sp":"3488.5","X":"634300.5","Y":"9196225.3","NAMOBJ":"Sendangrejo","WADMKC":"Ngimbang","WADMKK":"Lamongan"},"geometry":{"type":"Point","coordinates":[112.2,-7.3]}},{"type":"Feature","properties":{"Line":"S110","Sp":"3492.5","X":"634300.5","Y":"9196175.3","NAMOBJ":"Sendangrejo","WADMKC":"Ngimbang","WADMKK":"Lamongan"},"geometry":{"type":"Point","coordinates":[112.2,-7.3]}},{"type":"Feature","properties":{"Line":"S110","Sp":"3496.5","X":"634300.5","Y":"9196125.3","NAMOBJ":"Sendangrejo","WADMKC":"Ngimbang","WADMKK":"Lamongan"},"geometry":{"type":"Point","coordinates":[112.2,-7.3]}},{"type":"Feature","properties":{"Line":"S110","Sp":"3500.5","X":"634300.5","Y":"9196075.3","NAMOBJ":"Sendangrejo","WADMKC":"Ngimbang","WADMKK":"Lamongan"},"geometry":{"type":"Point","coordinates":[112.2,-7.3]}},{"type":"Feature","properties":{"Line":"S110","Sp":"3504.5","X":"634300.5","Y":"9196025.3","NAMOBJ":"Sendangrejo","WADMKC":"Ngimbang","WADMKK":"Lamongan"},"geometry":{"type":"Point","coordinates":[112.2,-7.3]}},{"type":"Feature","properties":{"Line":"S110","Sp":"3508.5","X":"634300.5","Y":"9195975.3","NAMOBJ":"Sendangrejo","WADMKC":"Ngimbang","WADMKK":"Lamongan"},"geometry":{"type":"Point","coordinates":[112.2,-7.3]}},{"type":"Feature","properties":{"Line":"S110","Sp":"3512.5","X":"634300.5","Y":"9195925.3","NAMOBJ":"Sendangrejo","WADMKC":"Ngimbang","WADMKK":"Lamongan"},"geometry":{"type":"Point","coordinates":[112.2,-7.3]}},{"type":"Feature","properties":{"Line":"S110","Sp":"3516.5","X":"634300.5","Y":"9195875.3","NAMOBJ":"Sendangrejo","WADMKC":"Ngimbang","WADMKK":"Lamongan"},"geometry":{"type":"Point","coordinates":[112.2,-7.3]}},{"type":"Feature","properties":{"Line":"S110","Sp":"3520.5","X":"634300.5","Y":"9195825.3","NAMOBJ":"Sendangrejo","WADMKC":"Ngimbang","WADMKK":"Lamongan"},"geometry":{"type":"Point","coordinates":[112.2,-7.3]}},{"type":"Feature","properties":{"Line":"S110","Sp":"3524.5","X":"634300.5","Y":"9195775.3","NAMOBJ":"Sendangrejo","WADMKC":"Ngimbang","WADMKK":"Lamongan"},"geometry":{"type":"Point","coordinates":[112.2,-7.3]}},{"type":"Feature","properties":{"Line":"S110","Sp":"3528.5","X":"634300.5","Y":"9195725.3","NAMOBJ":"Sendangrejo","WADMKC":"Ngimbang","WADMKK":"Lamongan"},"geometry":{"type":"Point","coordinates":[112.2,-7.3]}},{"type":"Feature","properties":{"Line":"S110","Sp":"3532.5","X":"634300.5","Y":"9195675.3","NAMOBJ":"Sendangrejo","WADMKC":"Ngimbang","WADMKK":"Lamongan"},"geometry":{"type":"Point","coordinates":[112.2,-7.3]}},{"type":"Feature","properties":{"Line":"S110","Sp":"3536.5","X":"634300.5","Y":"9195625.3","NAMOBJ":"Sendangrejo","WADMKC":"Ngimbang","WADMKK":"Lamongan"},"geometry":{"type":"Point","coordinates":[112.2,-7.3]}},{"type":"Feature","properties":{"Line":"S110","Sp":"3540.5","X":"634300.5","Y":"9195575.3","NAMOBJ":"Sendangrejo","WADMKC":"Ngimbang","WADMKK":"Lamongan"},"geometry":{"type":"Point","coordinates":[112.2,-7.3]}},{"type":"Feature","properties":{"Line":"S110","Sp":"3544.5","X":"634300.5","Y":"9195525.3","NAMOBJ":"Sendangrejo","WADMKC":"Ngimbang","WADMKK":"Lamongan"},"geometry":{"type":"Point","coordinates":[112.2,-7.3]}},{"type":"Feature","properties":{"Line":"S110","Sp":"3548.5","X":"634300.5","Y":"9195475.3","NAMOBJ":"Sendangrejo","WADMKC":"Ngimbang","WADMKK":"Lamongan"},"geometry":{"type":"Point","coordinates":[112.2,-7.3]}},{"type":"Feature","properties":{"Line":"S110","Sp":"3552.5","X":"634300.5","Y":"9195425.3","NAMOBJ":"Sendangrejo","WADMKC":"Ngimbang","WADMKK":"Lamongan"},"geometry":{"type":"Point","coordinates":[112.2,-7.3]}},{"type":"Feature","properties":{"Line":"S110","Sp":"3556.5","X":"634300.5","Y":"9195375.3","NAMOBJ":"Sendangrejo","WADMKC":"Ngimbang","WADMKK":"Lamongan"},"geometry":{"type":"Point","coordinates":[112.2,-7.3]}},{"type":"Feature","properties":{"Line":"S110","Sp":"3560.5","X":"634300.5","Y":"9195325.3","NAMOBJ":"Sendangrejo","WADMKC":"Ngimbang","WADMKK":"Lamongan"},"geometry":{"type":"Point","coordinates":[112.2,-7.3]}},{"type":"Feature","properties":{"Line":"S110","Sp":"3564.5","X":"634300.5","Y":"9195275.3","NAMOBJ":"Sendangrejo","WADMKC":"Ngimbang","WADMKK":"Lamongan"},"geometry":{"type":"Point","coordinates":[112.2,-7.3]}},{"type":"Feature","properties":{"Line":"S110","Sp":"3568.5","X":"634300.5","Y":"9195225.3","NAMOBJ":"Sendangrejo","WADMKC":"Ngimbang","WADMKK":"Lamongan"},"geometry":{"type":"Point","coordinates":[112.2,-7.3]}},{"type":"Feature","properties":{"Line":"S110","Sp":"3572.5","X":"634300.5","Y":"9195175.3","NAMOBJ":"Sendangrejo","WADMKC":"Ngimbang","WADMKK":"Lamongan"},"geometry":{"type":"Point","coordinates":[112.2,-7.3]}},{"type":"Feature","properties":{"Line":"S110","Sp":"3576.5","X":"634300.5","Y":"9195125.3","NAMOBJ":"Sendangrejo","WADMKC":"Ngimbang","WADMKK":"Lamongan"},"geometry":{"type":"Point","coordinates":[112.2,-7.3]}},{"type":"Feature","properties":{"Line":"S110","Sp":"3580.5","X":"634300.5","Y":"9195075.3","NAMOBJ":"Sendangrejo","WADMKC":"Ngimbang","WADMKK":"Lamongan"},"geometry":{"type":"Point","coordinates":[112.2,-7.3]}},{"type":"Feature","properties":{"Line":"S110","Sp":"3584.5","X":"634300.5","Y":"9195025.3","NAMOBJ":"Sendangrejo","WADMKC":"Ngimbang","WADMKK":"Lamongan"},"geometry":{"type":"Point","coordinates":[112.2,-7.3]}},{"type":"Feature","properties":{"Line":"S110","Sp":"3588.5","X":"634300.5","Y":"9194975.3","NAMOBJ":"Sendangrejo","WADMKC":"Ngimbang","WADMKK":"Lamongan"},"geometry":{"type":"Point","coordinates":[112.2,-7.3]}},{"type":"Feature","properties":{"Line":"S110","Sp":"3592.5","X":"634300.5","Y":"9194925.3","NAMOBJ":"Sendangrejo","WADMKC":"Ngimbang","WADMKK":"Lamongan"},"geometry":{"type":"Point","coordinates":[112.2,-7.3]}},{"type":"Feature","properties":{"Line":"S110","Sp":"3596.5","X":"634300.5","Y":"9194875.3","NAMOBJ":"Sendangrejo","WADMKC":"Ngimbang","WADMKK":"Lamongan"},"geometry":{"type":"Point","coordinates":[112.2,-7.3]}},{"type":"Feature","properties":{"Line":"S110","Sp":"3600.5","X":"634300.5","Y":"9194825.3","NAMOBJ":"Sendangrejo","WADMKC":"Ngimbang","WADMKK":"Lamongan"},"geometry":{"type":"Point","coordinates":[112.2,-7.3]}},{"type":"Feature","properties":{"Line":"S110","Sp":"3604.5","X":"634300.5","Y":"9194775.3","NAMOBJ":"Sendangrejo","WADMKC":"Ngimbang","WADMKK":"Lamongan"},"geometry":{"type":"Point","coordinates":[112.2,-7.3]}},{"type":"Feature","properties":{"Line":"S110","Sp":"3608.5","X":"634300.5","Y":"9194725.3","NAMOBJ":"Sendangrejo","WADMKC":"Ngimbang","WADMKK":"Lamongan"},"geometry":{"type":"Point","coordinates":[112.2,-7.3]}},{"type":"Feature","properties":{"Line":"S110","Sp":"3612.5","X":"634300.5","Y":"9194675.3","NAMOBJ":"Sendangrejo","WADMKC":"Ngimbang","WADMKK":"Lamongan"},"geometry":{"type":"Point","coordinates":[112.2,-7.3]}},{"type":"Feature","properties":{"Line":"S110","Sp":"3616.5","X":"634300.5","Y":"9194625.3","NAMOBJ":"Sendangrejo","WADMKC":"Ngimbang","WADMKK":"Lamongan"},"geometry":{"type":"Point","coordinates":[112.2,-7.3]}}]}