{"type":"FeatureCollection","features":[{"type":"Feature","properties":{"Line":"S118","Sp":"2576.5","X":"638300.5","Y":"9208175.3","NAMOBJ":"Bakalrejo","WADMKC":"Sugio","WADMKK":"Lamongan"},"geometry":{"type":"Point","coordinates":[112.3,-7.2]}},{"type":"Feature","properties":{"Line":"S118","Sp":"2580.5","X":"638300.5","Y":"9208125.3","NAMOBJ":"Bakalrejo","WADMKC":"Sugio","WADMKK":"Lamongan"},"geometry":{"type":"Point","coordinates":[112.3,-7.2]}},{"type":"Feature","properties":{"Line":"S118","Sp":"2584.5","X":"638300.5","Y":"9208075.3","NAMOBJ":"Bakalrejo","WADMKC":"Sugio","WADMKK":"Lamongan"},"geometry":{"type":"Point","coordinates":[112.3,-7.2]}},{"type":"Feature","properties":{"Line":"S118","Sp":"2588.5","X":"638300.5","Y":"9208025.3","NAMOBJ":"Bakalrejo","WADMKC":"Sugio","WADMKK":"Lamongan"},"geometry":{"type":"Point","coordinates":[112.3,-7.2]}},{"type":"Feature","properties":{"Line":"S118","Sp":"2592.5","X":"638300.5","Y":"9207975.3","NAMOBJ":"Bakalrejo","WADMKC":"Sugio","WADMKK":"Lamongan"},"geometry":{"type":"Point","coordinates":[112.3,-7.2]}},{"type":"Feature","properties":{"Line":"S118","Sp":"2596.5","X":"638300.5","Y":"9207925.3","NAMOBJ":"Bakalrejo","WADMKC":"Sugio","WADMKK":"Lamongan"},"geometry":{"type":"Point","coordinates":[112.3,-7.2]}},{"type":"Feature","properties":{"Line":"S118","Sp":"2600.5","X":"638300.5","Y":"9207875.3","NAMOBJ":"Bakalrejo","WADMKC":"Sugio","WADMKK":"Lamongan"},"geometry":{"type":"Point","coordinates":[112.3,-7.2]}},{"type":"Feature","properties":{"Line":"S118","Sp":"2604.5","X":"638300.5","Y":"9207825.3","NAMOBJ":"Bakalrejo","WADMKC":"Sugio","WADMKK":"Lamongan"},"geometry":{"type":"Point","coordinates":[112.3,-7.2]}},{"type":"Feature","properties":{"Line":"S118","Sp":"2608.5","X":"638300.5","Y":"9207775.3","NAMOBJ":"Bakalrejo","WADMKC":"Sugio","WADMKK":"Lamongan"},"geometry":{"type":"Point","coordinates":[112.3,-7.2]}},{"type":"Feature","properties":{"Line":"S120","Sp":"2588.5","X":"639300.5","Y":"9207975.3","NAMOBJ":"Bakalrejo","WADMKC":"Sugio","WADMKK":"Lamongan"},"geometry":{"type":"Point","coordinates":[112.3,-7.2]}},{"type":"Feature","properties":{"Line":"S120","Sp":"2592.5","X":"639300.5","Y":"9207925.3","NAMOBJ":"Bakalrejo","WADMKC":"Sugio","WADMKK":"Lamongan"},"geometry":{"type":"Point","coordinates":[112.3,-7.2]}},{"type":"Feature","properties":{"Line":"S120","Sp":"2596.5","X":"639300.5","Y":"9207875.3","NAMOBJ":"Bakalrejo","WADMKC":"Sugio","WADMKK":"Lamongan"},"geometry":{"type":"Point","coordinates":[112.3,-7.2]}},{"type":"Feature","properties":{"Line":"S120","Sp":"2600.5","X":"639300.5","Y":"9207825.3","NAMOBJ":"Bakalrejo","WADMKC":"Sugio","WADMKK":"Lamongan"},"geometry":{"type":"Point","coordinates":[112.3,-7.2]}},{"type":"Feature","properties":{"Line":"S120","Sp":"2604.5","X":"639300.5","Y":"9207775.3","NAMOBJ":"Bakalrejo","WADMKC":"Sugio","WADMKK":"Lamongan"},"geometry":{"type":"Point","coordinates":[112.3,-7.2]}},{"type":"Feature","properties":{"Line":"S120","Sp":"2608.5","X":"639300.5","Y":"9207725.3","NAMOBJ":"Bakalrejo","WADMKC":"Sugio","WADMKK":"Lamongan"},"geometry":{"type":"Point","coordinates":[112.3,-7.2]}},{"type":"Feature","properties":{"Line":"S120","Sp":"2612.5","X":"639300.5","Y":"9207675.3","NAMOBJ":"Bakalrejo","WADMKC":"Sugio","WADMKK":"Lamongan"},"geometry":{"type":"Point","coordinates":[112.3,-7.2]}},{"type":"Feature","properties":{"Line":"S120","Sp":"2616.5","X":"639300.5","Y":"9207625.3","NAMOBJ":"Bakalrejo","WADMKC":"Sugio","WADMKK":"Lamongan"},"geometry":{"type":"Point","coordinates":[112.3,-7.2]}},{"type":"Feature","properties":{"Line":"S120","Sp":"2620.5","X":"639300.5","Y":"9207575.3","NAMOBJ":"Bakalrejo","WADMKC":"Sugio","WADMKK":"Lamongan"},"geometry":{"type":"Point","coordinates":[112.3,-7.2]}},{"type":"Feature","properties":{"Line":"S120","Sp":"2624.5","X":"639300.5","Y":"9207525.3","NAMOBJ":"Bakalrejo","WADMKC":"Sugio","WADMKK":"Lamongan"},"geometry":{"type":"Point","coordinates":[112.3,-7.2]}},{"type":"Feature","properties":{"Line":"S120","Sp":"2628.5","X":"639300.5","Y":"9207475.3","NAMOBJ":"Bakalrejo","WADMKC":"Sugio","WADMKK":"Lamongan"},"geometry":{"type":"Point","coordinates":[112.3,-7.2]}},{"type":"Feature","properties":{"Line":"S120","Sp":"2632.5","X":"639300.5","Y":"9207425.3","NAMOBJ":"Bakalrejo","WADMKC":"Sugio","WADMKK":"Lamongan"},"geometry":{"type":"Point","coordinates":[112.3,-7.2]}},{"type":"Feature","properties":{"Line":"S120","Sp":"2636.5","X":"639300.5","Y":"9207375.3","NAMOBJ":"Bakalrejo","WADMKC":"Sugio","WADMKK":"Lamongan"},"geometry":{"type":"Point","coordinates":[112.3,-7.2]}},{"type":"Feature","properties":{"Line":"S120","Sp":"2640.5","X":"639300.5","Y":"9207325.3","NAMOBJ":"Bakalrejo","WADMKC":"Sugio","WADMKK":"Lamongan"},"geometry":{"type":"Point","coordinates":[112.3,-7.2]}},{"type":"Feature","properties":{"Line":"S120","Sp":"2644.5","X":"639300.5","Y":"9207275.3","NAMOBJ":"Bakalrejo","WADMKC":"Sugio","WADMKK":"Lamongan"},"geometry":{"type":"Point","coordinates":[112.3,-7.2]}},{"type":"Feature","properties":{"Line":"S120","Sp":"2648.5","X":"639300.5","Y":"9207225.3","NAMOBJ":"Bakalrejo","WADMKC":"Sugio","WADMKK":"Lamongan"},"geometry":{"type":"Point","coordinates":[112.3,-7.2]}},{"type":"Feature","properties":{"Line":"S120","Sp":"2652.5","X":"639300.5","Y":"9207175.3","NAMOBJ":"Bakalrejo","WADMKC":"Sugio","WADMKK":"Lamongan"},"geometry":{"type":"Point","coordinates":[112.3,-7.2]}},{"type":"Feature","properties":{"Line":"S120","Sp":"2656.5","X":"639300.5","Y":"9207125.3","NAMOBJ":"Bakalrejo","WADMKC":"Sugio","WADMKK":"Lamongan"},"geometry":{"type":"Point","coordinates":[112.3,-7.2]}},{"type":"Feature","properties":{"Line":"S120","Sp":"2660.5","X":"639300.5","Y":"9207075.3","NAMOBJ":"Bakalrejo","WADMKC":"Sugio","WADMKK":"Lamongan"},"geometry":{"type":"Point","coordinates":[112.3,-7.2]}},{"type":"Feature","properties":{"Line":"S120","Sp":"2664.5","X":"639300.5","Y":"9207025.3","NAMOBJ":"Bakalrejo","WADMKC":"Sugio","WADMKK":"Lamongan"},"geometry":{"type":"Point","coordinates":[112.3,-7.2]}},{"type":"Feature","properties":{"Line":"S122","Sp":"2632.5","X":"640300.5","Y":"9207975.3","NAMOBJ":"Bakalrejo","WADMKC":"Sugio","WADMKK":"Lamongan"},"geometry":{"type":"Point","coordinates":[112.3,-7.2]}},{"type":"Feature","properties":{"Line":"S122","Sp":"2636.5","X":"640300.5","Y":"9207925.3","NAMOBJ":"Bakalrejo","WADMKC":"Sugio","WADMKK":"Lamongan"},"geometry":{"type":"Point","coordinates":[112.3,-7.2]}},{"type":"Feature","properties":{"Line":"S122","Sp":"2640.5","X":"640300.5","Y":"9207875.3","NAMOBJ":"Bakalrejo","WADMKC":"Sugio","WADMKK":"Lamongan"},"geometry":{"type":"Point","coordinates":[112.3,-7.2]}},{"type":"Feature","properties":{"Line":"S122","Sp":"2644.5","X":"640300.5","Y":"9207825.3","NAMOBJ":"Bakalrejo","WADMKC":"Sugio","WADMKK":"Lamongan"},"geometry":{"type":"Point","coordinates":[112.3,-7.2]}},{"type":"Feature","properties":{"Line":"S122","Sp":"2648.5","X":"640300.5","Y":"9207775.3","NAMOBJ":"Bakalrejo","WADMKC":"Sugio","WADMKK":"Lamongan"},"geometry":{"type":"Point","coordinates":[112.3,-7.2]}},{"type":"Feature","properties":{"Line":"S122","Sp":"2652.5","X":"640300.5","Y":"9207725.3","NAMOBJ":"Bakalrejo","WADMKC":"Sugio","WADMKK":"Lamongan"},"geometry":{"type":"Point","coordinates":[112.3,-7.2]}},{"type":"Feature","properties":{"Line":"S122","Sp":"2656.5","X":"640300.5","Y":"9207675.3","NAMOBJ":"Bakalrejo","WADMKC":"Sugio","WADMKK":"Lamongan"},"geometry":{"type":"Point","coordinates":[112.3,-7.2]}},{"type":"Feature","properties":{"Line":"S122","Sp":"2660.5","X":"640300.5","Y":"9207625.3","NAMOBJ":"Bakalrejo","WADMKC":"Sugio","WADMKK":"Lamongan"},"geometry":{"type":"Point","coordinates":[112.3,-7.2]}},{"type":"Feature","properties":{"Line":"S122","Sp":"2664.5","X":"640300.5","Y":"9207575.3","NAMOBJ":"Bakalrejo","WADMKC":"Sugio","WADMKK":"Lamongan"},"geometry":{"type":"Point","coordinates":[112.3,-7.2]}},{"type":"Feature","properties":{"Line":"S122","Sp":"2668.5","X":"640300.5","Y":"9207525.3","NAMOBJ":"Bakalrejo","WADMKC":"Sugio","WADMKK":"Lamongan"},"geometry":{"type":"Point","coordinates":[112.3,-7.2]}},{"type":"Feature","properties":{"Line":"S122","Sp":"2672.5","X":"640300.5","Y":"9207475.3","NAMOBJ":"Bakalrejo","WADMKC":"Sugio","WADMKK":"Lamongan"},"geometry":{"type":"Point","coordinates":[112.3,-7.2]}},{"type":"Feature","properties":{"Line":"S122","Sp":"2676.5","X":"640300.5","Y":"9207425.3","NAMOBJ":"Bakalrejo","WADMKC":"Sugio","WADMKK":"Lamongan"},"geometry":{"type":"Point","coordinates":[112.3,-7.2]}},{"type":"Feature","properties":{"Line":"S122","Sp":"2680.5","X":"640300.5","Y":"9207375.3","NAMOBJ":"Bakalrejo","WADMKC":"Sugio","WADMKK":"Lamongan"},"geometry":{"type":"Point","coordinates":[112.3,-7.2]}},{"type":"Feature","properties":{"Line":"S122","Sp":"2684.5","X":"640300.5","Y":"9207325.3","NAMOBJ":"Bakalrejo","WADMKC":"Sugio","WADMKK":"Lamongan"},"geometry":{"type":"Point","coordinates":[112.3,-7.2]}},{"type":"Feature","properties":{"Line":"S122","Sp":"2688.5","X":"640300.5","Y":"9207275.3","NAMOBJ":"Bakalrejo","WADMKC":"Sugio","WADMKK":"Lamongan"},"geometry":{"type":"Point","coordinates":[112.3,-7.2]}},{"type":"Feature","properties":{"Line":"S122","Sp":"2692.5","X":"640300.5","Y":"9207225.3","NAMOBJ":"Bakalrejo","WADMKC":"Sugio","WADMKK":"Lamongan"},"geometry":{"type":"Point","coordinates":[112.3,-7.2]}},{"type":"Feature","properties":{"Line":"S122","Sp":"2696.5","X":"640300.5","Y":"9207175.3","NAMOBJ":"Bakalrejo","WADMKC":"Sugio","WADMKK":"Lamongan"},"geometry":{"type":"Point","coordinates":[112.3,-7.2]}},{"type":"Feature","properties":{"Line":"S122","Sp":"2700.5","X":"640300.5","Y":"9207125.3","NAMOBJ":"Bakalrejo","WADMKC":"Sugio","WADMKK":"Lamongan"},"geometry":{"type":"Point","coordinates":[112.3,-7.2]}},{"type":"Feature","properties":{"Line":"S122","Sp":"2704.5","X":"640300.5","Y":"9207075.3","NAMOBJ":"Bakalrejo","WADMKC":"Sugio","WADMKK":"Lamongan"},"geometry":{"type":"Point","coordinates":[112.3,-7.2]}},{"type":"Feature","properties":{"Line":"S122","Sp":"2708.5","X":"640300.5","Y":"9207025.3","NAMOBJ":"Bakalrejo","WADMKC":"Sugio","WADMKK":"Lamongan"},"geometry":{"type":"Point","coordinates":[112.3,-7.2]}},{"type":"Feature","properties":{"Line":"S124","Sp":"2708.5","X":"641300.5","Y":"9207575.3","NAMOBJ":"Bakalrejo","WADMKC":"Sugio","WADMKK":"Lamongan"},"geometry":{"type":"Point","coordinates":[112.3,-7.2]}},{"type":"Feature","properties":{"Line":"S124","Sp":"2712.5","X":"641300.5","Y":"9207525.3","NAMOBJ":"Bakalrejo","WADMKC":"Sugio","WADMKK":"Lamongan"},"geometry":{"type":"Point","coordinates":[112.3,-7.2]}},{"type":"Feature","properties":{"Line":"S124","Sp":"2716.5","X":"641300.5","Y":"9207475.3","NAMOBJ":"Bakalrejo","WADMKC":"Sugio","WADMKK":"Lamongan"},"geometry":{"type":"Point","coordinates":[112.3,-7.2]}},{"type":"Feature","properties":{"Line":"S124","Sp":"2720.5","X":"641300.5","Y":"9207425.3","NAMOBJ":"Bakalrejo","WADMKC":"Sugio","WADMKK":"Lamongan"},"geometry":{"type":"Point","coordinates":[112.3,-7.2]}},{"type":"Feature","properties":{"Line":"S124","Sp":"2724.5","X":"641300.5","Y":"9207375.3","NAMOBJ":"Bakalrejo","WADMKC":"Sugio","WADMKK":"Lamongan"},"geometry":{"type":"Point","coordinates":[112.3,-7.2]}},{"type":"Feature","properties":{"Line":"S124","Sp":"2728.5","X":"641300.5","Y":"9207325.3","NAMOBJ":"Bakalrejo","WADMKC":"Sugio","WADMKK":"Lamongan"},"geometry":{"type":"Point","coordinates":[112.3,-7.2]}},{"type":"Feature","properties":{"Line":"S124","Sp":"2732.5","X":"641300.5","Y":"9207275.3","NAMOBJ":"Bakalrejo","WADMKC":"Sugio","WADMKK":"Lamongan"},"geometry":{"type":"Point","coordinates":[112.3,-7.2]}},{"type":"Feature","properties":{"Line":"S124","Sp":"2736.5","X":"641300.5","Y":"9207225.3","NAMOBJ":"Bakalrejo","WADMKC":"Sugio","WADMKK":"Lamongan"},"geometry":{"type":"Point","coordinates":[112.3,-7.2]}},{"type":"Feature","properties":{"Line":"S101","Sp":"2128.5","X":"638325.5","Y":"9208800.3","NAMOBJ":"Bedingin","WADMKC":"Sugio","WADMKK":"Lamongan"},"geometry":{"type":"Point","coordinates":[112.3,-7.2]}},{"type":"Feature","properties":{"Line":"S101","Sp":"2132.5","X":"638375.5","Y":"9208800.3","NAMOBJ":"Bedingin","WADMKC":"Sugio","WADMKK":"Lamongan"},"geometry":{"type":"Point","coordinates":[112.3,-7.2]}},{"type":"Feature","properties":{"Line":"S101","Sp":"2136.5","X":"638425.5","Y":"9208800.3","NAMOBJ":"Bedingin","WADMKC":"Sugio","WADMKK":"Lamongan"},"geometry":{"type":"Point","coordinates":[112.3,-7.2]}},{"type":"Feature","properties":{"Line":"S118","Sp":"2472.5","X":"638300.5","Y":"9209475.3","NAMOBJ":"Bedingin","WADMKC":"Sugio","WADMKK":"Lamongan"},"geometry":{"type":"Point","coordinates":[112.3,-7.2]}},{"type":"Feature","properties":{"Line":"S118","Sp":"2508.5","X":"638300.5","Y":"9209025.3","NAMOBJ":"Bedingin","WADMKC":"Sugio","WADMKK":"Lamongan"},"geometry":{"type":"Point","coordinates":[112.3,-7.2]}},{"type":"Feature","properties":{"Line":"S118","Sp":"2512.5","X":"638300.5","Y":"9208975.3","NAMOBJ":"Bedingin","WADMKC":"Sugio","WADMKK":"Lamongan"},"geometry":{"type":"Point","coordinates":[112.3,-7.2]}},{"type":"Feature","properties":{"Line":"S118","Sp":"2516.5","X":"638300.5","Y":"9208925.3","NAMOBJ":"Bedingin","WADMKC":"Sugio","WADMKK":"Lamongan"},"geometry":{"type":"Point","coordinates":[112.3,-7.2]}},{"type":"Feature","properties":{"Line":"S118","Sp":"2520.5","X":"638300.5","Y":"9208875.3","NAMOBJ":"Bedingin","WADMKC":"Sugio","WADMKK":"Lamongan"},"geometry":{"type":"Point","coordinates":[112.3,-7.2]}},{"type":"Feature","properties":{"Line":"S118","Sp":"2524.5","X":"638300.5","Y":"9208825.3","NAMOBJ":"Bedingin","WADMKC":"Sugio","WADMKK":"Lamongan"},"geometry":{"type":"Point","coordinates":[112.3,-7.2]}},{"type":"Feature","properties":{"Line":"S118","Sp":"2528.5","X":"638300.5","Y":"9208775.3","NAMOBJ":"Bedingin","WADMKC":"Sugio","WADMKK":"Lamongan"},"geometry":{"type":"Point","coordinates":[112.3,-7.2]}},{"type":"Feature","properties":{"Line":"S118","Sp":"2532.5","X":"638300.5","Y":"9208725.3","NAMOBJ":"Bedingin","WADMKC":"Sugio","WADMKK":"Lamongan"},"geometry":{"type":"Point","coordinates":[112.3,-7.2]}},{"type":"Feature","properties":{"Line":"S120","Sp":"2668.5","X":"639300.5","Y":"9206975.3","NAMOBJ":"Karangsambigalih","WADMKC":"Sugio","WADMKK":"Lamongan"},"geometry":{"type":"Point","coordinates":[112.3,-7.2]}},{"type":"Feature","properties":{"Line":"S120","Sp":"2672.5","X":"639300.5","Y":"9206925.3","NAMOBJ":"Karangsambigalih","WADMKC":"Sugio","WADMKK":"Lamongan"},"geometry":{"type":"Point","coordinates":[112.3,-7.2]}},{"type":"Feature","properties":{"Line":"S120","Sp":"2676.5","X":"639300.5","Y":"9206875.3","NAMOBJ":"Karangsambigalih","WADMKC":"Sugio","WADMKK":"Lamongan"},"geometry":{"type":"Point","coordinates":[112.3,-7.2]}},{"type":"Feature","properties":{"Line":"S120","Sp":"2680.5","X":"639300.5","Y":"9206825.3","NAMOBJ":"Karangsambigalih","WADMKC":"Sugio","WADMKK":"Lamongan"},"geometry":{"type":"Point","coordinates":[112.3,-7.2]}},{"type":"Feature","properties":{"Line":"S120","Sp":"2684.5","X":"639300.5","Y":"9206775.3","NAMOBJ":"Karangsambigalih","WADMKC":"Sugio","WADMKK":"Lamongan"},"geometry":{"type":"Point","coordinates":[112.3,-7.2]}},{"type":"Feature","properties":{"Line":"S120","Sp":"2688.5","X":"639300.5","Y":"9206725.3","NAMOBJ":"Karangsambigalih","WADMKC":"Sugio","WADMKK":"Lamongan"},"geometry":{"type":"Point","coordinates":[112.3,-7.2]}},{"type":"Feature","properties":{"Line":"S120","Sp":"2692.5","X":"639300.5","Y":"9206675.3","NAMOBJ":"Karangsambigalih","WADMKC":"Sugio","WADMKK":"Lamongan"},"geometry":{"type":"Point","coordinates":[112.3,-7.2]}},{"type":"Feature","properties":{"Line":"S120","Sp":"2696.5","X":"639300.5","Y":"9206625.3","NAMOBJ":"Karangsambigalih","WADMKC":"Sugio","WADMKK":"Lamongan"},"geometry":{"type":"Point","coordinates":[112.3,-7.2]}},{"type":"Feature","properties":{"Line":"S120","Sp":"2700.5","X":"639300.5","Y":"9206575.3","NAMOBJ":"Karangsambigalih","WADMKC":"Sugio","WADMKK":"Lamongan"},"geometry":{"type":"Point","coordinates":[112.3,-7.2]}},{"type":"Feature","properties":{"Line":"S120","Sp":"2704.5","X":"639300.5","Y":"9206525.3","NAMOBJ":"Karangsambigalih","WADMKC":"Sugio","WADMKK":"Lamongan"},"geometry":{"type":"Point","coordinates":[112.3,-7.2]}},{"type":"Feature","properties":{"Line":"S120","Sp":"2708.5","X":"639300.5","Y":"9206475.3","NAMOBJ":"Karangsambigalih","WADMKC":"Sugio","WADMKK":"Lamongan"},"geometry":{"type":"Point","coordinates":[112.3,-7.2]}},{"type":"Feature","properties":{"Line":"S124","Sp":"2624.5","X":"641300.5","Y":"9208625.3","NAMOBJ":"Karangsambigalih","WADMKC":"Sugio","WADMKK":"Lamongan"},"geometry":{"type":"Point","coordinates":[112.3,-7.2]}},{"type":"Feature","properties":{"Line":"S124","Sp":"2628.5","X":"641300.5","Y":"9208575.3","NAMOBJ":"Karangsambigalih","WADMKC":"Sugio","WADMKK":"Lamongan"},"geometry":{"type":"Point","coordinates":[112.3,-7.2]}},{"type":"Feature","properties":{"Line":"S124","Sp":"2632.5","X":"641300.5","Y":"9208525.3","NAMOBJ":"Karangsambigalih","WADMKC":"Sugio","WADMKK":"Lamongan"},"geometry":{"type":"Point","coordinates":[112.3,-7.2]}},{"type":"Feature","properties":{"Line":"S124","Sp":"2636.5","X":"641300.5","Y":"9208475.3","NAMOBJ":"Karangsambigalih","WADMKC":"Sugio","WADMKK":"Lamongan"},"geometry":{"type":"Point","coordinates":[112.3,-7.2]}},{"type":"Feature","properties":{"Line":"S124","Sp":"2640.5","X":"641300.5","Y":"9208425.3","NAMOBJ":"Karangsambigalih","WADMKC":"Sugio","WADMKK":"Lamongan"},"geometry":{"type":"Point","coordinates":[112.3,-7.2]}},{"type":"Feature","properties":{"Line":"S124","Sp":"2644.5","X":"641300.5","Y":"9208375.3","NAMOBJ":"Karangsambigalih","WADMKC":"Sugio","WADMKK":"Lamongan"},"geometry":{"type":"Point","coordinates":[112.3,-7.2]}},{"type":"Feature","properties":{"Line":"S124","Sp":"2652.5","X":"641300.5","Y":"9208275.3","NAMOBJ":"Karangsambigalih","WADMKC":"Sugio","WADMKK":"Lamongan"},"geometry":{"type":"Point","coordinates":[112.3,-7.2]}},{"type":"Feature","properties":{"Line":"S124","Sp":"2656.5","X":"641300.5","Y":"9208225.3","NAMOBJ":"Karangsambigalih","WADMKC":"Sugio","WADMKK":"Lamongan"},"geometry":{"type":"Point","coordinates":[112.3,-7.2]}},{"type":"Feature","properties":{"Line":"S118","Sp":"2612.5","X":"638300.5","Y":"9207725.3","NAMOBJ":"Kedungbanjar","WADMKC":"Sugio","WADMKK":"Lamongan"},"geometry":{"type":"Point","coordinates":[112.3,-7.2]}},{"type":"Feature","properties":{"Line":"S118","Sp":"2616.5","X":"638300.5","Y":"9207675.3","NAMOBJ":"Kedungbanjar","WADMKC":"Sugio","WADMKK":"Lamongan"},"geometry":{"type":"Point","coordinates":[112.3,-7.2]}},{"type":"Feature","properties":{"Line":"S118","Sp":"2620.5","X":"638300.5","Y":"9207625.3","NAMOBJ":"Kedungbanjar","WADMKC":"Sugio","WADMKK":"Lamongan"},"geometry":{"type":"Point","coordinates":[112.3,-7.2]}},{"type":"Feature","properties":{"Line":"S118","Sp":"2624.5","X":"638300.5","Y":"9207575.3","NAMOBJ":"Kedungbanjar","WADMKC":"Sugio","WADMKK":"Lamongan"},"geometry":{"type":"Point","coordinates":[112.3,-7.2]}},{"type":"Feature","properties":{"Line":"S118","Sp":"2628.5","X":"638300.5","Y":"9207525.3","NAMOBJ":"Kedungbanjar","WADMKC":"Sugio","WADMKK":"Lamongan"},"geometry":{"type":"Point","coordinates":[112.3,-7.2]}},{"type":"Feature","properties":{"Line":"S118","Sp":"2632.5","X":"638300.5","Y":"9207475.3","NAMOBJ":"Kedungbanjar","WADMKC":"Sugio","WADMKK":"Lamongan"},"geometry":{"type":"Point","coordinates":[112.3,-7.2]}},{"type":"Feature","properties":{"Line":"S118","Sp":"2636.5","X":"638300.5","Y":"9207425.3","NAMOBJ":"Kedungbanjar","WADMKC":"Sugio","WADMKK":"Lamongan"},"geometry":{"type":"Point","coordinates":[112.3,-7.2]}},{"type":"Feature","properties":{"Line":"S118","Sp":"2640.5","X":"638300.5","Y":"9207375.3","NAMOBJ":"Kedungbanjar","WADMKC":"Sugio","WADMKK":"Lamongan"},"geometry":{"type":"Point","coordinates":[112.3,-7.2]}},{"type":"Feature","properties":{"Line":"S118","Sp":"2644.5","X":"638300.5","Y":"9207325.3","NAMOBJ":"Kedungbanjar","WADMKC":"Sugio","WADMKK":"Lamongan"},"geometry":{"type":"Point","coordinates":[112.3,-7.2]}},{"type":"Feature","properties":{"Line":"S118","Sp":"2648.5","X":"638300.5","Y":"9207275.3","NAMOBJ":"Kedungbanjar","WADMKC":"Sugio","WADMKK":"Lamongan"},"geometry":{"type":"Point","coordinates":[112.3,-7.2]}},{"type":"Feature","properties":{"Line":"S118","Sp":"2652.5","X":"638300.5","Y":"9207225.3","NAMOBJ":"Kedungbanjar","WADMKC":"Sugio","WADMKK":"Lamongan"},"geometry":{"type":"Point","coordinates":[112.3,-7.2]}},{"type":"Feature","properties":{"Line":"S118","Sp":"2656.5","X":"638300.5","Y":"9207175.3","NAMOBJ":"Kedungbanjar","WADMKC":"Sugio","WADMKK":"Lamongan"},"geometry":{"type":"Point","coordinates":[112.3,-7.2]}},{"type":"Feature","properties":{"Line":"S118","Sp":"2660.5","X":"638300.5","Y":"9207125.3","NAMOBJ":"Kedungbanjar","WADMKC":"Sugio","WADMKK":"Lamongan"},"geometry":{"type":"Point","coordinates":[112.3,-7.2]}},{"type":"Feature","properties":{"Line":"S118","Sp":"2664.5","X":"638300.5","Y":"9207075.3","NAMOBJ":"Kedungbanjar","WADMKC":"Sugio","WADMKK":"Lamongan"},"geometry":{"type":"Point","coordinates":[112.3,-7.2]}},{"type":"Feature","properties":{"Line":"S118","Sp":"2668.5","X":"638300.5","Y":"9207025.3","NAMOBJ":"Kedungbanjar","WADMKC":"Sugio","WADMKK":"Lamongan"},"geometry":{"type":"Point","coordinates":[112.3,-7.2]}},{"type":"Feature","properties":{"Line":"S118","Sp":"2672.5","X":"638300.5","Y":"9206975.3","NAMOBJ":"Kedungbanjar","WADMKC":"Sugio","WADMKK":"Lamongan"},"geometry":{"type":"Point","coordinates":[112.3,-7.2]}},{"type":"Feature","properties":{"Line":"S118","Sp":"2676.5","X":"638300.5","Y":"9206925.3","NAMOBJ":"Kedungbanjar","WADMKC":"Sugio","WADMKK":"Lamongan"},"geometry":{"type":"Point","coordinates":[112.3,-7.2]}},{"type":"Feature","properties":{"Line":"S118","Sp":"2680.5","X":"638300.5","Y":"9206875.3","NAMOBJ":"Kedungbanjar","WADMKC":"Sugio","WADMKK":"Lamongan"},"geometry":{"type":"Point","coordinates":[112.3,-7.2]}},{"type":"Feature","properties":{"Line":"S118","Sp":"2684.5","X":"638300.5","Y":"9206825.3","NAMOBJ":"Kedungbanjar","WADMKC":"Sugio","WADMKK":"Lamongan"},"geometry":{"type":"Point","coordinates":[112.3,-7.2]}},{"type":"Feature","properties":{"Line":"S118","Sp":"2688.5","X":"638300.5","Y":"9206775.3","NAMOBJ":"Kedungbanjar","WADMKC":"Sugio","WADMKK":"Lamongan"},"geometry":{"type":"Point","coordinates":[112.3,-7.2]}},{"type":"Feature","properties":{"Line":"S118","Sp":"2692.5","X":"638300.5","Y":"9206725.3","NAMOBJ":"Kedungbanjar","WADMKC":"Sugio","WADMKK":"Lamongan"},"geometry":{"type":"Point","coordinates":[112.3,-7.2]}},{"type":"Feature","properties":{"Line":"S118","Sp":"2696.5","X":"638300.5","Y":"9206675.3","NAMOBJ":"Kedungbanjar","WADMKC":"Sugio","WADMKK":"Lamongan"},"geometry":{"type":"Point","coordinates":[112.3,-7.2]}},{"type":"Feature","properties":{"Line":"S118","Sp":"2700.5","X":"638300.5","Y":"9206625.3","NAMOBJ":"Kedungbanjar","WADMKC":"Sugio","WADMKK":"Lamongan"},"geometry":{"type":"Point","coordinates":[112.3,-7.2]}},{"type":"Feature","properties":{"Line":"S118","Sp":"2704.5","X":"638300.5","Y":"9206575.3","NAMOBJ":"Kedungbanjar","WADMKC":"Sugio","WADMKK":"Lamongan"},"geometry":{"type":"Point","coordinates":[112.3,-7.2]}},{"type":"Feature","properties":{"Line":"S101","Sp":"2108.5","X":"638075.5","Y":"9208800.3","NAMOBJ":"Kedungdadi","WADMKC":"Sugio","WADMKK":"Lamongan"},"geometry":{"type":"Point","coordinates":[112.3,-7.2]}},{"type":"Feature","properties":{"Line":"S101","Sp":"2112.5","X":"638125.5","Y":"9208800.3","NAMOBJ":"Kedungdadi","WADMKC":"Sugio","WADMKK":"Lamongan"},"geometry":{"type":"Point","coordinates":[112.3,-7.2]}},{"type":"Feature","properties":{"Line":"S101","Sp":"2116.5","X":"638175.5","Y":"9208800.3","NAMOBJ":"Kedungdadi","WADMKC":"Sugio","WADMKK":"Lamongan"},"geometry":{"type":"Point","coordinates":[112.3,-7.2]}},{"type":"Feature","properties":{"Line":"S101","Sp":"2120.5","X":"638225.5","Y":"9208800.3","NAMOBJ":"Kedungdadi","WADMKC":"Sugio","WADMKK":"Lamongan"},"geometry":{"type":"Point","coordinates":[112.3,-7.2]}},{"type":"Feature","properties":{"Line":"S101","Sp":"2124.5","X":"638275.5","Y":"9208800.3","NAMOBJ":"Kedungdadi","WADMKC":"Sugio","WADMKK":"Lamongan"},"geometry":{"type":"Point","coordinates":[112.3,-7.2]}},{"type":"Feature","properties":{"Line":"S118","Sp":"2484.5","X":"638300.5","Y":"9209325.3","NAMOBJ":"Kedungdadi","WADMKC":"Sugio","WADMKK":"Lamongan"},"geometry":{"type":"Point","coordinates":[112.3,-7.2]}},{"type":"Feature","properties":{"Line":"S118","Sp":"2488.5","X":"638300.5","Y":"9209275.3","NAMOBJ":"Kedungdadi","WADMKC":"Sugio","WADMKK":"Lamongan"},"geometry":{"type":"Point","coordinates":[112.3,-7.2]}},{"type":"Feature","properties":{"Line":"S118","Sp":"2492.5","X":"638300.5","Y":"9209225.3","NAMOBJ":"Kedungdadi","WADMKC":"Sugio","WADMKK":"Lamongan"},"geometry":{"type":"Point","coordinates":[112.3,-7.2]}},{"type":"Feature","properties":{"Line":"S118","Sp":"2496.5","X":"638300.5","Y":"9209175.3","NAMOBJ":"Kedungdadi","WADMKC":"Sugio","WADMKK":"Lamongan"},"geometry":{"type":"Point","coordinates":[112.3,-7.2]}},{"type":"Feature","properties":{"Line":"S118","Sp":"2500.5","X":"638300.5","Y":"9209125.3","NAMOBJ":"Kedungdadi","WADMKC":"Sugio","WADMKK":"Lamongan"},"geometry":{"type":"Point","coordinates":[112.3,-7.2]}},{"type":"Feature","properties":{"Line":"S118","Sp":"2504.5","X":"638300.5","Y":"9209075.3","NAMOBJ":"Kedungdadi","WADMKC":"Sugio","WADMKK":"Lamongan"},"geometry":{"type":"Point","coordinates":[112.3,-7.2]}},{"type":"Feature","properties":{"Line":"S101","Sp":"2296.5","X":"640425.5","Y":"9208800.3","NAMOBJ":"Lebakadi","WADMKC":"Sugio","WADMKK":"Lamongan"},"geometry":{"type":"Point","coordinates":[112.3,-7.2]}},{"type":"Feature","properties":{"Line":"S101","Sp":"2300.5","X":"640475.5","Y":"9208800.3","NAMOBJ":"Lebakadi","WADMKC":"Sugio","WADMKK":"Lamongan"},"geometry":{"type":"Point","coordinates":[112.3,-7.2]}},{"type":"Feature","properties":{"Line":"S101","Sp":"2304.5","X":"640525.5","Y":"9208800.3","NAMOBJ":"Lebakadi","WADMKC":"Sugio","WADMKK":"Lamongan"},"geometry":{"type":"Point","coordinates":[112.3,-7.2]}},{"type":"Feature","properties":{"Line":"S101","Sp":"2308.5","X":"640575.5","Y":"9208800.3","NAMOBJ":"Lebakadi","WADMKC":"Sugio","WADMKK":"Lamongan"},"geometry":{"type":"Point","coordinates":[112.3,-7.2]}},{"type":"Feature","properties":{"Line":"S101","Sp":"2312.5","X":"640625.5","Y":"9208800.3","NAMOBJ":"Lebakadi","WADMKC":"Sugio","WADMKK":"Lamongan"},"geometry":{"type":"Point","coordinates":[112.3,-7.2]}},{"type":"Feature","properties":{"Line":"S101","Sp":"2316.5","X":"640675.5","Y":"9208800.3","NAMOBJ":"Lebakadi","WADMKC":"Sugio","WADMKK":"Lamongan"},"geometry":{"type":"Point","coordinates":[112.3,-7.2]}},{"type":"Feature","properties":{"Line":"S101","Sp":"2320.5","X":"640725.5","Y":"9208800.3","NAMOBJ":"Lebakadi","WADMKC":"Sugio","WADMKK":"Lamongan"},"geometry":{"type":"Point","coordinates":[112.3,-7.2]}},{"type":"Feature","properties":{"Line":"S101","Sp":"2324.5","X":"640775.5","Y":"9208800.3","NAMOBJ":"Lebakadi","WADMKC":"Sugio","WADMKK":"Lamongan"},"geometry":{"type":"Point","coordinates":[112.3,-7.2]}},{"type":"Feature","properties":{"Line":"S101","Sp":"2328.5","X":"640825.5","Y":"9208800.3","NAMOBJ":"Lebakadi","WADMKC":"Sugio","WADMKK":"Lamongan"},"geometry":{"type":"Point","coordinates":[112.3,-7.2]}},{"type":"Feature","properties":{"Line":"S101","Sp":"2332.5","X":"640875.5","Y":"9208800.3","NAMOBJ":"Lebakadi","WADMKC":"Sugio","WADMKK":"Lamongan"},"geometry":{"type":"Point","coordinates":[112.3,-7.2]}},{"type":"Feature","properties":{"Line":"S101","Sp":"2336.5","X":"640925.5","Y":"9208800.3","NAMOBJ":"Lebakadi","WADMKC":"Sugio","WADMKK":"Lamongan"},"geometry":{"type":"Point","coordinates":[112.3,-7.2]}},{"type":"Feature","properties":{"Line":"S101","Sp":"2340.5","X":"640975.5","Y":"9208800.3","NAMOBJ":"Lebakadi","WADMKC":"Sugio","WADMKK":"Lamongan"},"geometry":{"type":"Point","coordinates":[112.3,-7.2]}},{"type":"Feature","properties":{"Line":"S101","Sp":"2344.5","X":"641025.5","Y":"9208800.3","NAMOBJ":"Lebakadi","WADMKC":"Sugio","WADMKK":"Lamongan"},"geometry":{"type":"Point","coordinates":[112.3,-7.2]}},{"type":"Feature","properties":{"Line":"S101","Sp":"2348.5","X":"641075.5","Y":"9208800.3","NAMOBJ":"Lebakadi","WADMKC":"Sugio","WADMKK":"Lamongan"},"geometry":{"type":"Point","coordinates":[112.3,-7.2]}},{"type":"Feature","properties":{"Line":"S101","Sp":"2352.5","X":"641125.5","Y":"9208800.3","NAMOBJ":"Lebakadi","WADMKC":"Sugio","WADMKK":"Lamongan"},"geometry":{"type":"Point","coordinates":[112.3,-7.2]}},{"type":"Feature","properties":{"Line":"S101","Sp":"2356.5","X":"641175.5","Y":"9208800.3","NAMOBJ":"Lebakadi","WADMKC":"Sugio","WADMKK":"Lamongan"},"geometry":{"type":"Point","coordinates":[112.3,-7.2]}},{"type":"Feature","properties":{"Line":"S101","Sp":"2360.5","X":"641225.5","Y":"9208800.3","NAMOBJ":"Lebakadi","WADMKC":"Sugio","WADMKK":"Lamongan"},"geometry":{"type":"Point","coordinates":[112.3,-7.2]}},{"type":"Feature","properties":{"Line":"S101","Sp":"2364.5","X":"641275.5","Y":"9208800.3","NAMOBJ":"Lebakadi","WADMKC":"Sugio","WADMKK":"Lamongan"},"geometry":{"type":"Point","coordinates":[112.3,-7.2]}},{"type":"Feature","properties":{"Line":"S101","Sp":"2368.5","X":"641325.5","Y":"9208800.3","NAMOBJ":"Lebakadi","WADMKC":"Sugio","WADMKK":"Lamongan"},"geometry":{"type":"Point","coordinates":[112.3,-7.2]}},{"type":"Feature","properties":{"Line":"S101","Sp":"2372.5","X":"641375.5","Y":"9208800.3","NAMOBJ":"Lebakadi","WADMKC":"Sugio","WADMKK":"Lamongan"},"geometry":{"type":"Point","coordinates":[112.3,-7.2]}},{"type":"Feature","properties":{"Line":"S122","Sp":"2512.5","X":"640300.5","Y":"9209475.3","NAMOBJ":"Lebakadi","WADMKC":"Sugio","WADMKK":"Lamongan"},"geometry":{"type":"Point","coordinates":[112.3,-7.2]}},{"type":"Feature","properties":{"Line":"S122","Sp":"2516.5","X":"640300.5","Y":"9209425.3","NAMOBJ":"Lebakadi","WADMKC":"Sugio","WADMKK":"Lamongan"},"geometry":{"type":"Point","coordinates":[112.3,-7.2]}},{"type":"Feature","properties":{"Line":"S122","Sp":"2520.5","X":"640300.5","Y":"9209375.3","NAMOBJ":"Lebakadi","WADMKC":"Sugio","WADMKK":"Lamongan"},"geometry":{"type":"Point","coordinates":[112.3,-7.2]}},{"type":"Feature","properties":{"Line":"S122","Sp":"2524.5","X":"640300.5","Y":"9209325.3","NAMOBJ":"Lebakadi","WADMKC":"Sugio","WADMKK":"Lamongan"},"geometry":{"type":"Point","coordinates":[112.3,-7.2]}},{"type":"Feature","properties":{"Line":"S124","Sp":"2560.5","X":"641300.5","Y":"9209425.3","NAMOBJ":"Lebakadi","WADMKC":"Sugio","WADMKK":"Lamongan"},"geometry":{"type":"Point","coordinates":[112.3,-7.2]}},{"type":"Feature","properties":{"Line":"S124","Sp":"2564.5","X":"641300.5","Y":"9209375.3","NAMOBJ":"Lebakadi","WADMKC":"Sugio","WADMKK":"Lamongan"},"geometry":{"type":"Point","coordinates":[112.3,-7.2]}},{"type":"Feature","properties":{"Line":"S124","Sp":"2568.5","X":"641300.5","Y":"9209325.3","NAMOBJ":"Lebakadi","WADMKC":"Sugio","WADMKK":"Lamongan"},"geometry":{"type":"Point","coordinates":[112.3,-7.2]}},{"type":"Feature","properties":{"Line":"S124","Sp":"2572.5","X":"641300.5","Y":"9209275.3","NAMOBJ":"Lebakadi","WADMKC":"Sugio","WADMKK":"Lamongan"},"geometry":{"type":"Point","coordinates":[112.3,-7.2]}},{"type":"Feature","properties":{"Line":"S124","Sp":"2576.5","X":"641300.5","Y":"9209225.3","NAMOBJ":"Lebakadi","WADMKC":"Sugio","WADMKK":"Lamongan"},"geometry":{"type":"Point","coordinates":[112.3,-7.2]}},{"type":"Feature","properties":{"Line":"S124","Sp":"2580.5","X":"641300.5","Y":"9209175.3","NAMOBJ":"Lebakadi","WADMKC":"Sugio","WADMKK":"Lamongan"},"geometry":{"type":"Point","coordinates":[112.3,-7.2]}},{"type":"Feature","properties":{"Line":"S124","Sp":"2584.5","X":"641300.5","Y":"9209125.3","NAMOBJ":"Lebakadi","WADMKC":"Sugio","WADMKK":"Lamongan"},"geometry":{"type":"Point","coordinates":[112.3,-7.2]}},{"type":"Feature","properties":{"Line":"S124","Sp":"2588.5","X":"641300.5","Y":"9209075.3","NAMOBJ":"Lebakadi","WADMKC":"Sugio","WADMKK":"Lamongan"},"geometry":{"type":"Point","coordinates":[112.3,-7.2]}},{"type":"Feature","properties":{"Line":"S124","Sp":"2592.5","X":"641300.5","Y":"9209025.3","NAMOBJ":"Lebakadi","WADMKC":"Sugio","WADMKK":"Lamongan"},"geometry":{"type":"Point","coordinates":[112.3,-7.2]}},{"type":"Feature","properties":{"Line":"S124","Sp":"2596.5","X":"641300.5","Y":"9208975.3","NAMOBJ":"Lebakadi","WADMKC":"Sugio","WADMKK":"Lamongan"},"geometry":{"type":"Point","coordinates":[112.3,-7.2]}},{"type":"Feature","properties":{"Line":"S124","Sp":"2600.5","X":"641300.5","Y":"9208925.3","NAMOBJ":"Lebakadi","WADMKC":"Sugio","WADMKK":"Lamongan"},"geometry":{"type":"Point","coordinates":[112.3,-7.2]}},{"type":"Feature","properties":{"Line":"S124","Sp":"2604.5","X":"641300.5","Y":"9208875.3","NAMOBJ":"Lebakadi","WADMKC":"Sugio","WADMKK":"Lamongan"},"geometry":{"type":"Point","coordinates":[112.3,-7.2]}},{"type":"Feature","properties":{"Line":"S124","Sp":"2608.5","X":"641300.5","Y":"9208825.3","NAMOBJ":"Lebakadi","WADMKC":"Sugio","WADMKK":"Lamongan"},"geometry":{"type":"Point","coordinates":[112.3,-7.2]}},{"type":"Feature","properties":{"Line":"S124","Sp":"2612.5","X":"641300.5","Y":"9208775.3","NAMOBJ":"Lebakadi","WADMKC":"Sugio","WADMKK":"Lamongan"},"geometry":{"type":"Point","coordinates":[112.3,-7.2]}},{"type":"Feature","properties":{"Line":"S124","Sp":"2616.5","X":"641300.5","Y":"9208725.3","NAMOBJ":"Lebakadi","WADMKC":"Sugio","WADMKK":"Lamongan"},"geometry":{"type":"Point","coordinates":[112.3,-7.2]}},{"type":"Feature","properties":{"Line":"S124","Sp":"2620.5","X":"641300.5","Y":"9208675.3","NAMOBJ":"Lebakadi","WADMKC":"Sugio","WADMKK":"Lamongan"},"geometry":{"type":"Point","coordinates":[112.3,-7.2]}},{"type":"Feature","properties":{"Line":"S101","Sp":"2140.5","X":"638475.5","Y":"9208800.3","NAMOBJ":"Pangkatrejo","WADMKC":"Sugio","WADMKK":"Lamongan"},"geometry":{"type":"Point","coordinates":[112.3,-7.2]}},{"type":"Feature","properties":{"Line":"S101","Sp":"2144.5","X":"638525.5","Y":"9208800.3","NAMOBJ":"Pangkatrejo","WADMKC":"Sugio","WADMKK":"Lamongan"},"geometry":{"type":"Point","coordinates":[112.3,-7.2]}},{"type":"Feature","properties":{"Line":"S101","Sp":"2148.5","X":"638575.5","Y":"9208800.3","NAMOBJ":"Pangkatrejo","WADMKC":"Sugio","WADMKK":"Lamongan"},"geometry":{"type":"Point","coordinates":[112.3,-7.2]}},{"type":"Feature","properties":{"Line":"S101","Sp":"2152.5","X":"638625.5","Y":"9208800.3","NAMOBJ":"Pangkatrejo","WADMKC":"Sugio","WADMKK":"Lamongan"},"geometry":{"type":"Point","coordinates":[112.3,-7.2]}},{"type":"Feature","properties":{"Line":"S101","Sp":"2156.5","X":"638675.5","Y":"9208800.3","NAMOBJ":"Pangkatrejo","WADMKC":"Sugio","WADMKK":"Lamongan"},"geometry":{"type":"Point","coordinates":[112.3,-7.2]}},{"type":"Feature","properties":{"Line":"S101","Sp":"2160.5","X":"638725.5","Y":"9208800.3","NAMOBJ":"Pangkatrejo","WADMKC":"Sugio","WADMKK":"Lamongan"},"geometry":{"type":"Point","coordinates":[112.3,-7.2]}},{"type":"Feature","properties":{"Line":"S101","Sp":"2164.5","X":"638775.5","Y":"9208800.3","NAMOBJ":"Pangkatrejo","WADMKC":"Sugio","WADMKK":"Lamongan"},"geometry":{"type":"Point","coordinates":[112.3,-7.2]}},{"type":"Feature","properties":{"Line":"S101","Sp":"2168.5","X":"638825.5","Y":"9208800.3","NAMOBJ":"Pangkatrejo","WADMKC":"Sugio","WADMKK":"Lamongan"},"geometry":{"type":"Point","coordinates":[112.3,-7.2]}},{"type":"Feature","properties":{"Line":"S101","Sp":"2172.5","X":"638875.5","Y":"9208800.3","NAMOBJ":"Pangkatrejo","WADMKC":"Sugio","WADMKK":"Lamongan"},"geometry":{"type":"Point","coordinates":[112.3,-7.2]}},{"type":"Feature","properties":{"Line":"S101","Sp":"2176.5","X":"638925.5","Y":"9208800.3","NAMOBJ":"Pangkatrejo","WADMKC":"Sugio","WADMKK":"Lamongan"},"geometry":{"type":"Point","coordinates":[112.3,-7.2]}},{"type":"Feature","properties":{"Line":"S101","Sp":"2180.5","X":"638975.5","Y":"9208800.3","NAMOBJ":"Pangkatrejo","WADMKC":"Sugio","WADMKK":"Lamongan"},"geometry":{"type":"Point","coordinates":[112.3,-7.2]}},{"type":"Feature","properties":{"Line":"S101","Sp":"2184.5","X":"639025.5","Y":"9208800.3","NAMOBJ":"Pangkatrejo","WADMKC":"Sugio","WADMKK":"Lamongan"},"geometry":{"type":"Point","coordinates":[112.3,-7.2]}},{"type":"Feature","properties":{"Line":"S101","Sp":"2188.5","X":"639075.5","Y":"9208800.3","NAMOBJ":"Pangkatrejo","WADMKC":"Sugio","WADMKK":"Lamongan"},"geometry":{"type":"Point","coordinates":[112.3,-7.2]}},{"type":"Feature","properties":{"Line":"S101","Sp":"2192.5","X":"639125.5","Y":"9208800.3","NAMOBJ":"Pangkatrejo","WADMKC":"Sugio","WADMKK":"Lamongan"},"geometry":{"type":"Point","coordinates":[112.3,-7.2]}},{"type":"Feature","properties":{"Line":"S101","Sp":"2196.5","X":"639175.5","Y":"9208800.3","NAMOBJ":"Pangkatrejo","WADMKC":"Sugio","WADMKK":"Lamongan"},"geometry":{"type":"Point","coordinates":[112.3,-7.2]}},{"type":"Feature","properties":{"Line":"S101","Sp":"2200.5","X":"639225.5","Y":"9208800.3","NAMOBJ":"Pangkatrejo","WADMKC":"Sugio","WADMKK":"Lamongan"},"geometry":{"type":"Point","coordinates":[112.3,-7.2]}},{"type":"Feature","properties":{"Line":"S101","Sp":"2204.5","X":"639275.5","Y":"9208800.3","NAMOBJ":"Pangkatrejo","WADMKC":"Sugio","WADMKK":"Lamongan"},"geometry":{"type":"Point","coordinates":[112.3,-7.2]}},{"type":"Feature","properties":{"Line":"S101","Sp":"2208.5","X":"639325.5","Y":"9208800.3","NAMOBJ":"Pangkatrejo","WADMKC":"Sugio","WADMKK":"Lamongan"},"geometry":{"type":"Point","coordinates":[112.3,-7.2]}},{"type":"Feature","properties":{"Line":"S101","Sp":"2212.5","X":"639375.5","Y":"9208800.3","NAMOBJ":"Pangkatrejo","WADMKC":"Sugio","WADMKK":"Lamongan"},"geometry":{"type":"Point","coordinates":[112.3,-7.2]}},{"type":"Feature","properties":{"Line":"S101","Sp":"2216.5","X":"639425.5","Y":"9208800.3","NAMOBJ":"Pangkatrejo","WADMKC":"Sugio","WADMKK":"Lamongan"},"geometry":{"type":"Point","coordinates":[112.3,-7.2]}},{"type":"Feature","properties":{"Line":"S101","Sp":"2220.5","X":"639475.5","Y":"9208800.3","NAMOBJ":"Pangkatrejo","WADMKC":"Sugio","WADMKK":"Lamongan"},"geometry":{"type":"Point","coordinates":[112.3,-7.2]}},{"type":"Feature","properties":{"Line":"S101","Sp":"2224.5","X":"639525.5","Y":"9208800.3","NAMOBJ":"Pangkatrejo","WADMKC":"Sugio","WADMKK":"Lamongan"},"geometry":{"type":"Point","coordinates":[112.3,-7.2]}},{"type":"Feature","properties":{"Line":"S101","Sp":"2228.5","X":"639575.5","Y":"9208800.3","NAMOBJ":"Pangkatrejo","WADMKC":"Sugio","WADMKK":"Lamongan"},"geometry":{"type":"Point","coordinates":[112.3,-7.2]}},{"type":"Feature","properties":{"Line":"S101","Sp":"2232.5","X":"639625.5","Y":"9208800.3","NAMOBJ":"Pangkatrejo","WADMKC":"Sugio","WADMKK":"Lamongan"},"geometry":{"type":"Point","coordinates":[112.3,-7.2]}},{"type":"Feature","properties":{"Line":"S101","Sp":"2236.5","X":"639675.5","Y":"9208800.3","NAMOBJ":"Pangkatrejo","WADMKC":"Sugio","WADMKK":"Lamongan"},"geometry":{"type":"Point","coordinates":[112.3,-7.2]}},{"type":"Feature","properties":{"Line":"S101","Sp":"2240.5","X":"639725.5","Y":"9208800.3","NAMOBJ":"Pangkatrejo","WADMKC":"Sugio","WADMKK":"Lamongan"},"geometry":{"type":"Point","coordinates":[112.3,-7.2]}},{"type":"Feature","properties":{"Line":"S101","Sp":"2244.5","X":"639775.5","Y":"9208800.3","NAMOBJ":"Pangkatrejo","WADMKC":"Sugio","WADMKK":"Lamongan"},"geometry":{"type":"Point","coordinates":[112.3,-7.2]}},{"type":"Feature","properties":{"Line":"S101","Sp":"2248.5","X":"639825.5","Y":"9208800.3","NAMOBJ":"Pangkatrejo","WADMKC":"Sugio","WADMKK":"Lamongan"},"geometry":{"type":"Point","coordinates":[112.3,-7.2]}},{"type":"Feature","properties":{"Line":"S101","Sp":"2252.5","X":"639875.5","Y":"9208800.3","NAMOBJ":"Pangkatrejo","WADMKC":"Sugio","WADMKK":"Lamongan"},"geometry":{"type":"Point","coordinates":[112.3,-7.2]}},{"type":"Feature","properties":{"Line":"S101","Sp":"2256.5","X":"639925.5","Y":"9208800.3","NAMOBJ":"Pangkatrejo","WADMKC":"Sugio","WADMKK":"Lamongan"},"geometry":{"type":"Point","coordinates":[112.3,-7.2]}},{"type":"Feature","properties":{"Line":"S101","Sp":"2260.5","X":"639975.5","Y":"9208800.3","NAMOBJ":"Pangkatrejo","WADMKC":"Sugio","WADMKK":"Lamongan"},"geometry":{"type":"Point","coordinates":[112.3,-7.2]}},{"type":"Feature","properties":{"Line":"S101","Sp":"2264.5","X":"640025.5","Y":"9208800.3","NAMOBJ":"Pangkatrejo","WADMKC":"Sugio","WADMKK":"Lamongan"},"geometry":{"type":"Point","coordinates":[112.3,-7.2]}},{"type":"Feature","properties":{"Line":"S101","Sp":"2268.5","X":"640075.5","Y":"9208800.3","NAMOBJ":"Pangkatrejo","WADMKC":"Sugio","WADMKK":"Lamongan"},"geometry":{"type":"Point","coordinates":[112.3,-7.2]}},{"type":"Feature","properties":{"Line":"S101","Sp":"2272.5","X":"640125.5","Y":"9208800.3","NAMOBJ":"Pangkatrejo","WADMKC":"Sugio","WADMKK":"Lamongan"},"geometry":{"type":"Point","coordinates":[112.3,-7.2]}},{"type":"Feature","properties":{"Line":"S101","Sp":"2276.5","X":"640175.5","Y":"9208800.3","NAMOBJ":"Pangkatrejo","WADMKC":"Sugio","WADMKK":"Lamongan"},"geometry":{"type":"Point","coordinates":[112.3,-7.2]}},{"type":"Feature","properties":{"Line":"S101","Sp":"2280.5","X":"640225.5","Y":"9208800.3","NAMOBJ":"Pangkatrejo","WADMKC":"Sugio","WADMKK":"Lamongan"},"geometry":{"type":"Point","coordinates":[112.3,-7.2]}},{"type":"Feature","properties":{"Line":"S101","Sp":"2284.5","X":"640275.5","Y":"9208800.3","NAMOBJ":"Pangkatrejo","WADMKC":"Sugio","WADMKK":"Lamongan"},"geometry":{"type":"Point","coordinates":[112.3,-7.2]}},{"type":"Feature","properties":{"Line":"S101","Sp":"2288.5","X":"640325.5","Y":"9208800.3","NAMOBJ":"Pangkatrejo","WADMKC":"Sugio","WADMKK":"Lamongan"},"geometry":{"type":"Point","coordinates":[112.3,-7.2]}},{"type":"Feature","properties":{"Line":"S101","Sp":"2292.5","X":"640375.5","Y":"9208800.3","NAMOBJ":"Pangkatrejo","WADMKC":"Sugio","WADMKK":"Lamongan"},"geometry":{"type":"Point","coordinates":[112.3,-7.2]}},{"type":"Feature","properties":{"Line":"S118","Sp":"2476.5","X":"638300.5","Y":"9209425.3","NAMOBJ":"Pangkatrejo","WADMKC":"Sugio","WADMKK":"Lamongan"},"geometry":{"type":"Point","coordinates":[112.3,-7.2]}},{"type":"Feature","properties":{"Line":"S118","Sp":"2480.5","X":"638300.5","Y":"9209375.3","NAMOBJ":"Pangkatrejo","WADMKC":"Sugio","WADMKK":"Lamongan"},"geometry":{"type":"Point","coordinates":[112.3,-7.2]}},{"type":"Feature","properties":{"Line":"S118","Sp":"2536.5","X":"638300.5","Y":"9208675.3","NAMOBJ":"Pangkatrejo","WADMKC":"Sugio","WADMKK":"Lamongan"},"geometry":{"type":"Point","coordinates":[112.3,-7.2]}},{"type":"Feature","properties":{"Line":"S118","Sp":"2540.5","X":"638300.5","Y":"9208625.3","NAMOBJ":"Pangkatrejo","WADMKC":"Sugio","WADMKK":"Lamongan"},"geometry":{"type":"Point","coordinates":[112.3,-7.2]}},{"type":"Feature","properties":{"Line":"S118","Sp":"2544.5","X":"638300.5","Y":"9208575.3","NAMOBJ":"Pangkatrejo","WADMKC":"Sugio","WADMKK":"Lamongan"},"geometry":{"type":"Point","coordinates":[112.3,-7.2]}},{"type":"Feature","properties":{"Line":"S118","Sp":"2548.5","X":"638300.5","Y":"9208525.3","NAMOBJ":"Pangkatrejo","WADMKC":"Sugio","WADMKK":"Lamongan"},"geometry":{"type":"Point","coordinates":[112.3,-7.2]}},{"type":"Feature","properties":{"Line":"S118","Sp":"2552.5","X":"638300.5","Y":"9208475.3","NAMOBJ":"Pangkatrejo","WADMKC":"Sugio","WADMKK":"Lamongan"},"geometry":{"type":"Point","coordinates":[112.3,-7.2]}},{"type":"Feature","properties":{"Line":"S118","Sp":"2556.5","X":"638300.5","Y":"9208425.3","NAMOBJ":"Pangkatrejo","WADMKC":"Sugio","WADMKK":"Lamongan"},"geometry":{"type":"Point","coordinates":[112.3,-7.2]}},{"type":"Feature","properties":{"Line":"S118","Sp":"2560.5","X":"638300.5","Y":"9208375.3","NAMOBJ":"Pangkatrejo","WADMKC":"Sugio","WADMKK":"Lamongan"},"geometry":{"type":"Point","coordinates":[112.3,-7.2]}},{"type":"Feature","properties":{"Line":"S118","Sp":"2564.5","X":"638300.5","Y":"9208325.3","NAMOBJ":"Pangkatrejo","WADMKC":"Sugio","WADMKK":"Lamongan"},"geometry":{"type":"Point","coordinates":[112.3,-7.2]}},{"type":"Feature","properties":{"Line":"S118","Sp":"2568.5","X":"638300.5","Y":"9208275.3","NAMOBJ":"Pangkatrejo","WADMKC":"Sugio","WADMKK":"Lamongan"},"geometry":{"type":"Point","coordinates":[112.3,-7.2]}},{"type":"Feature","properties":{"Line":"S118","Sp":"2572.5","X":"638300.5","Y":"9208225.3","NAMOBJ":"Pangkatrejo","WADMKC":"Sugio","WADMKK":"Lamongan"},"geometry":{"type":"Point","coordinates":[112.3,-7.2]}},{"type":"Feature","properties":{"Line":"S120","Sp":"2468.5","X":"639300.5","Y":"9209475.3","NAMOBJ":"Pangkatrejo","WADMKC":"Sugio","WADMKK":"Lamongan"},"geometry":{"type":"Point","coordinates":[112.3,-7.2]}},{"type":"Feature","properties":{"Line":"S120","Sp":"2472.5","X":"639300.5","Y":"9209425.3","NAMOBJ":"Pangkatrejo","WADMKC":"Sugio","WADMKK":"Lamongan"},"geometry":{"type":"Point","coordinates":[112.3,-7.2]}},{"type":"Feature","properties":{"Line":"S120","Sp":"2476.5","X":"639300.5","Y":"9209375.3","NAMOBJ":"Pangkatrejo","WADMKC":"Sugio","WADMKK":"Lamongan"},"geometry":{"type":"Point","coordinates":[112.3,-7.2]}},{"type":"Feature","properties":{"Line":"S120","Sp":"2480.5","X":"639300.5","Y":"9209325.3","NAMOBJ":"Pangkatrejo","WADMKC":"Sugio","WADMKK":"Lamongan"},"geometry":{"type":"Point","coordinates":[112.3,-7.2]}},{"type":"Feature","properties":{"Line":"S120","Sp":"2484.5","X":"639300.5","Y":"9209275.3","NAMOBJ":"Pangkatrejo","WADMKC":"Sugio","WADMKK":"Lamongan"},"geometry":{"type":"Point","coordinates":[112.3,-7.2]}},{"type":"Feature","properties":{"Line":"S120","Sp":"2488.5","X":"639300.5","Y":"9209225.3","NAMOBJ":"Pangkatrejo","WADMKC":"Sugio","WADMKK":"Lamongan"},"geometry":{"type":"Point","coordinates":[112.3,-7.2]}},{"type":"Feature","properties":{"Line":"S120","Sp":"2492.5","X":"639300.5","Y":"9209175.3","NAMOBJ":"Pangkatrejo","WADMKC":"Sugio","WADMKK":"Lamongan"},"geometry":{"type":"Point","coordinates":[112.3,-7.2]}},{"type":"Feature","properties":{"Line":"S120","Sp":"2496.5","X":"639300.5","Y":"9209125.3","NAMOBJ":"Pangkatrejo","WADMKC":"Sugio","WADMKK":"Lamongan"},"geometry":{"type":"Point","coordinates":[112.3,-7.2]}},{"type":"Feature","properties":{"Line":"S120","Sp":"2500.5","X":"639300.5","Y":"9209075.3","NAMOBJ":"Pangkatrejo","WADMKC":"Sugio","WADMKK":"Lamongan"},"geometry":{"type":"Point","coordinates":[112.3,-7.2]}},{"type":"Feature","properties":{"Line":"S120","Sp":"2504.5","X":"639300.5","Y":"9209025.3","NAMOBJ":"Pangkatrejo","WADMKC":"Sugio","WADMKK":"Lamongan"},"geometry":{"type":"Point","coordinates":[112.3,-7.2]}},{"type":"Feature","properties":{"Line":"S120","Sp":"2508.5","X":"639300.5","Y":"9208975.3","NAMOBJ":"Pangkatrejo","WADMKC":"Sugio","WADMKK":"Lamongan"},"geometry":{"type":"Point","coordinates":[112.3,-7.2]}},{"type":"Feature","properties":{"Line":"S120","Sp":"2512.5","X":"639300.5","Y":"9208925.3","NAMOBJ":"Pangkatrejo","WADMKC":"Sugio","WADMKK":"Lamongan"},"geometry":{"type":"Point","coordinates":[112.3,-7.2]}},{"type":"Feature","properties":{"Line":"S120","Sp":"2516.5","X":"639300.5","Y":"9208875.3","NAMOBJ":"Pangkatrejo","WADMKC":"Sugio","WADMKK":"Lamongan"},"geometry":{"type":"Point","coordinates":[112.3,-7.2]}},{"type":"Feature","properties":{"Line":"S120","Sp":"2520.5","X":"639300.5","Y":"9208825.3","NAMOBJ":"Pangkatrejo","WADMKC":"Sugio","WADMKK":"Lamongan"},"geometry":{"type":"Point","coordinates":[112.3,-7.2]}},{"type":"Feature","properties":{"Line":"S120","Sp":"2524.5","X":"639300.5","Y":"9208775.3","NAMOBJ":"Pangkatrejo","WADMKC":"Sugio","WADMKK":"Lamongan"},"geometry":{"type":"Point","coordinates":[112.3,-7.2]}},{"type":"Feature","properties":{"Line":"S120","Sp":"2528.5","X":"639300.5","Y":"9208725.3","NAMOBJ":"Pangkatrejo","WADMKC":"Sugio","WADMKK":"Lamongan"},"geometry":{"type":"Point","coordinates":[112.3,-7.2]}},{"type":"Feature","properties":{"Line":"S120","Sp":"2532.5","X":"639300.5","Y":"9208675.3","NAMOBJ":"Pangkatrejo","WADMKC":"Sugio","WADMKK":"Lamongan"},"geometry":{"type":"Point","coordinates":[112.3,-7.2]}},{"type":"Feature","properties":{"Line":"S120","Sp":"2536.5","X":"639300.5","Y":"9208625.3","NAMOBJ":"Pangkatrejo","WADMKC":"Sugio","WADMKK":"Lamongan"},"geometry":{"type":"Point","coordinates":[112.3,-7.2]}},{"type":"Feature","properties":{"Line":"S120","Sp":"2540.5","X":"639300.5","Y":"9208575.3","NAMOBJ":"Pangkatrejo","WADMKC":"Sugio","WADMKK":"Lamongan"},"geometry":{"type":"Point","coordinates":[112.3,-7.2]}},{"type":"Feature","properties":{"Line":"S120","Sp":"2544.5","X":"639300.5","Y":"9208525.3","NAMOBJ":"Pangkatrejo","WADMKC":"Sugio","WADMKK":"Lamongan"},"geometry":{"type":"Point","coordinates":[112.3,-7.2]}},{"type":"Feature","properties":{"Line":"S120","Sp":"2548.5","X":"639300.5","Y":"9208475.3","NAMOBJ":"Pangkatrejo","WADMKC":"Sugio","WADMKK":"Lamongan"},"geometry":{"type":"Point","coordinates":[112.3,-7.2]}},{"type":"Feature","properties":{"Line":"S120","Sp":"2552.5","X":"639300.5","Y":"9208425.3","NAMOBJ":"Pangkatrejo","WADMKC":"Sugio","WADMKK":"Lamongan"},"geometry":{"type":"Point","coordinates":[112.3,-7.2]}},{"type":"Feature","properties":{"Line":"S120","Sp":"2556.5","X":"639300.5","Y":"9208375.3","NAMOBJ":"Pangkatrejo","WADMKC":"Sugio","WADMKK":"Lamongan"},"geometry":{"type":"Point","coordinates":[112.3,-7.2]}},{"type":"Feature","properties":{"Line":"S120","Sp":"2560.5","X":"639300.5","Y":"9208325.3","NAMOBJ":"Pangkatrejo","WADMKC":"Sugio","WADMKK":"Lamongan"},"geometry":{"type":"Point","coordinates":[112.3,-7.2]}},{"type":"Feature","properties":{"Line":"S120","Sp":"2564.5","X":"639300.5","Y":"9208275.3","NAMOBJ":"Pangkatrejo","WADMKC":"Sugio","WADMKK":"Lamongan"},"geometry":{"type":"Point","coordinates":[112.3,-7.2]}},{"type":"Feature","properties":{"Line":"S120","Sp":"2568.5","X":"639300.5","Y":"9208225.3","NAMOBJ":"Pangkatrejo","WADMKC":"Sugio","WADMKK":"Lamongan"},"geometry":{"type":"Point","coordinates":[112.3,-7.2]}},{"type":"Feature","properties":{"Line":"S120","Sp":"2572.5","X":"639300.5","Y":"9208175.3","NAMOBJ":"Pangkatrejo","WADMKC":"Sugio","WADMKK":"Lamongan"},"geometry":{"type":"Point","coordinates":[112.3,-7.2]}},{"type":"Feature","properties":{"Line":"S120","Sp":"2576.5","X":"639300.5","Y":"9208125.3","NAMOBJ":"Pangkatrejo","WADMKC":"Sugio","WADMKK":"Lamongan"},"geometry":{"type":"Point","coordinates":[112.3,-7.2]}},{"type":"Feature","properties":{"Line":"S120","Sp":"2580.5","X":"639300.5","Y":"9208075.3","NAMOBJ":"Pangkatrejo","WADMKC":"Sugio","WADMKK":"Lamongan"},"geometry":{"type":"Point","coordinates":[112.3,-7.2]}},{"type":"Feature","properties":{"Line":"S120","Sp":"2584.5","X":"639300.5","Y":"9208025.3","NAMOBJ":"Pangkatrejo","WADMKC":"Sugio","WADMKK":"Lamongan"},"geometry":{"type":"Point","coordinates":[112.3,-7.2]}},{"type":"Feature","properties":{"Line":"S122","Sp":"2528.5","X":"640300.5","Y":"9209275.3","NAMOBJ":"Pangkatrejo","WADMKC":"Sugio","WADMKK":"Lamongan"},"geometry":{"type":"Point","coordinates":[112.3,-7.2]}},{"type":"Feature","properties":{"Line":"S122","Sp":"2532.5","X":"640300.5","Y":"9209225.3","NAMOBJ":"Pangkatrejo","WADMKC":"Sugio","WADMKK":"Lamongan"},"geometry":{"type":"Point","coordinates":[112.3,-7.2]}},{"type":"Feature","properties":{"Line":"S122","Sp":"2536.5","X":"640300.5","Y":"9209175.3","NAMOBJ":"Pangkatrejo","WADMKC":"Sugio","WADMKK":"Lamongan"},"geometry":{"type":"Point","coordinates":[112.3,-7.2]}},{"type":"Feature","properties":{"Line":"S122","Sp":"2540.5","X":"640300.5","Y":"9209125.3","NAMOBJ":"Pangkatrejo","WADMKC":"Sugio","WADMKK":"Lamongan"},"geometry":{"type":"Point","coordinates":[112.3,-7.2]}},{"type":"Feature","properties":{"Line":"S122","Sp":"2544.5","X":"640300.5","Y":"9209075.3","NAMOBJ":"Pangkatrejo","WADMKC":"Sugio","WADMKK":"Lamongan"},"geometry":{"type":"Point","coordinates":[112.3,-7.2]}},{"type":"Feature","properties":{"Line":"S122","Sp":"2548.5","X":"640300.5","Y":"9209025.3","NAMOBJ":"Pangkatrejo","WADMKC":"Sugio","WADMKK":"Lamongan"},"geometry":{"type":"Point","coordinates":[112.3,-7.2]}},{"type":"Feature","properties":{"Line":"S122","Sp":"2552.5","X":"640300.5","Y":"9208975.3","NAMOBJ":"Pangkatrejo","WADMKC":"Sugio","WADMKK":"Lamongan"},"geometry":{"type":"Point","coordinates":[112.3,-7.2]}},{"type":"Feature","properties":{"Line":"S122","Sp":"2556.5","X":"640300.5","Y":"9208925.3","NAMOBJ":"Pangkatrejo","WADMKC":"Sugio","WADMKK":"Lamongan"},"geometry":{"type":"Point","coordinates":[112.3,-7.2]}},{"type":"Feature","properties":{"Line":"S122","Sp":"2560.5","X":"640300.5","Y":"9208875.3","NAMOBJ":"Pangkatrejo","WADMKC":"Sugio","WADMKK":"Lamongan"},"geometry":{"type":"Point","coordinates":[112.3,-7.2]}},{"type":"Feature","properties":{"Line":"S122","Sp":"2564.5","X":"640300.5","Y":"9208825.3","NAMOBJ":"Pangkatrejo","WADMKC":"Sugio","WADMKK":"Lamongan"},"geometry":{"type":"Point","coordinates":[112.3,-7.2]}},{"type":"Feature","properties":{"Line":"S122","Sp":"2568.5","X":"640300.5","Y":"9208775.3","NAMOBJ":"Pangkatrejo","WADMKC":"Sugio","WADMKK":"Lamongan"},"geometry":{"type":"Point","coordinates":[112.3,-7.2]}},{"type":"Feature","properties":{"Line":"S122","Sp":"2572.5","X":"640300.5","Y":"9208725.3","NAMOBJ":"Pangkatrejo","WADMKC":"Sugio","WADMKK":"Lamongan"},"geometry":{"type":"Point","coordinates":[112.3,-7.2]}},{"type":"Feature","properties":{"Line":"S122","Sp":"2576.5","X":"640300.5","Y":"9208675.3","NAMOBJ":"Pangkatrejo","WADMKC":"Sugio","WADMKK":"Lamongan"},"geometry":{"type":"Point","coordinates":[112.3,-7.2]}},{"type":"Feature","properties":{"Line":"S122","Sp":"2580.5","X":"640300.5","Y":"9208625.3","NAMOBJ":"Pangkatrejo","WADMKC":"Sugio","WADMKK":"Lamongan"},"geometry":{"type":"Point","coordinates":[112.3,-7.2]}},{"type":"Feature","properties":{"Line":"S122","Sp":"2584.5","X":"640300.5","Y":"9208575.3","NAMOBJ":"Pangkatrejo","WADMKC":"Sugio","WADMKK":"Lamongan"},"geometry":{"type":"Point","coordinates":[112.3,-7.2]}},{"type":"Feature","properties":{"Line":"S122","Sp":"2588.5","X":"640300.5","Y":"9208525.3","NAMOBJ":"Pangkatrejo","WADMKC":"Sugio","WADMKK":"Lamongan"},"geometry":{"type":"Point","coordinates":[112.3,-7.2]}},{"type":"Feature","properties":{"Line":"S122","Sp":"2592.5","X":"640300.5","Y":"9208475.3","NAMOBJ":"Pangkatrejo","WADMKC":"Sugio","WADMKK":"Lamongan"},"geometry":{"type":"Point","coordinates":[112.3,-7.2]}},{"type":"Feature","properties":{"Line":"S122","Sp":"2596.5","X":"640300.5","Y":"9208425.3","NAMOBJ":"Pangkatrejo","WADMKC":"Sugio","WADMKK":"Lamongan"},"geometry":{"type":"Point","coordinates":[112.3,-7.2]}},{"type":"Feature","properties":{"Line":"S122","Sp":"2600.5","X":"640300.5","Y":"9208375.3","NAMOBJ":"Pangkatrejo","WADMKC":"Sugio","WADMKK":"Lamongan"},"geometry":{"type":"Point","coordinates":[112.3,-7.2]}},{"type":"Feature","properties":{"Line":"S122","Sp":"2604.5","X":"640300.5","Y":"9208325.3","NAMOBJ":"Pangkatrejo","WADMKC":"Sugio","WADMKK":"Lamongan"},"geometry":{"type":"Point","coordinates":[112.3,-7.2]}},{"type":"Feature","properties":{"Line":"S122","Sp":"2608.5","X":"640300.5","Y":"9208275.3","NAMOBJ":"Pangkatrejo","WADMKC":"Sugio","WADMKK":"Lamongan"},"geometry":{"type":"Point","coordinates":[112.3,-7.2]}},{"type":"Feature","properties":{"Line":"S122","Sp":"2612.5","X":"640300.5","Y":"9208225.3","NAMOBJ":"Pangkatrejo","WADMKC":"Sugio","WADMKK":"Lamongan"},"geometry":{"type":"Point","coordinates":[112.3,-7.2]}},{"type":"Feature","properties":{"Line":"S122","Sp":"2616.5","X":"640300.5","Y":"9208175.3","NAMOBJ":"Pangkatrejo","WADMKC":"Sugio","WADMKK":"Lamongan"},"geometry":{"type":"Point","coordinates":[112.3,-7.2]}},{"type":"Feature","properties":{"Line":"S122","Sp":"2620.5","X":"640300.5","Y":"9208125.3","NAMOBJ":"Pangkatrejo","WADMKC":"Sugio","WADMKK":"Lamongan"},"geometry":{"type":"Point","coordinates":[112.3,-7.2]}},{"type":"Feature","properties":{"Line":"S122","Sp":"2624.5","X":"640300.5","Y":"9208075.3","NAMOBJ":"Pangkatrejo","WADMKC":"Sugio","WADMKK":"Lamongan"},"geometry":{"type":"Point","coordinates":[112.3,-7.2]}},{"type":"Feature","properties":{"Line":"S122","Sp":"2628.5","X":"640300.5","Y":"9208025.3","NAMOBJ":"Pangkatrejo","WADMKC":"Sugio","WADMKK":"Lamongan"},"geometry":{"type":"Point","coordinates":[112.3,-7.2]}},{"type":"Feature","properties":{"Line":"S124","Sp":"2648.5","X":"641300.5","Y":"9208325.3","NAMOBJ":"Supenuh","WADMKC":"Sugio","WADMKK":"Lamongan"},"geometry":{"type":"Point","coordinates":[112.3,-7.2]}},{"type":"Feature","properties":{"Line":"S124","Sp":"2660.5","X":"641300.5","Y":"9208175.3","NAMOBJ":"Supenuh","WADMKC":"Sugio","WADMKK":"Lamongan"},"geometry":{"type":"Point","coordinates":[112.3,-7.2]}},{"type":"Feature","properties":{"Line":"S124","Sp":"2664.5","X":"641300.5","Y":"9208125.3","NAMOBJ":"Supenuh","WADMKC":"Sugio","WADMKK":"Lamongan"},"geometry":{"type":"Point","coordinates":[112.3,-7.2]}},{"type":"Feature","properties":{"Line":"S124","Sp":"2668.5","X":"641300.5","Y":"9208075.3","NAMOBJ":"Supenuh","WADMKC":"Sugio","WADMKK":"Lamongan"},"geometry":{"type":"Point","coordinates":[112.3,-7.2]}},{"type":"Feature","properties":{"Line":"S124","Sp":"2672.5","X":"641300.5","Y":"9208025.3","NAMOBJ":"Supenuh","WADMKC":"Sugio","WADMKK":"Lamongan"},"geometry":{"type":"Point","coordinates":[112.3,-7.2]}},{"type":"Feature","properties":{"Line":"S124","Sp":"2676.5","X":"641300.5","Y":"9207975.3","NAMOBJ":"Supenuh","WADMKC":"Sugio","WADMKK":"Lamongan"},"geometry":{"type":"Point","coordinates":[112.3,-7.2]}},{"type":"Feature","properties":{"Line":"S124","Sp":"2680.5","X":"641300.5","Y":"9207925.3","NAMOBJ":"Supenuh","WADMKC":"Sugio","WADMKK":"Lamongan"},"geometry":{"type":"Point","coordinates":[112.3,-7.2]}},{"type":"Feature","properties":{"Line":"S124","Sp":"2684.5","X":"641300.5","Y":"9207875.3","NAMOBJ":"Supenuh","WADMKC":"Sugio","WADMKK":"Lamongan"},"geometry":{"type":"Point","coordinates":[112.3,-7.2]}},{"type":"Feature","properties":{"Line":"S124","Sp":"2688.5","X":"641300.5","Y":"9207825.3","NAMOBJ":"Supenuh","WADMKC":"Sugio","WADMKK":"Lamongan"},"geometry":{"type":"Point","coordinates":[112.3,-7.2]}},{"type":"Feature","properties":{"Line":"S124","Sp":"2692.5","X":"641300.5","Y":"9207775.3","NAMOBJ":"Supenuh","WADMKC":"Sugio","WADMKK":"Lamongan"},"geometry":{"type":"Point","coordinates":[112.3,-7.2]}},{"type":"Feature","properties":{"Line":"S124","Sp":"2696.5","X":"641300.5","Y":"9207725.3","NAMOBJ":"Supenuh","WADMKC":"Sugio","WADMKK":"Lamongan"},"geometry":{"type":"Point","coordinates":[112.3,-7.2]}},{"type":"Feature","properties":{"Line":"S124","Sp":"2700.5","X":"641300.5","Y":"9207675.3","NAMOBJ":"Supenuh","WADMKC":"Sugio","WADMKK":"Lamongan"},"geometry":{"type":"Point","coordinates":[112.3,-7.2]}},{"type":"Feature","properties":{"Line":"S124","Sp":"2704.5","X":"641300.5","Y":"9207625.3","NAMOBJ":"Supenuh","WADMKC":"Sugio","WADMKK":"Lamongan"},"geometry":{"type":"Point","coordinates":[112.3,-7.2]}},{"type":"Feature","properties":{"Line":"S124","Sp":"2740.5","X":"641300.5","Y":"9207175.3","NAMOBJ":"Supenuh","WADMKC":"Sugio","WADMKK":"Lamongan"},"geometry":{"type":"Point","coordinates":[112.3,-7.2]}},{"type":"Feature","properties":{"Line":"S124","Sp":"2744.5","X":"641300.5","Y":"9207125.3","NAMOBJ":"Supenuh","WADMKC":"Sugio","WADMKK":"Lamongan"},"geometry":{"type":"Point","coordinates":[112.3,-7.2]}},{"type":"Feature","properties":{"Line":"S124","Sp":"2748.5","X":"641300.5","Y":"9207075.3","NAMOBJ":"Supenuh","WADMKC":"Sugio","WADMKK":"Lamongan"},"geometry":{"type":"Point","coordinates":[112.3,-7.2]}},{"type":"Feature","properties":{"Line":"S124","Sp":"2752.5","X":"641300.5","Y":"9207025.3","NAMOBJ":"Supenuh","WADMKC":"Sugio","WADMKK":"Lamongan"},"geometry":{"type":"Point","coordinates":[112.3,-7.2]}},{"type":"Feature","properties":{"Line":"S124","Sp":"2756.5","X":"641300.5","Y":"9206975.3","NAMOBJ":"Supenuh","WADMKC":"Sugio","WADMKK":"Lamongan"},"geometry":{"type":"Point","coordinates":[112.3,-7.2]}}]}