{
"type": "FeatureCollection",
"name": "D:\\Lamturo_GIS\\Label_per_100_line_ganjil.geojson",
"crs": { "type": "name", "properties": { "name": "urn:ogc:def:crs:OGC:1.3:CRS84" } },
"features": [
{ "type": "Feature", "properties": { "Line": 101, "TRAS": 1100, "x": "6.25469300000e+05", "y": "9.20880030000e+06" }, "geometry": { "type": "Point", "coordinates": [ 112.136282267799999, -7.156456888247032 ] } },
{ "type": "Feature", "properties": { "Line": 101, "TRAS": 1200, "x": "6.26719300000e+05", "y": "9.20880030000e+06" }, "geometry": { "type": "Point", "coordinates": [ 112.147601049886973, -7.156428814535414 ] } },
{ "type": "Feature", "properties": { "Line": 101, "TRAS": 1300, "x": "6.27969300000e+05", "y": "9.20880030000e+06" }, "geometry": { "type": "Point", "coordinates": [ 112.158919786193977, -7.156400462709072 ] } },
{ "type": "Feature", "properties": { "Line": 101, "TRAS": 1400, "x": "6.29219300000e+05", "y": "9.20880030000e+06" }, "geometry": { "type": "Point", "coordinates": [ 112.170238476269759, -7.156371832773508 ] } },
{ "type": "Feature", "properties": { "Line": 101, "TRAS": 1500, "x": "6.30469300000e+05", "y": "9.20880039000e+06" }, "geometry": { "type": "Point", "coordinates": [ 112.181557117569142, -7.156342110777177 ] } },
{ "type": "Feature", "properties": { "Line": 101, "TRAS": 1600, "x": "6.31719300000e+05", "y": "9.20880039000e+06" }, "geometry": { "type": "Point", "coordinates": [ 112.192875713808647, -7.15631292464325 ] } },
{ "type": "Feature", "properties": { "Line": 101, "TRAS": 1700, "x": "6.32969300000e+05", "y": "9.20880039000e+06" }, "geometry": { "type": "Point", "coordinates": [ 112.20419426246319, -7.156283460416966 ] } },
{ "type": "Feature", "properties": { "Line": 101, "TRAS": 1800, "x": "6.34219300000e+05", "y": "9.20880039000e+06" }, "geometry": { "type": "Point", "coordinates": [ 112.215512763081506, -7.156253718104046 ] } },
{ "type": "Feature", "properties": { "Line": 101, "TRAS": 1900, "x": "6.35469300000e+05", "y": "9.20880039000e+06" }, "geometry": { "type": "Point", "coordinates": [ 112.2268312152124, -7.156223697710264 ] } },
{ "type": "Feature", "properties": { "Line": 101, "TRAS": 2000, "x": "6.36719300000e+05", "y": "9.20880039000e+06" }, "geometry": { "type": "Point", "coordinates": [ 112.238149618404648, -7.156193399241444 ] } },
{ "type": "Feature", "properties": { "Line": 101, "TRAS": 2100, "x": "6.37969300000e+05", "y": "9.20880039000e+06" }, "geometry": { "type": "Point", "coordinates": [ 112.249467972207043, -7.156162822703471 ] } },
{ "type": "Feature", "properties": { "Line": 101, "TRAS": 2200, "x": "6.39219300000e+05", "y": "9.20880039000e+06" }, "geometry": { "type": "Point", "coordinates": [ 112.260786276168417, -7.156131968102276 ] } },
{ "type": "Feature", "properties": { "Line": 101, "TRAS": 2300, "x": "6.40469300000e+05", "y": "9.20880039000e+06" }, "geometry": { "type": "Point", "coordinates": [ 112.272104529837577, -7.15610083544385 ] } },
{ "type": "Feature", "properties": { "Line": 101, "TRAS": 2400, "x": "6.41719300000e+05", "y": "9.20880039000e+06" }, "geometry": { "type": "Point", "coordinates": [ 112.283422732763341, -7.156069424734235 ] } },
{ "type": "Feature", "properties": { "Line": 101, "TRAS": 2500, "x": "6.42969300000e+05", "y": "9.20880039000e+06" }, "geometry": { "type": "Point", "coordinates": [ 112.294740884494558, -7.156037735979528 ] } },
{ "type": "Feature", "properties": { "Line": 101, "TRAS": 2600, "x": "6.44219300000e+05", "y": "9.20880039000e+06" }, "geometry": { "type": "Point", "coordinates": [ 112.306058984580091, -7.156005769185879 ] } },
{ "type": "Feature", "properties": { "Line": 101, "TRAS": 2700, "x": "6.45469300000e+05", "y": "9.20880039000e+06" }, "geometry": { "type": "Point", "coordinates": [ 112.317377032568757, -7.155973524359492 ] } },
{ "type": "Feature", "properties": { "Line": 101, "TRAS": 2800, "x": "6.46719300000e+05", "y": "9.20880039000e+06" }, "geometry": { "type": "Point", "coordinates": [ 112.328695028009477, -7.155941001506626 ] } },
{ "type": "Feature", "properties": { "Line": 101, "TRAS": 2900, "x": "6.47969300000e+05", "y": "9.20880039000e+06" }, "geometry": { "type": "Point", "coordinates": [ 112.340012970451099, -7.155908200633593 ] } },
{ "type": "Feature", "properties": { "Line": 101, "TRAS": 3000, "x": "6.49219300000e+05", "y": "9.20880039000e+06" }, "geometry": { "type": "Point", "coordinates": [ 112.351330859442541, -7.15587512174676 ] } },
{ "type": "Feature", "properties": { "Line": 101, "TRAS": 3100, "x": "6.50469300000e+05", "y": "9.20880039000e+06" }, "geometry": { "type": "Point", "coordinates": [ 112.36264869453268, -7.155841764852545 ] } },
{ "type": "Feature", "properties": { "Line": 101, "TRAS": 3200, "x": "6.51719300000e+05", "y": "9.20880030000e+06" }, "geometry": { "type": "Point", "coordinates": [ 112.373966477705096, -7.155808943853179 ] } },
{ "type": "Feature", "properties": { "Line": 101, "TRAS": 3300, "x": "6.52969300000e+05", "y": "9.20880030000e+06" }, "geometry": { "type": "Point", "coordinates": [ 112.385284203659452, -7.155775030959782 ] } },
{ "type": "Feature", "properties": { "Line": 103, "TRAS": 1100, "x": "6.25469300000e+05", "y": "9.20980030000e+06" }, "geometry": { "type": "Point", "coordinates": [ 112.136259907573688, -7.147412773138957 ] } },
{ "type": "Feature", "properties": { "Line": 103, "TRAS": 1200, "x": "6.26719300000e+05", "y": "9.20980030000e+06" }, "geometry": { "type": "Point", "coordinates": [ 112.147578467043616, -7.147384735262404 ] } },
{ "type": "Feature", "properties": { "Line": 103, "TRAS": 1300, "x": "6.27969300000e+05", "y": "9.20980030000e+06" }, "geometry": { "type": "Point", "coordinates": [ 112.158896980737978, -7.147356419626123 ] } },
{ "type": "Feature", "properties": { "Line": 103, "TRAS": 1400, "x": "6.29219300000e+05", "y": "9.20980030000e+06" }, "geometry": { "type": "Point", "coordinates": [ 112.17021544820561, -7.147327826235615 ] } },
{ "type": "Feature", "properties": { "Line": 103, "TRAS": 1500, "x": "6.30469300000e+05", "y": "9.20980039000e+06" }, "geometry": { "type": "Point", "coordinates": [ 112.181533866904061, -7.147298141138997 ] } },
{ "type": "Feature", "properties": { "Line": 103, "TRAS": 1600, "x": "6.31719300000e+05", "y": "9.20980039000e+06" }, "geometry": { "type": "Point", "coordinates": [ 112.192852240544497, -7.147268992260086 ] } },
{ "type": "Feature", "properties": { "Line": 103, "TRAS": 1700, "x": "6.32969300000e+05", "y": "9.20980039000e+06" }, "geometry": { "type": "Point", "coordinates": [ 112.20417056660456, -7.147239565643789 ] } },
{ "type": "Feature", "properties": { "Line": 103, "TRAS": 1800, "x": "6.34219300000e+05", "y": "9.20980039000e+06" }, "geometry": { "type": "Point", "coordinates": [ 112.215488844633057, -7.147209861295818 ] } },
{ "type": "Feature", "properties": { "Line": 103, "TRAS": 1900, "x": "6.35469300000e+05", "y": "9.20980039000e+06" }, "geometry": { "type": "Point", "coordinates": [ 112.226807074178808, -7.14717987922194 ] } },
{ "type": "Feature", "properties": { "Line": 103, "TRAS": 2000, "x": "6.36719300000e+05", "y": "9.20980039000e+06" }, "geometry": { "type": "Point", "coordinates": [ 112.238125254790646, -7.147149619427973 ] } },
{ "type": "Feature", "properties": { "Line": 103, "TRAS": 2100, "x": "6.37969300000e+05", "y": "9.20980039000e+06" }, "geometry": { "type": "Point", "coordinates": [ 112.249443386017418, -7.14711908191979 ] } },
{ "type": "Feature", "properties": { "Line": 103, "TRAS": 2200, "x": "6.39219300000e+05", "y": "9.20980039000e+06" }, "geometry": { "type": "Point", "coordinates": [ 112.260761467407974, -7.147088266703319 ] } },
{ "type": "Feature", "properties": { "Line": 103, "TRAS": 2300, "x": "6.40469300000e+05", "y": "9.20980039000e+06" }, "geometry": { "type": "Point", "coordinates": [ 112.272079498511175, -7.147057173784541 ] } },
{ "type": "Feature", "properties": { "Line": 103, "TRAS": 2400, "x": "6.41719300000e+05", "y": "9.20980039000e+06" }, "geometry": { "type": "Point", "coordinates": [ 112.283397478875898, -7.14702580316949 ] } },
{ "type": "Feature", "properties": { "Line": 103, "TRAS": 2500, "x": "6.42969300000e+05", "y": "9.20980039000e+06" }, "geometry": { "type": "Point", "coordinates": [ 112.294715408051005, -7.146994154864256 ] } },
{ "type": "Feature", "properties": { "Line": 103, "TRAS": 2600, "x": "6.44219300000e+05", "y": "9.20980039000e+06" }, "geometry": { "type": "Point", "coordinates": [ 112.306033285585428, -7.14696222887498 ] } },
{ "type": "Feature", "properties": { "Line": 103, "TRAS": 2700, "x": "6.45469300000e+05", "y": "9.20980039000e+06" }, "geometry": { "type": "Point", "coordinates": [ 112.317351111028032, -7.146930025207859 ] } },
{ "type": "Feature", "properties": { "Line": 103, "TRAS": 2800, "x": "6.46719300000e+05", "y": "9.20980039000e+06" }, "geometry": { "type": "Point", "coordinates": [ 112.328668883927747, -7.146897543869144 ] } },
{ "type": "Feature", "properties": { "Line": 103, "TRAS": 2900, "x": "6.47969300000e+05", "y": "9.20980039000e+06" }, "geometry": { "type": "Point", "coordinates": [ 112.339986603833495, -7.146864784865137 ] } },
{ "type": "Feature", "properties": { "Line": 103, "TRAS": 3000, "x": "6.49219300000e+05", "y": "9.20980039000e+06" }, "geometry": { "type": "Point", "coordinates": [ 112.351304270294222, -7.146831748202198 ] } },
{ "type": "Feature", "properties": { "Line": 103, "TRAS": 3100, "x": "6.50469300000e+05", "y": "9.20980039000e+06" }, "geometry": { "type": "Point", "coordinates": [ 112.362621882858861, -7.146798433886737 ] } },
{ "type": "Feature", "properties": { "Line": 103, "TRAS": 3200, "x": "6.51719300000e+05", "y": "9.20980030000e+06" }, "geometry": { "type": "Point", "coordinates": [ 112.373939443507894, -7.146765655821304 ] } },
{ "type": "Feature", "properties": { "Line": 103, "TRAS": 3300, "x": "6.52969300000e+05", "y": "9.20980030000e+06" }, "geometry": { "type": "Point", "coordinates": [ 112.385256946947266, -7.146731786216354 ] } },
{ "type": "Feature", "properties": { "Line": 105, "TRAS": 1100, "x": "6.25219300000e+05", "y": "9.21080030000e+06" }, "geometry": { "type": "Point", "coordinates": [ 112.133973903473787, -7.138374221540948 ] } },
{ "type": "Feature", "properties": { "Line": 105, "TRAS": 1200, "x": "6.26469300000e+05", "y": "9.21080030000e+06" }, "geometry": { "type": "Point", "coordinates": [ 112.14529224971551, -7.138346274979712 ] } },
{ "type": "Feature", "properties": { "Line": 105, "TRAS": 1300, "x": "6.27719300000e+05", "y": "9.21080030000e+06" }, "geometry": { "type": "Point", "coordinates": [ 112.156610550276369, -7.138318051012643 ] } },
{ "type": "Feature", "properties": { "Line": 105, "TRAS": 1400, "x": "6.28969300000e+05", "y": "9.21080030000e+06" }, "geometry": { "type": "Point", "coordinates": [ 112.167928804705141, -7.138289549645222 ] } },
{ "type": "Feature", "properties": { "Line": 105, "TRAS": 1500, "x": "6.30219300000e+05", "y": "9.21080030000e+06" }, "geometry": { "type": "Point", "coordinates": [ 112.179247012550718, -7.13826077088298 ] } },
{ "type": "Feature", "properties": { "Line": 105, "TRAS": 1600, "x": "6.31469300000e+05", "y": "9.21080039000e+06" }, "geometry": { "type": "Point", "coordinates": [ 112.19056517125739, -7.138230900776428 ] } },
{ "type": "Feature", "properties": { "Line": 105, "TRAS": 1700, "x": "6.32719300000e+05", "y": "9.21080039000e+06" }, "geometry": { "type": "Point", "coordinates": [ 112.201883284562982, -7.138201567244733 ] } },
{ "type": "Feature", "properties": { "Line": 105, "TRAS": 1800, "x": "6.33969300000e+05", "y": "9.21080039000e+06" }, "geometry": { "type": "Point", "coordinates": [ 112.213201349931893, -7.138171956335168 ] } },
{ "type": "Feature", "properties": { "Line": 105, "TRAS": 1900, "x": "6.35219300000e+05", "y": "9.21080039000e+06" }, "geometry": { "type": "Point", "coordinates": [ 112.224519366912958, -7.13814206805348 ] } },
{ "type": "Feature", "properties": { "Line": 105, "TRAS": 2000, "x": "6.36469300000e+05", "y": "9.21080039000e+06" }, "geometry": { "type": "Point", "coordinates": [ 112.235837335055066, -7.138111902405473 ] } },
{ "type": "Feature", "properties": { "Line": 105, "TRAS": 2100, "x": "6.37719300000e+05", "y": "9.21080039000e+06" }, "geometry": { "type": "Point", "coordinates": [ 112.247155253907081, -7.138081459396997 ] } },
{ "type": "Feature", "properties": { "Line": 105, "TRAS": 2200, "x": "6.38969300000e+05", "y": "9.21080039000e+06" }, "geometry": { "type": "Point", "coordinates": [ 112.258473123017922, -7.138050739033965 ] } },
{ "type": "Feature", "properties": { "Line": 105, "TRAS": 2300, "x": "6.40219300000e+05", "y": "9.21080039000e+06" }, "geometry": { "type": "Point", "coordinates": [ 112.269790941936478, -7.138019741322338 ] } },
{ "type": "Feature", "properties": { "Line": 105, "TRAS": 2400, "x": "6.41469300000e+05", "y": "9.21080039000e+06" }, "geometry": { "type": "Point", "coordinates": [ 112.281108710211655, -7.137988466268131 ] } },
{ "type": "Feature", "properties": { "Line": 105, "TRAS": 2500, "x": "6.42719300000e+05", "y": "9.21080039000e+06" }, "geometry": { "type": "Point", "coordinates": [ 112.2924264273924, -7.137956913877415 ] } },
{ "type": "Feature", "properties": { "Line": 105, "TRAS": 2600, "x": "6.43969300000e+05", "y": "9.21080039000e+06" }, "geometry": { "type": "Point", "coordinates": [ 112.303744093027632, -7.137925084156314 ] } },
{ "type": "Feature", "properties": { "Line": 105, "TRAS": 2700, "x": "6.45219300000e+05", "y": "9.21080039000e+06" }, "geometry": { "type": "Point", "coordinates": [ 112.315061706666299, -7.137892977111005 ] } },
{ "type": "Feature", "properties": { "Line": 105, "TRAS": 2800, "x": "6.46469300000e+05", "y": "9.21080039000e+06" }, "geometry": { "type": "Point", "coordinates": [ 112.326379267857348, -7.137860592747719 ] } },
{ "type": "Feature", "properties": { "Line": 105, "TRAS": 2900, "x": "6.47719300000e+05", "y": "9.21080039000e+06" }, "geometry": { "type": "Point", "coordinates": [ 112.337696776149755, -7.137827931072742 ] } },
{ "type": "Feature", "properties": { "Line": 105, "TRAS": 3000, "x": "6.48969300000e+05", "y": "9.21080039000e+06" }, "geometry": { "type": "Point", "coordinates": [ 112.349014231092511, -7.137794992092412 ] } },
{ "type": "Feature", "properties": { "Line": 105, "TRAS": 3100, "x": "6.50219300000e+05", "y": "9.21080039000e+06" }, "geometry": { "type": "Point", "coordinates": [ 112.360331632234576, -7.137761775813122 ] } },
{ "type": "Feature", "properties": { "Line": 105, "TRAS": 3200, "x": "6.51469300000e+05", "y": "9.21080030000e+06" }, "geometry": { "type": "Point", "coordinates": [ 112.371648981549328, -7.137729096138505 ] } },
{ "type": "Feature", "properties": { "Line": 105, "TRAS": 3300, "x": "6.52719300000e+05", "y": "9.21080030000e+06" }, "geometry": { "type": "Point", "coordinates": [ 112.38296627375702, -7.137695325276797 ] } },
{ "type": "Feature", "properties": { "Line": 105, "TRAS": 3400, "x": "6.53969300000e+05", "y": "9.21080030000e+06" }, "geometry": { "type": "Point", "coordinates": [ 112.394283510811093, -7.137661277135598 ] } },
{ "type": "Feature", "properties": { "Line": 107, "TRAS": 1100, "x": "6.24469300000e+05", "y": "9.21180030000e+06" }, "geometry": { "type": "Point", "coordinates": [ 112.127160749410365, -7.12934670558782 ] } },
{ "type": "Feature", "properties": { "Line": 107, "TRAS": 1200, "x": "6.25719300000e+05", "y": "9.21180030000e+06" }, "geometry": { "type": "Point", "coordinates": [ 112.138478900801061, -7.129318961021075 ] } },
{ "type": "Feature", "properties": { "Line": 107, "TRAS": 1300, "x": "6.26969300000e+05", "y": "9.21180030000e+06" }, "geometry": { "type": "Point", "coordinates": [ 112.149797006785946, -7.129290939400214 ] } },
{ "type": "Feature", "properties": { "Line": 107, "TRAS": 1400, "x": "6.28219300000e+05", "y": "9.21180030000e+06" }, "geometry": { "type": "Point", "coordinates": [ 112.161115066913922, -7.129262640730677 ] } },
{ "type": "Feature", "properties": { "Line": 107, "TRAS": 1500, "x": "6.29469300000e+05", "y": "9.21180030000e+06" }, "geometry": { "type": "Point", "coordinates": [ 112.172433080733825, -7.129234065017957 ] } },
{ "type": "Feature", "properties": { "Line": 107, "TRAS": 1600, "x": "6.30719300000e+05", "y": "9.21180039000e+06" }, "geometry": { "type": "Point", "coordinates": [ 112.183751045704767, -7.12920439831019 ] } },
{ "type": "Feature", "properties": { "Line": 107, "TRAS": 1700, "x": "6.31969300000e+05", "y": "9.21180039000e+06" }, "geometry": { "type": "Point", "coordinates": [ 112.195068965535185, -7.129175268531155 ] } },
{ "type": "Feature", "properties": { "Line": 107, "TRAS": 1800, "x": "6.33219300000e+05", "y": "9.21180039000e+06" }, "geometry": { "type": "Point", "coordinates": [ 112.206386837704201, -7.12914586172577 ] } },
{ "type": "Feature", "properties": { "Line": 107, "TRAS": 1900, "x": "6.34469300000e+05", "y": "9.21180039000e+06" }, "geometry": { "type": "Point", "coordinates": [ 112.217704661760692, -7.129116177899743 ] } },
{ "type": "Feature", "properties": { "Line": 107, "TRAS": 2000, "x": "6.35719300000e+05", "y": "9.21180039000e+06" }, "geometry": { "type": "Point", "coordinates": [ 112.229022437253576, -7.129086217058834 ] } },
{ "type": "Feature", "properties": { "Line": 107, "TRAS": 2100, "x": "6.36969300000e+05", "y": "9.21180039000e+06" }, "geometry": { "type": "Point", "coordinates": [ 112.240340163731773, -7.129055979208858 ] } },
{ "type": "Feature", "properties": { "Line": 107, "TRAS": 2200, "x": "6.38219300000e+05", "y": "9.21180039000e+06" }, "geometry": { "type": "Point", "coordinates": [ 112.25165784074423, -7.129025464355684 ] } },
{ "type": "Feature", "properties": { "Line": 107, "TRAS": 2300, "x": "6.39469300000e+05", "y": "9.21180039000e+06" }, "geometry": { "type": "Point", "coordinates": [ 112.262975467839851, -7.128994672505235 ] } },
{ "type": "Feature", "properties": { "Line": 107, "TRAS": 2400, "x": "6.40719300000e+05", "y": "9.21180039000e+06" }, "geometry": { "type": "Point", "coordinates": [ 112.274293044567628, -7.128963603663487 ] } },
{ "type": "Feature", "properties": { "Line": 107, "TRAS": 2500, "x": "6.41969300000e+05", "y": "9.21180039000e+06" }, "geometry": { "type": "Point", "coordinates": [ 112.285610570476493, -7.128932257836469 ] } },
{ "type": "Feature", "properties": { "Line": 107, "TRAS": 2600, "x": "6.43219300000e+05", "y": "9.21180039000e+06" }, "geometry": { "type": "Point", "coordinates": [ 112.296928045115436, -7.128900635030266 ] } },
{ "type": "Feature", "properties": { "Line": 107, "TRAS": 2700, "x": "6.44469300000e+05", "y": "9.21180039000e+06" }, "geometry": { "type": "Point", "coordinates": [ 112.308245468033448, -7.128868735251014 ] } },
{ "type": "Feature", "properties": { "Line": 107, "TRAS": 2800, "x": "6.45719300000e+05", "y": "9.21180039000e+06" }, "geometry": { "type": "Point", "coordinates": [ 112.31956283877949, -7.128836558504905 ] } },
{ "type": "Feature", "properties": { "Line": 107, "TRAS": 2900, "x": "6.46969300000e+05", "y": "9.21180039000e+06" }, "geometry": { "type": "Point", "coordinates": [ 112.33088015690258, -7.128804104798182 ] } },
{ "type": "Feature", "properties": { "Line": 107, "TRAS": 3000, "x": "6.48219300000e+05", "y": "9.21180039000e+06" }, "geometry": { "type": "Point", "coordinates": [ 112.342197421951738, -7.128771374137146 ] } },
{ "type": "Feature", "properties": { "Line": 107, "TRAS": 3100, "x": "6.49469300000e+05", "y": "9.21180039000e+06" }, "geometry": { "type": "Point", "coordinates": [ 112.353514633475982, -7.128738366528145 ] } },
{ "type": "Feature", "properties": { "Line": 107, "TRAS": 3200, "x": "6.50719300000e+05", "y": "9.21180039000e+06" }, "geometry": { "type": "Point", "coordinates": [ 112.364831791024358, -7.128705081977588 ] } },
{ "type": "Feature", "properties": { "Line": 107, "TRAS": 3300, "x": "6.51969300000e+05", "y": "9.21180030000e+06" }, "geometry": { "type": "Point", "coordinates": [ 112.376148896575074, -7.128672334387898 ] } },
{ "type": "Feature", "properties": { "Line": 107, "TRAS": 3400, "x": "6.53219300000e+05", "y": "9.21180030000e+06" }, "geometry": { "type": "Point", "coordinates": [ 112.387465944838809, -7.128638495969756 ] } },
{ "type": "Feature", "properties": { "Line": 107, "TRAS": 3500, "x": "6.54469300000e+05", "y": "9.21180030000e+06" }, "geometry": { "type": "Point", "coordinates": [ 112.398782937773831, -7.128604380629564 ] } },
{ "type": "Feature", "properties": { "Line": 109, "TRAS": 1100, "x": "6.24319300000e+05", "y": "9.21280030000e+06" }, "geometry": { "type": "Point", "coordinates": [ 112.125780499016173, -7.120305857743501 ] } },
{ "type": "Feature", "properties": { "Line": 109, "TRAS": 1200, "x": "6.25569300000e+05", "y": "9.21280030000e+06" }, "geometry": { "type": "Point", "coordinates": [ 112.137098434070438, -7.120278181928065 ] } },
{ "type": "Feature", "properties": { "Line": 109, "TRAS": 1300, "x": "6.26819300000e+05", "y": "9.21280030000e+06" }, "geometry": { "type": "Point", "coordinates": [ 112.148416323777425, -7.120250229412831 ] } },
{ "type": "Feature", "properties": { "Line": 109, "TRAS": 1400, "x": "6.28069300000e+05", "y": "9.21280030000e+06" }, "geometry": { "type": "Point", "coordinates": [ 112.15973416768604, -7.120222000203224 ] } },
{ "type": "Feature", "properties": { "Line": 109, "TRAS": 1500, "x": "6.29319300000e+05", "y": "9.21280030000e+06" }, "geometry": { "type": "Point", "coordinates": [ 112.171051965345171, -7.120193494304722 ] } },
{ "type": "Feature", "properties": { "Line": 109, "TRAS": 1600, "x": "6.30569300000e+05", "y": "9.21280039000e+06" }, "geometry": { "type": "Point", "coordinates": [ 112.182369714219107, -7.120163897764722 ] } },
{ "type": "Feature", "properties": { "Line": 109, "TRAS": 1700, "x": "6.31819300000e+05", "y": "9.21280039000e+06" }, "geometry": { "type": "Point", "coordinates": [ 112.193687418006107, -7.12013483850844 ] } },
{ "type": "Feature", "properties": { "Line": 109, "TRAS": 1800, "x": "6.33069300000e+05", "y": "9.21280039000e+06" }, "geometry": { "type": "Point", "coordinates": [ 112.205005074190396, -7.120105502580055 ] } },
{ "type": "Feature", "properties": { "Line": 109, "TRAS": 1900, "x": "6.34319300000e+05", "y": "9.21280039000e+06" }, "geometry": { "type": "Point", "coordinates": [ 112.216322682320936, -7.120075889985261 ] } },
{ "type": "Feature", "properties": { "Line": 109, "TRAS": 2000, "x": "6.35569300000e+05", "y": "9.21280039000e+06" }, "geometry": { "type": "Point", "coordinates": [ 112.227640241946673, -7.120046000729807 ] } },
{ "type": "Feature", "properties": { "Line": 109, "TRAS": 2100, "x": "6.36819300000e+05", "y": "9.21280039000e+06" }, "geometry": { "type": "Point", "coordinates": [ 112.238957752616557, -7.120015834819491 ] } },
{ "type": "Feature", "properties": { "Line": 109, "TRAS": 2200, "x": "6.38069300000e+05", "y": "9.21280039000e+06" }, "geometry": { "type": "Point", "coordinates": [ 112.25027521387959, -7.119985392260171 ] } },
{ "type": "Feature", "properties": { "Line": 109, "TRAS": 2300, "x": "6.39319300000e+05", "y": "9.21280039000e+06" }, "geometry": { "type": "Point", "coordinates": [ 112.26159262528472, -7.119954673057752 ] } },
{ "type": "Feature", "properties": { "Line": 109, "TRAS": 2400, "x": "6.40569300000e+05", "y": "9.21280039000e+06" }, "geometry": { "type": "Point", "coordinates": [ 112.272909986380967, -7.119923677218198 ] } },
{ "type": "Feature", "properties": { "Line": 109, "TRAS": 2500, "x": "6.41819300000e+05", "y": "9.21280039000e+06" }, "geometry": { "type": "Point", "coordinates": [ 112.284227296717319, -7.119892404747524 ] } },
{ "type": "Feature", "properties": { "Line": 109, "TRAS": 2600, "x": "6.43069300000e+05", "y": "9.21280039000e+06" }, "geometry": { "type": "Point", "coordinates": [ 112.295544555842824, -7.1198608556518 ] } },
{ "type": "Feature", "properties": { "Line": 109, "TRAS": 2700, "x": "6.44319300000e+05", "y": "9.21280039000e+06" }, "geometry": { "type": "Point", "coordinates": [ 112.306861763306443, -7.119829029937147 ] } },
{ "type": "Feature", "properties": { "Line": 109, "TRAS": 2800, "x": "6.45569300000e+05", "y": "9.21280039000e+06" }, "geometry": { "type": "Point", "coordinates": [ 112.318178918657267, -7.119796927609743 ] } },
{ "type": "Feature", "properties": { "Line": 109, "TRAS": 2900, "x": "6.46819300000e+05", "y": "9.21280039000e+06" }, "geometry": { "type": "Point", "coordinates": [ 112.329496021444328, -7.119764548675818 ] } },
{ "type": "Feature", "properties": { "Line": 109, "TRAS": 3000, "x": "6.48069300000e+05", "y": "9.21280039000e+06" }, "geometry": { "type": "Point", "coordinates": [ 112.340813071216672, -7.119731893141655 ] } },
{ "type": "Feature", "properties": { "Line": 109, "TRAS": 3100, "x": "6.49319300000e+05", "y": "9.21280039000e+06" }, "geometry": { "type": "Point", "coordinates": [ 112.352130067523362, -7.119698961013591 ] } },
{ "type": "Feature", "properties": { "Line": 109, "TRAS": 3200, "x": "6.50569300000e+05", "y": "9.21280039000e+06" }, "geometry": { "type": "Point", "coordinates": [ 112.363447009913486, -7.119665752298017 ] } },
{ "type": "Feature", "properties": { "Line": 109, "TRAS": 3300, "x": "6.51819300000e+05", "y": "9.21280030000e+06" }, "geometry": { "type": "Point", "coordinates": [ 112.374763900359753, -7.119633080898136 ] } },
{ "type": "Feature", "properties": { "Line": 109, "TRAS": 3400, "x": "6.53069300000e+05", "y": "9.21280030000e+06" }, "geometry": { "type": "Point", "coordinates": [ 112.386080733583952, -7.119599319023032 ] } },
{ "type": "Feature", "properties": { "Line": 109, "TRAS": 3500, "x": "6.54319300000e+05", "y": "9.21280030000e+06" }, "geometry": { "type": "Point", "coordinates": [ 112.397397511538884, -7.11956528057988 ] } },
{ "type": "Feature", "properties": { "Line": 109, "TRAS": 3600, "x": "6.55569300000e+05", "y": "9.21280030000e+06" }, "geometry": { "type": "Point", "coordinates": [ 112.408714233773665, -7.119530965575287 ] } },
{ "type": "Feature", "properties": { "Line": 109, "TRAS": 3700, "x": "6.56819300000e+05", "y": "9.21280030000e+06" }, "geometry": { "type": "Point", "coordinates": [ 112.420030899837428, -7.11949637401591 ] } },
{ "type": "Feature", "properties": { "Line": 109, "TRAS": 3800, "x": "6.58069300000e+05", "y": "9.21280030000e+06" }, "geometry": { "type": "Point", "coordinates": [ 112.431347509279334, -7.119461505908461 ] } },
{ "type": "Feature", "properties": { "Line": 111, "TRAS": 1100, "x": "6.24369300000e+05", "y": "9.21380030000e+06" }, "geometry": { "type": "Point", "coordinates": [ 112.12621116796069, -7.111260595268062 ] } },
{ "type": "Feature", "properties": { "Line": 111, "TRAS": 1200, "x": "6.25619300000e+05", "y": "9.21380030000e+06" }, "geometry": { "type": "Point", "coordinates": [ 112.137528879743826, -7.11123294390185 ] } },
{ "type": "Feature", "properties": { "Line": 111, "TRAS": 1300, "x": "6.26869300000e+05", "y": "9.21380030000e+06" }, "geometry": { "type": "Point", "coordinates": [ 112.148846546166013, -7.111205016191009 ] } },
{ "type": "Feature", "properties": { "Line": 111, "TRAS": 1400, "x": "6.28119300000e+05", "y": "9.21380030000e+06" }, "geometry": { "type": "Point", "coordinates": [ 112.160164166776184, -7.111176812140956 ] } },
{ "type": "Feature", "properties": { "Line": 111, "TRAS": 1500, "x": "6.29369300000e+05", "y": "9.21380030000e+06" }, "geometry": { "type": "Point", "coordinates": [ 112.171481741123287, -7.111148331757168 ] } },
{ "type": "Feature", "properties": { "Line": 111, "TRAS": 1600, "x": "6.30619300000e+05", "y": "9.21380039000e+06" }, "geometry": { "type": "Point", "coordinates": [ 112.182799266673541, -7.111118761086844 ] } },
{ "type": "Feature", "properties": { "Line": 111, "TRAS": 1700, "x": "6.31869300000e+05", "y": "9.21380039000e+06" }, "geometry": { "type": "Point", "coordinates": [ 112.194116747121456, -7.111089728055577 ] } },
{ "type": "Feature", "properties": { "Line": 111, "TRAS": 1800, "x": "6.33119300000e+05", "y": "9.21380039000e+06" }, "geometry": { "type": "Point", "coordinates": [ 112.20543417995323, -7.11106041870735 ] } },
{ "type": "Feature", "properties": { "Line": 111, "TRAS": 1900, "x": "6.34369300000e+05", "y": "9.21380039000e+06" }, "geometry": { "type": "Point", "coordinates": [ 112.216751564717811, -7.111030833047851 ] } },
{ "type": "Feature", "properties": { "Line": 111, "TRAS": 2000, "x": "6.35619300000e+05", "y": "9.21380039000e+06" }, "geometry": { "type": "Point", "coordinates": [ 112.228068900964217, -7.111000971082822 ] } },
{ "type": "Feature", "properties": { "Line": 111, "TRAS": 2100, "x": "6.36869300000e+05", "y": "9.21380039000e+06" }, "geometry": { "type": "Point", "coordinates": [ 112.239386188241454, -7.110970832818058 ] } },
{ "type": "Feature", "properties": { "Line": 111, "TRAS": 2200, "x": "6.38119300000e+05", "y": "9.21380039000e+06" }, "geometry": { "type": "Point", "coordinates": [ 112.250703426098539, -7.110940418259411 ] } },
{ "type": "Feature", "properties": { "Line": 111, "TRAS": 2300, "x": "6.39369300000e+05", "y": "9.21380039000e+06" }, "geometry": { "type": "Point", "coordinates": [ 112.262020614084491, -7.110909727412782 ] } },
{ "type": "Feature", "properties": { "Line": 111, "TRAS": 2400, "x": "6.40619300000e+05", "y": "9.21380039000e+06" }, "geometry": { "type": "Point", "coordinates": [ 112.273337751748343, -7.110878760284126 ] } },
{ "type": "Feature", "properties": { "Line": 111, "TRAS": 2500, "x": "6.41869300000e+05", "y": "9.21380039000e+06" }, "geometry": { "type": "Point", "coordinates": [ 112.284654838639156, -7.110847516879454 ] } },
{ "type": "Feature", "properties": { "Line": 111, "TRAS": 2600, "x": "6.43119300000e+05", "y": "9.21380039000e+06" }, "geometry": { "type": "Point", "coordinates": [ 112.295971874305991, -7.110815997204831 ] } },
{ "type": "Feature", "properties": { "Line": 111, "TRAS": 2700, "x": "6.44369300000e+05", "y": "9.21380039000e+06" }, "geometry": { "type": "Point", "coordinates": [ 112.307288858297895, -7.110784201266371 ] } },
{ "type": "Feature", "properties": { "Line": 111, "TRAS": 2800, "x": "6.45619300000e+05", "y": "9.21380039000e+06" }, "geometry": { "type": "Point", "coordinates": [ 112.318605790163971, -7.110752129070247 ] } },
{ "type": "Feature", "properties": { "Line": 111, "TRAS": 2900, "x": "6.46869300000e+05", "y": "9.21380039000e+06" }, "geometry": { "type": "Point", "coordinates": [ 112.329922669453296, -7.110719780622681 ] } },
{ "type": "Feature", "properties": { "Line": 111, "TRAS": 3000, "x": "6.48119300000e+05", "y": "9.21380039000e+06" }, "geometry": { "type": "Point", "coordinates": [ 112.341239495714959, -7.110687155929952 ] } },
{ "type": "Feature", "properties": { "Line": 111, "TRAS": 3100, "x": "6.49369300000e+05", "y": "9.21380039000e+06" }, "geometry": { "type": "Point", "coordinates": [ 112.352556268498105, -7.110654254998391 ] } },
{ "type": "Feature", "properties": { "Line": 111, "TRAS": 3200, "x": "6.50619300000e+05", "y": "9.21380039000e+06" }, "geometry": { "type": "Point", "coordinates": [ 112.363872987351812, -7.110621077834381 ] } },
{ "type": "Feature", "properties": { "Line": 111, "TRAS": 3300, "x": "6.51869300000e+05", "y": "9.21380030000e+06" }, "geometry": { "type": "Point", "coordinates": [ 112.375189654246498, -7.110588438341289 ] } },
{ "type": "Feature", "properties": { "Line": 111, "TRAS": 3400, "x": "6.53119300000e+05", "y": "9.21380030000e+06" }, "geometry": { "type": "Point", "coordinates": [ 112.386506263908686, -7.110554708727853 ] } },
{ "type": "Feature", "properties": { "Line": 111, "TRAS": 3500, "x": "6.54369300000e+05", "y": "9.21380030000e+06" }, "geometry": { "type": "Point", "coordinates": [ 112.397822818288901, -7.110520702901413 ] } },
{ "type": "Feature", "properties": { "Line": 111, "TRAS": 3600, "x": "6.55619300000e+05", "y": "9.21380030000e+06" }, "geometry": { "type": "Point", "coordinates": [ 112.409139316936276, -7.110486420868567 ] } },
{ "type": "Feature", "properties": { "Line": 111, "TRAS": 3700, "x": "6.56869300000e+05", "y": "9.21380030000e+06" }, "geometry": { "type": "Point", "coordinates": [ 112.420455759400014, -7.110451862635968 ] } },
{ "type": "Feature", "properties": { "Line": 111, "TRAS": 3800, "x": "6.58119300000e+05", "y": "9.21380030000e+06" }, "geometry": { "type": "Point", "coordinates": [ 112.431772145229303, -7.11041702821032 ] } },
{ "type": "Feature", "properties": { "Line": 113, "TRAS": 1100, "x": "6.25469300000e+05", "y": "9.21480030000e+06" }, "geometry": { "type": "Point", "coordinates": [ 112.136148541499509, -7.102192143546329 ] } },
{ "type": "Feature", "properties": { "Line": 113, "TRAS": 1200, "x": "6.26719300000e+05", "y": "9.21480030000e+06" }, "geometry": { "type": "Point", "coordinates": [ 112.147465992215459, -7.102164284824894 ] } },
{ "type": "Feature", "properties": { "Line": 113, "TRAS": 1300, "x": "6.27969300000e+05", "y": "9.21480030000e+06" }, "geometry": { "type": "Point", "coordinates": [ 112.158783397177885, -7.102136150118525 ] } },
{ "type": "Feature", "properties": { "Line": 113, "TRAS": 1400, "x": "6.29219300000e+05", "y": "9.21480030000e+06" }, "geometry": { "type": "Point", "coordinates": [ 112.17010075593582, -7.102107739432688 ] } },
{ "type": "Feature", "properties": { "Line": 113, "TRAS": 1500, "x": "6.30469300000e+05", "y": "9.21480039000e+06" }, "geometry": { "type": "Point", "coordinates": [ 112.181418065960628, -7.102078238813843 ] } },
{ "type": "Feature", "properties": { "Line": 113, "TRAS": 1600, "x": "6.31719300000e+05", "y": "9.21480039000e+06" }, "geometry": { "type": "Point", "coordinates": [ 112.192735330936671, -7.102049276189012 ] } },
{ "type": "Feature", "properties": { "Line": 113, "TRAS": 1700, "x": "6.32969300000e+05", "y": "9.21480039000e+06" }, "geometry": { "type": "Point", "coordinates": [ 112.204052548355236, -7.102020037601446 ] } },
{ "type": "Feature", "properties": { "Line": 113, "TRAS": 1800, "x": "6.34219300000e+05", "y": "9.21480039000e+06" }, "geometry": { "type": "Point", "coordinates": [ 112.21536971776537, -7.101990523056818 ] } },
{ "type": "Feature", "properties": { "Line": 113, "TRAS": 1900, "x": "6.35469300000e+05", "y": "9.21480039000e+06" }, "geometry": { "type": "Point", "coordinates": [ 112.226686838716091, -7.101960732560857 ] } },
{ "type": "Feature", "properties": { "Line": 113, "TRAS": 2000, "x": "6.36719300000e+05", "y": "9.21480039000e+06" }, "geometry": { "type": "Point", "coordinates": [ 112.238003910756461, -7.101930666119345 ] } },
{ "type": "Feature", "properties": { "Line": 113, "TRAS": 2100, "x": "6.37969300000e+05", "y": "9.21480039000e+06" }, "geometry": { "type": "Point", "coordinates": [ 112.249320933435527, -7.101900323738116 ] } },
{ "type": "Feature", "properties": { "Line": 113, "TRAS": 2200, "x": "6.39219300000e+05", "y": "9.21480039000e+06" }, "geometry": { "type": "Point", "coordinates": [ 112.260637906302378, -7.10186970542306 ] } },
{ "type": "Feature", "properties": { "Line": 113, "TRAS": 2300, "x": "6.40469300000e+05", "y": "9.21480039000e+06" }, "geometry": { "type": "Point", "coordinates": [ 112.271954828906075, -7.101838811180119 ] } },
{ "type": "Feature", "properties": { "Line": 113, "TRAS": 2400, "x": "6.41719300000e+05", "y": "9.21480039000e+06" }, "geometry": { "type": "Point", "coordinates": [ 112.283271700795709, -7.101807641015286 ] } },
{ "type": "Feature", "properties": { "Line": 113, "TRAS": 2500, "x": "6.42969300000e+05", "y": "9.21480039000e+06" }, "geometry": { "type": "Point", "coordinates": [ 112.294588521520396, -7.101776194934614 ] } },
{ "type": "Feature", "properties": { "Line": 113, "TRAS": 2600, "x": "6.44219300000e+05", "y": "9.21480039000e+06" }, "geometry": { "type": "Point", "coordinates": [ 112.305905290629227, -7.101744472944202 ] } },
{ "type": "Feature", "properties": { "Line": 113, "TRAS": 2700, "x": "6.45469300000e+05", "y": "9.21480039000e+06" }, "geometry": { "type": "Point", "coordinates": [ 112.317222007671333, -7.101712475050209 ] } },
{ "type": "Feature", "properties": { "Line": 113, "TRAS": 2800, "x": "6.46719300000e+05", "y": "9.21480039000e+06" }, "geometry": { "type": "Point", "coordinates": [ 112.328538672195833, -7.101680201258842 ] } },
{ "type": "Feature", "properties": { "Line": 113, "TRAS": 2900, "x": "6.47969300000e+05", "y": "9.21480039000e+06" }, "geometry": { "type": "Point", "coordinates": [ 112.339855283751888, -7.101647651576365 ] } },
{ "type": "Feature", "properties": { "Line": 113, "TRAS": 3000, "x": "6.49219300000e+05", "y": "9.21480039000e+06" }, "geometry": { "type": "Point", "coordinates": [ 112.351171841888643, -7.101614826009095 ] } },
{ "type": "Feature", "properties": { "Line": 113, "TRAS": 3100, "x": "6.50469300000e+05", "y": "9.21480039000e+06" }, "geometry": { "type": "Point", "coordinates": [ 112.362488346155246, -7.101581724563401 ] } },
{ "type": "Feature", "properties": { "Line": 113, "TRAS": 3200, "x": "6.51719300000e+05", "y": "9.21480030000e+06" }, "geometry": { "type": "Point", "coordinates": [ 112.373804798516616, -7.101549161143426 ] } },
{ "type": "Feature", "properties": { "Line": 113, "TRAS": 3300, "x": "6.52969300000e+05", "y": "9.21480030000e+06" }, "geometry": { "type": "Point", "coordinates": [ 112.385121193710376, -7.101515507956313 ] } },
{ "type": "Feature", "properties": { "Line": 113, "TRAS": 3400, "x": "6.54219300000e+05", "y": "9.21480030000e+06" }, "geometry": { "type": "Point", "coordinates": [ 112.396437533681521, -7.101481578910175 ] } },
{ "type": "Feature", "properties": { "Line": 113, "TRAS": 3500, "x": "6.55469300000e+05", "y": "9.21480030000e+06" }, "geometry": { "type": "Point", "coordinates": [ 112.407753817979327, -7.101447374011594 ] } },
{ "type": "Feature", "properties": { "Line": 113, "TRAS": 3600, "x": "6.56719300000e+05", "y": "9.21480030000e+06" }, "geometry": { "type": "Point", "coordinates": [ 112.419070046152953, -7.10141289326721 ] } },
{ "type": "Feature", "properties": { "Line": 113, "TRAS": 3700, "x": "6.57969300000e+05", "y": "9.21480030000e+06" }, "geometry": { "type": "Point", "coordinates": [ 112.430386217751661, -7.101378136683713 ] } },
{ "type": "Feature", "properties": { "Line": 113, "TRAS": 3800, "x": "6.59219300000e+05", "y": "9.21480030000e+06" }, "geometry": { "type": "Point", "coordinates": [ 112.441702332324695, -7.101343104267846 ] } },
{ "type": "Feature", "properties": { "Line": 115, "TRAS": 1100, "x": "6.25819300000e+05", "y": "9.21580030000e+06" }, "geometry": { "type": "Point", "coordinates": [ 112.139295184214788, -7.093140244222064 ] } },
{ "type": "Feature", "properties": { "Line": 115, "TRAS": 1200, "x": "6.27069300000e+05", "y": "9.21580030000e+06" }, "geometry": { "type": "Point", "coordinates": [ 112.150612401281705, -7.093112344150673 ] } },
{ "type": "Feature", "properties": { "Line": 115, "TRAS": 1300, "x": "6.28319300000e+05", "y": "9.21580030000e+06" }, "geometry": { "type": "Point", "coordinates": [ 112.161929572473241, -7.093084168450791 ] } },
{ "type": "Feature", "properties": { "Line": 115, "TRAS": 1400, "x": "6.29569300000e+05", "y": "9.21580030000e+06" }, "geometry": { "type": "Point", "coordinates": [ 112.173246697338428, -7.093055717127887 ] } },
{ "type": "Feature", "properties": { "Line": 115, "TRAS": 1500, "x": "6.30819300000e+05", "y": "9.21580039000e+06" }, "geometry": { "type": "Point", "coordinates": [ 112.184563773345843, -7.093026176229047 ] } },
{ "type": "Feature", "properties": { "Line": 115, "TRAS": 1600, "x": "6.32069300000e+05", "y": "9.21580039000e+06" }, "geometry": { "type": "Point", "coordinates": [ 112.195880804185634, -7.092997173680079 ] } },
{ "type": "Feature", "properties": { "Line": 115, "TRAS": 1700, "x": "6.33319300000e+05", "y": "9.21580039000e+06" }, "geometry": { "type": "Point", "coordinates": [ 112.207197787346274, -7.092967895524847 ] } },
{ "type": "Feature", "properties": { "Line": 115, "TRAS": 1800, "x": "6.34569300000e+05", "y": "9.21580039000e+06" }, "geometry": { "type": "Point", "coordinates": [ 112.21851472237681, -7.092938341769034 ] } },
{ "type": "Feature", "properties": { "Line": 115, "TRAS": 1900, "x": "6.35819300000e+05", "y": "9.21580039000e+06" }, "geometry": { "type": "Point", "coordinates": [ 112.229831608826331, -7.092908512418373 ] } },
{ "type": "Feature", "properties": { "Line": 115, "TRAS": 2000, "x": "6.37069300000e+05", "y": "9.21580039000e+06" }, "geometry": { "type": "Point", "coordinates": [ 112.241148446243926, -7.092878407478655 ] } },
{ "type": "Feature", "properties": { "Line": 115, "TRAS": 2100, "x": "6.38319300000e+05", "y": "9.21580039000e+06" }, "geometry": { "type": "Point", "coordinates": [ 112.252465234178715, -7.092848026955722 ] } },
{ "type": "Feature", "properties": { "Line": 115, "TRAS": 2200, "x": "6.39569300000e+05", "y": "9.21580039000e+06" }, "geometry": { "type": "Point", "coordinates": [ 112.263781972179814, -7.09281737085547 ] } },
{ "type": "Feature", "properties": { "Line": 115, "TRAS": 2300, "x": "6.40819300000e+05", "y": "9.21580039000e+06" }, "geometry": { "type": "Point", "coordinates": [ 112.275098659796356, -7.092786439183849 ] } },
{ "type": "Feature", "properties": { "Line": 115, "TRAS": 2400, "x": "6.42069300000e+05", "y": "9.21580039000e+06" }, "geometry": { "type": "Point", "coordinates": [ 112.286415296577459, -7.092755231946859 ] } },
{ "type": "Feature", "properties": { "Line": 115, "TRAS": 2500, "x": "6.43319300000e+05", "y": "9.21580039000e+06" }, "geometry": { "type": "Point", "coordinates": [ 112.297731882072256, -7.092723749150559 ] } },
{ "type": "Feature", "properties": { "Line": 115, "TRAS": 2600, "x": "6.44569300000e+05", "y": "9.21580039000e+06" }, "geometry": { "type": "Point", "coordinates": [ 112.309048415829935, -7.092691990801057 ] } },
{ "type": "Feature", "properties": { "Line": 115, "TRAS": 2700, "x": "6.45819300000e+05", "y": "9.21580039000e+06" }, "geometry": { "type": "Point", "coordinates": [ 112.320364897399642, -7.092659956904516 ] } },
{ "type": "Feature", "properties": { "Line": 115, "TRAS": 2800, "x": "6.47069300000e+05", "y": "9.21580039000e+06" }, "geometry": { "type": "Point", "coordinates": [ 112.331681326330553, -7.092627647467152 ] } },
{ "type": "Feature", "properties": { "Line": 115, "TRAS": 2900, "x": "6.48319300000e+05", "y": "9.21580039000e+06" }, "geometry": { "type": "Point", "coordinates": [ 112.342997702171886, -7.092595062495236 ] } },
{ "type": "Feature", "properties": { "Line": 115, "TRAS": 3000, "x": "6.49569300000e+05", "y": "9.21580039000e+06" }, "geometry": { "type": "Point", "coordinates": [ 112.354314024472814, -7.09256220199509 ] } },
{ "type": "Feature", "properties": { "Line": 115, "TRAS": 3100, "x": "6.50819300000e+05", "y": "9.21580039000e+06" }, "geometry": { "type": "Point", "coordinates": [ 112.365630292782527, -7.092529065973092 ] } },
{ "type": "Feature", "properties": { "Line": 115, "TRAS": 3200, "x": "6.52069300000e+05", "y": "9.21580030000e+06" }, "geometry": { "type": "Point", "coordinates": [ 112.376946509068418, -7.092496468332626 ] } },
{ "type": "Feature", "properties": { "Line": 115, "TRAS": 3300, "x": "6.53319300000e+05", "y": "9.21580030000e+06" }, "geometry": { "type": "Point", "coordinates": [ 112.388262668063291, -7.092462781282359 ] } },
{ "type": "Feature", "properties": { "Line": 115, "TRAS": 3400, "x": "6.54569300000e+05", "y": "9.21580030000e+06" }, "geometry": { "type": "Point", "coordinates": [ 112.399578771714658, -7.092428818729658 ] } },
{ "type": "Feature", "properties": { "Line": 115, "TRAS": 3500, "x": "6.55819300000e+05", "y": "9.21580030000e+06" }, "geometry": { "type": "Point", "coordinates": [ 112.410894819571809, -7.092394580681112 ] } },
{ "type": "Feature", "properties": { "Line": 115, "TRAS": 3600, "x": "6.57069300000e+05", "y": "9.21580030000e+06" }, "geometry": { "type": "Point", "coordinates": [ 112.422210811183959, -7.092360067143363 ] } },
{ "type": "Feature", "properties": { "Line": 115, "TRAS": 3700, "x": "6.58319300000e+05", "y": "9.21580030000e+06" }, "geometry": { "type": "Point", "coordinates": [ 112.433526746100412, -7.09232527812311 ] } },
{ "type": "Feature", "properties": { "Line": 115, "TRAS": 3800, "x": "6.59569300000e+05", "y": "9.21580030000e+06" }, "geometry": { "type": "Point", "coordinates": [ 112.444842623870457, -7.092290213627103 ] } },
{ "type": "Feature", "properties": { "Line": 117, "TRAS": 1100, "x": "6.25269300000e+05", "y": "9.21680030000e+06" }, "geometry": { "type": "Point", "coordinates": [ 112.134293472351914, -7.084108286953576 ] } },
{ "type": "Feature", "properties": { "Line": 117, "TRAS": 1200, "x": "6.26519300000e+05", "y": "9.21680030000e+06" }, "geometry": { "type": "Point", "coordinates": [ 112.145610488864307, -7.08408054392931 ] } },
{ "type": "Feature", "properties": { "Line": 117, "TRAS": 1300, "x": "6.27769300000e+05", "y": "9.21680030000e+06" }, "geometry": { "type": "Point", "coordinates": [ 112.15692745970415, -7.084052525629071 ] } },
{ "type": "Feature", "properties": { "Line": 117, "TRAS": 1400, "x": "6.29019300000e+05", "y": "9.21680030000e+06" }, "geometry": { "type": "Point", "coordinates": [ 112.168244384420476, -7.084024232058298 ] } },
{ "type": "Feature", "properties": { "Line": 117, "TRAS": 1500, "x": "6.30269300000e+05", "y": "9.21680030000e+06" }, "geometry": { "type": "Point", "coordinates": [ 112.179561262562402, -7.08399566322248 ] } },
{ "type": "Feature", "properties": { "Line": 117, "TRAS": 1600, "x": "6.31519300000e+05", "y": "9.21680039000e+06" }, "geometry": { "type": "Point", "coordinates": [ 112.190878091590136, -7.083966005170281 ] } },
{ "type": "Feature", "properties": { "Line": 117, "TRAS": 1700, "x": "6.32769300000e+05", "y": "9.21680039000e+06" }, "geometry": { "type": "Point", "coordinates": [ 112.202194875210694, -7.083936885824443 ] } },
{ "type": "Feature", "properties": { "Line": 117, "TRAS": 1800, "x": "6.34019300000e+05", "y": "9.21680039000e+06" }, "geometry": { "type": "Point", "coordinates": [ 112.213511610904149, -7.083907491230386 ] } },
{ "type": "Feature", "properties": { "Line": 117, "TRAS": 1900, "x": "6.35269300000e+05", "y": "9.21680039000e+06" }, "geometry": { "type": "Point", "coordinates": [ 112.224828298219634, -7.083877821393815 ] } },
{ "type": "Feature", "properties": { "Line": 117, "TRAS": 2000, "x": "6.36519300000e+05", "y": "9.21680039000e+06" }, "geometry": { "type": "Point", "coordinates": [ 112.236144936706268, -7.08384787632049 ] } },
{ "type": "Feature", "properties": { "Line": 117, "TRAS": 2100, "x": "6.37769300000e+05", "y": "9.21680039000e+06" }, "geometry": { "type": "Point", "coordinates": [ 112.247461525913224, -7.083817656016219 ] } },
{ "type": "Feature", "properties": { "Line": 117, "TRAS": 2200, "x": "6.39019300000e+05", "y": "9.21680039000e+06" }, "geometry": { "type": "Point", "coordinates": [ 112.25877806538962, -7.083787160486869 ] } },
{ "type": "Feature", "properties": { "Line": 117, "TRAS": 2300, "x": "6.40269300000e+05", "y": "9.21680039000e+06" }, "geometry": { "type": "Point", "coordinates": [ 112.270094554684661, -7.083756389738357 ] } },
{ "type": "Feature", "properties": { "Line": 117, "TRAS": 2400, "x": "6.41519300000e+05", "y": "9.21680039000e+06" }, "geometry": { "type": "Point", "coordinates": [ 112.281410993347478, -7.083725343776655 ] } },
{ "type": "Feature", "properties": { "Line": 117, "TRAS": 2500, "x": "6.42769300000e+05", "y": "9.21680039000e+06" }, "geometry": { "type": "Point", "coordinates": [ 112.292727380927289, -7.083694022607787 ] } },
{ "type": "Feature", "properties": { "Line": 117, "TRAS": 2600, "x": "6.44019300000e+05", "y": "9.21680039000e+06" }, "geometry": { "type": "Point", "coordinates": [ 112.304043716973268, -7.083662426237832 ] } },
{ "type": "Feature", "properties": { "Line": 117, "TRAS": 2700, "x": "6.45269300000e+05", "y": "9.21680039000e+06" }, "geometry": { "type": "Point", "coordinates": [ 112.315360001034648, -7.08363055467292 ] } },
{ "type": "Feature", "properties": { "Line": 117, "TRAS": 2800, "x": "6.46519300000e+05", "y": "9.21680039000e+06" }, "geometry": { "type": "Point", "coordinates": [ 112.326676232660603, -7.083598407919236 ] } },
{ "type": "Feature", "properties": { "Line": 117, "TRAS": 2900, "x": "6.47769300000e+05", "y": "9.21680039000e+06" }, "geometry": { "type": "Point", "coordinates": [ 112.337992411400379, -7.08356598598302 ] } },
{ "type": "Feature", "properties": { "Line": 117, "TRAS": 3000, "x": "6.49019300000e+05", "y": "9.21680039000e+06" }, "geometry": { "type": "Point", "coordinates": [ 112.349308536803221, -7.083533288870561 ] } },
{ "type": "Feature", "properties": { "Line": 117, "TRAS": 3100, "x": "6.50269300000e+05", "y": "9.21680039000e+06" }, "geometry": { "type": "Point", "coordinates": [ 112.360624608418377, -7.083500316588204 ] } },
{ "type": "Feature", "properties": { "Line": 117, "TRAS": 3200, "x": "6.51519300000e+05", "y": "9.21680030000e+06" }, "geometry": { "type": "Point", "coordinates": [ 112.37194062820133, -7.083467883041338 ] } },
{ "type": "Feature", "properties": { "Line": 117, "TRAS": 3300, "x": "6.52769300000e+05", "y": "9.21680030000e+06" }, "geometry": { "type": "Point", "coordinates": [ 112.383256590908715, -7.083434360434543 ] } },
{ "type": "Feature", "properties": { "Line": 117, "TRAS": 3400, "x": "6.54019300000e+05", "y": "9.21680030000e+06" }, "geometry": { "type": "Point", "coordinates": [ 112.394572498476222, -7.083400562677174 ] } },
{ "type": "Feature", "properties": { "Line": 117, "TRAS": 3500, "x": "6.55269300000e+05", "y": "9.21680030000e+06" }, "geometry": { "type": "Point", "coordinates": [ 112.405888350453139, -7.083366489775787 ] } },
{ "type": "Feature", "properties": { "Line": 117, "TRAS": 3600, "x": "6.56519300000e+05", "y": "9.21680030000e+06" }, "geometry": { "type": "Point", "coordinates": [ 112.417204146388769, -7.083332141736994 ] } },
{ "type": "Feature", "properties": { "Line": 117, "TRAS": 3700, "x": "6.57769300000e+05", "y": "9.21680030000e+06" }, "geometry": { "type": "Point", "coordinates": [ 112.428519885832429, -7.083297518567459 ] } },
{ "type": "Feature", "properties": { "Line": 117, "TRAS": 3800, "x": "6.59019300000e+05", "y": "9.21680030000e+06" }, "geometry": { "type": "Point", "coordinates": [ 112.439835568333422, -7.083262620273901 ] } },
{ "type": "Feature", "properties": { "Line": 119, "TRAS": 1100, "x": "6.24319300000e+05", "y": "9.21780030000e+06" }, "geometry": { "type": "Point", "coordinates": [ 112.125670583976785, -7.075085011040865 ] } },
{ "type": "Feature", "properties": { "Line": 119, "TRAS": 1200, "x": "6.25569300000e+05", "y": "9.21780030000e+06" }, "geometry": { "type": "Point", "coordinates": [ 112.136987414587267, -7.075057512727753 ] } },
{ "type": "Feature", "properties": { "Line": 119, "TRAS": 1300, "x": "6.26819300000e+05", "y": "9.21780030000e+06" }, "geometry": { "type": "Point", "coordinates": [ 112.1483041998722, -7.075029739489471 ] } },
{ "type": "Feature", "properties": { "Line": 119, "TRAS": 1400, "x": "6.28069300000e+05", "y": "9.21780030000e+06" }, "geometry": { "type": "Point", "coordinates": [ 112.159620939380744, -7.07500169133141 ] } },
{ "type": "Feature", "properties": { "Line": 119, "TRAS": 1500, "x": "6.29319300000e+05", "y": "9.21780030000e+06" }, "geometry": { "type": "Point", "coordinates": [ 112.170937632661989, -7.074973368259012 ] } },
{ "type": "Feature", "properties": { "Line": 119, "TRAS": 1600, "x": "6.30569300000e+05", "y": "9.21780039000e+06" }, "geometry": { "type": "Point", "coordinates": [ 112.182254277193991, -7.074943956318021 ] } },
{ "type": "Feature", "properties": { "Line": 119, "TRAS": 1700, "x": "6.31819300000e+05", "y": "9.21780039000e+06" }, "geometry": { "type": "Point", "coordinates": [ 112.193570876648238, -7.074915083436847 ] } },
{ "type": "Feature", "properties": { "Line": 119, "TRAS": 1800, "x": "6.33069300000e+05", "y": "9.21780039000e+06" }, "geometry": { "type": "Point", "coordinates": [ 112.204887428522611, -7.074885935658018 ] } },
{ "type": "Feature", "properties": { "Line": 119, "TRAS": 1900, "x": "6.34319300000e+05", "y": "9.21780039000e+06" }, "geometry": { "type": "Point", "coordinates": [ 112.21620393236627, -7.07485651298719 ] } },
{ "type": "Feature", "properties": { "Line": 119, "TRAS": 2000, "x": "6.35569300000e+05", "y": "9.21780039000e+06" }, "geometry": { "type": "Point", "coordinates": [ 112.22752038772839, -7.074826815430074 ] } },
{ "type": "Feature", "properties": { "Line": 119, "TRAS": 2100, "x": "6.36819300000e+05", "y": "9.21780039000e+06" }, "geometry": { "type": "Point", "coordinates": [ 112.238836794158146, -7.074796842992433 ] } },
{ "type": "Feature", "properties": { "Line": 119, "TRAS": 2200, "x": "6.38069300000e+05", "y": "9.21780039000e+06" }, "geometry": { "type": "Point", "coordinates": [ 112.250153151204728, -7.074766595680083 ] } },
{ "type": "Feature", "properties": { "Line": 119, "TRAS": 2300, "x": "6.39319300000e+05", "y": "9.21780039000e+06" }, "geometry": { "type": "Point", "coordinates": [ 112.261469458417338, -7.074736073498895 ] } },
{ "type": "Feature", "properties": { "Line": 119, "TRAS": 2400, "x": "6.40569300000e+05", "y": "9.21780039000e+06" }, "geometry": { "type": "Point", "coordinates": [ 112.272785715345194, -7.07470527645479 ] } },
{ "type": "Feature", "properties": { "Line": 119, "TRAS": 2500, "x": "6.41819300000e+05", "y": "9.21780039000e+06" }, "geometry": { "type": "Point", "coordinates": [ 112.284101921537484, -7.074674204553745 ] } },
{ "type": "Feature", "properties": { "Line": 119, "TRAS": 2600, "x": "6.43069300000e+05", "y": "9.21780039000e+06" }, "geometry": { "type": "Point", "coordinates": [ 112.29541807654347, -7.07464285780179 ] } },
{ "type": "Feature", "properties": { "Line": 119, "TRAS": 2700, "x": "6.44319300000e+05", "y": "9.21780039000e+06" }, "geometry": { "type": "Point", "coordinates": [ 112.306734179912368, -7.074611236205008 ] } },
{ "type": "Feature", "properties": { "Line": 119, "TRAS": 2800, "x": "6.45569300000e+05", "y": "9.21780039000e+06" }, "geometry": { "type": "Point", "coordinates": [ 112.318050231193453, -7.074579339769534 ] } },
{ "type": "Feature", "properties": { "Line": 119, "TRAS": 2900, "x": "6.46819300000e+05", "y": "9.21780039000e+06" }, "geometry": { "type": "Point", "coordinates": [ 112.329366229935999, -7.074547168501559 ] } },
{ "type": "Feature", "properties": { "Line": 119, "TRAS": 3000, "x": "6.48069300000e+05", "y": "9.21780039000e+06" }, "geometry": { "type": "Point", "coordinates": [ 112.340682175689224, -7.074514722407324 ] } },
{ "type": "Feature", "properties": { "Line": 119, "TRAS": 3100, "x": "6.49319300000e+05", "y": "9.21780039000e+06" }, "geometry": { "type": "Point", "coordinates": [ 112.351998068002459, -7.074482001493126 ] } },
{ "type": "Feature", "properties": { "Line": 119, "TRAS": 3200, "x": "6.50569300000e+05", "y": "9.21780039000e+06" }, "geometry": { "type": "Point", "coordinates": [ 112.363313906424963, -7.074449005765315 ] } },
{ "type": "Feature", "properties": { "Line": 119, "TRAS": 3300, "x": "6.51819300000e+05", "y": "9.21780030000e+06" }, "geometry": { "type": "Point", "coordinates": [ 112.374629692913913, -7.074416549128673 ] } },
{ "type": "Feature", "properties": { "Line": 119, "TRAS": 3400, "x": "6.53069300000e+05", "y": "9.21780030000e+06" }, "geometry": { "type": "Point", "coordinates": [ 112.385945422222733, -7.074383003788996 ] } },
{ "type": "Feature", "properties": { "Line": 119, "TRAS": 3500, "x": "6.54319300000e+05", "y": "9.21780030000e+06" }, "geometry": { "type": "Point", "coordinates": [ 112.397261096288773, -7.074349183655039 ] } },
{ "type": "Feature", "properties": { "Line": 119, "TRAS": 3600, "x": "6.55569300000e+05", "y": "9.21780030000e+06" }, "geometry": { "type": "Point", "coordinates": [ 112.408576714661393, -7.074315088733366 ] } },
{ "type": "Feature", "properties": { "Line": 119, "TRAS": 3700, "x": "6.56819300000e+05", "y": "9.21780030000e+06" }, "geometry": { "type": "Point", "coordinates": [ 112.419892276889939, -7.074280719030591 ] } },
{ "type": "Feature", "properties": { "Line": 119, "TRAS": 3800, "x": "6.58069300000e+05", "y": "9.21780030000e+06" }, "geometry": { "type": "Point", "coordinates": [ 112.431207782523757, -7.074246074553382 ] } },
{ "type": "Feature", "properties": { "Line": 121, "TRAS": 1100, "x": "6.24219300000e+05", "y": "9.21880030000e+06" }, "geometry": { "type": "Point", "coordinates": [ 112.124743356347835, -7.066043016128912 ] } },
{ "type": "Feature", "properties": { "Line": 121, "TRAS": 1200, "x": "6.25469300000e+05", "y": "9.21880030000e+06" }, "geometry": { "type": "Point", "coordinates": [ 112.136059970541595, -7.066015575278144 ] } },
{ "type": "Feature", "properties": { "Line": 121, "TRAS": 1300, "x": "6.26719300000e+05", "y": "9.21880030000e+06" }, "geometry": { "type": "Point", "coordinates": [ 112.147376539450249, -7.065987859856663 ] } },
{ "type": "Feature", "properties": { "Line": 121, "TRAS": 1400, "x": "6.27969300000e+05", "y": "9.21880030000e+06" }, "geometry": { "type": "Point", "coordinates": [ 112.15869306262293, -7.065959869869848 ] } },
{ "type": "Feature", "properties": { "Line": 121, "TRAS": 1500, "x": "6.29219300000e+05", "y": "9.21880030000e+06" }, "geometry": { "type": "Point", "coordinates": [ 112.170009539608785, -7.065931605323131 ] } },
{ "type": "Feature", "properties": { "Line": 121, "TRAS": 1600, "x": "6.30469300000e+05", "y": "9.21880039000e+06" }, "geometry": { "type": "Point", "coordinates": [ 112.181325967890231, -7.065902252261655 ] } },
{ "type": "Feature", "properties": { "Line": 121, "TRAS": 1700, "x": "6.31719300000e+05", "y": "9.21880039000e+06" }, "geometry": { "type": "Point", "coordinates": [ 112.192642351130218, -7.065873438614996 ] } },
{ "type": "Feature", "properties": { "Line": 121, "TRAS": 1800, "x": "6.32969300000e+05", "y": "9.21880039000e+06" }, "geometry": { "type": "Point", "coordinates": [ 112.203958686830944, -7.065844350425081 ] } },
{ "type": "Feature", "properties": { "Line": 121, "TRAS": 1900, "x": "6.34219300000e+05", "y": "9.21880039000e+06" }, "geometry": { "type": "Point", "coordinates": [ 112.215274974541614, -7.065814987697555 ] } },
{ "type": "Feature", "properties": { "Line": 121, "TRAS": 2000, "x": "6.35469300000e+05", "y": "9.21880039000e+06" }, "geometry": { "type": "Point", "coordinates": [ 112.226591213811446, -7.065785350438119 ] } },
{ "type": "Feature", "properties": { "Line": 121, "TRAS": 2100, "x": "6.36719300000e+05", "y": "9.21880039000e+06" }, "geometry": { "type": "Point", "coordinates": [ 112.237907404189642, -7.065755438652523 ] } },
{ "type": "Feature", "properties": { "Line": 121, "TRAS": 2200, "x": "6.37969300000e+05", "y": "9.21880039000e+06" }, "geometry": { "type": "Point", "coordinates": [ 112.249223545225448, -7.065725252346571 ] } },
{ "type": "Feature", "properties": { "Line": 121, "TRAS": 2300, "x": "6.39219300000e+05", "y": "9.21880039000e+06" }, "geometry": { "type": "Point", "coordinates": [ 112.26053963646811, -7.06569479152612 ] } },
{ "type": "Feature", "properties": { "Line": 121, "TRAS": 2400, "x": "6.40469300000e+05", "y": "9.21880039000e+06" }, "geometry": { "type": "Point", "coordinates": [ 112.271855677466874, -7.065664056197083 ] } },
{ "type": "Feature", "properties": { "Line": 121, "TRAS": 2500, "x": "6.41719300000e+05", "y": "9.21880039000e+06" }, "geometry": { "type": "Point", "coordinates": [ 112.283171667770986, -7.065633046365424 ] } },
{ "type": "Feature", "properties": { "Line": 121, "TRAS": 2600, "x": "6.42969300000e+05", "y": "9.21880039000e+06" }, "geometry": { "type": "Point", "coordinates": [ 112.294487606929749, -7.065601762037157 ] } },
{ "type": "Feature", "properties": { "Line": 121, "TRAS": 2700, "x": "6.44219300000e+05", "y": "9.21880039000e+06" }, "geometry": { "type": "Point", "coordinates": [ 112.305803494492423, -7.065570203218357 ] } },
{ "type": "Feature", "properties": { "Line": 121, "TRAS": 2800, "x": "6.45469300000e+05", "y": "9.21880039000e+06" }, "geometry": { "type": "Point", "coordinates": [ 112.317119330008296, -7.065538369915146 ] } },
{ "type": "Feature", "properties": { "Line": 121, "TRAS": 2900, "x": "6.46719300000e+05", "y": "9.21880039000e+06" }, "geometry": { "type": "Point", "coordinates": [ 112.328435113026686, -7.0655062621337 ] } },
{ "type": "Feature", "properties": { "Line": 121, "TRAS": 3000, "x": "6.47969300000e+05", "y": "9.21880039000e+06" }, "geometry": { "type": "Point", "coordinates": [ 112.339750843096922, -7.06547387988025 ] } },
{ "type": "Feature", "properties": { "Line": 121, "TRAS": 3100, "x": "6.49219300000e+05", "y": "9.21880039000e+06" }, "geometry": { "type": "Point", "coordinates": [ 112.351066519768295, -7.065441223161081 ] } },
{ "type": "Feature", "properties": { "Line": 121, "TRAS": 3200, "x": "6.50469300000e+05", "y": "9.21880039000e+06" }, "geometry": { "type": "Point", "coordinates": [ 112.36238214259015, -7.065408291982527 ] } },
{ "type": "Feature", "properties": { "Line": 121, "TRAS": 3300, "x": "6.51719300000e+05", "y": "9.21880030000e+06" }, "geometry": { "type": "Point", "coordinates": [ 112.373697713514971, -7.065375900249998 ] } },
{ "type": "Feature", "properties": { "Line": 121, "TRAS": 3400, "x": "6.52969300000e+05", "y": "9.21880030000e+06" }, "geometry": { "type": "Point", "coordinates": [ 112.385013227305635, -7.065342420168003 ] } },
{ "type": "Feature", "properties": { "Line": 121, "TRAS": 3500, "x": "6.54219300000e+05", "y": "9.21880030000e+06" }, "geometry": { "type": "Point", "coordinates": [ 112.396328685894872, -7.065308665645922 ] } },
{ "type": "Feature", "properties": { "Line": 121, "TRAS": 3600, "x": "6.55469300000e+05", "y": "9.21880030000e+06" }, "geometry": { "type": "Point", "coordinates": [ 112.407644088832058, -7.065274636690303 ] } },
{ "type": "Feature", "properties": { "Line": 121, "TRAS": 3700, "x": "6.56719300000e+05", "y": "9.21880030000e+06" }, "geometry": { "type": "Point", "coordinates": [ 112.418959435666579, -7.065240333307748 ] } },
{ "type": "Feature", "properties": { "Line": 123, "TRAS": 1100, "x": "6.24169300000e+05", "y": "9.21980030000e+06" }, "geometry": { "type": "Point", "coordinates": [ 112.124268849092388, -7.056999920172598 ] } },
{ "type": "Feature", "properties": { "Line": 123, "TRAS": 1200, "x": "6.25419300000e+05", "y": "9.21980030000e+06" }, "geometry": { "type": "Point", "coordinates": [ 112.135585245353298, -7.056972525757352 ] } },
{ "type": "Feature", "properties": { "Line": 123, "TRAS": 1300, "x": "6.26669300000e+05", "y": "9.21980030000e+06" }, "geometry": { "type": "Point", "coordinates": [ 112.146901596351427, -7.056944857126053 ] } },
{ "type": "Feature", "properties": { "Line": 123, "TRAS": 1400, "x": "6.27919300000e+05", "y": "9.21980030000e+06" }, "geometry": { "type": "Point", "coordinates": [ 112.158217901635979, -7.05691691428407 ] } },
{ "type": "Feature", "properties": { "Line": 123, "TRAS": 1500, "x": "6.29169300000e+05", "y": "9.21980030000e+06" }, "geometry": { "type": "Point", "coordinates": [ 112.169534160756172, -7.056888697236826 ] } },
{ "type": "Feature", "properties": { "Line": 123, "TRAS": 1600, "x": "6.30419300000e+05", "y": "9.21980039000e+06" }, "geometry": { "type": "Point", "coordinates": [ 112.18085037119792, -7.056859392029001 ] } },
{ "type": "Feature", "properties": { "Line": 123, "TRAS": 1700, "x": "6.31669300000e+05", "y": "9.21980039000e+06" }, "geometry": { "type": "Point", "coordinates": [ 112.192166536617279, -7.056830626591067 ] } },
{ "type": "Feature", "properties": { "Line": 123, "TRAS": 1800, "x": "6.32919300000e+05", "y": "9.21980039000e+06" }, "geometry": { "type": "Point", "coordinates": [ 112.203482654519945, -7.05680158696449 ] } },
{ "type": "Feature", "properties": { "Line": 123, "TRAS": 1900, "x": "6.34169300000e+05", "y": "9.21980039000e+06" }, "geometry": { "type": "Point", "coordinates": [ 112.21479872445515, -7.056772273154909 ] } },
{ "type": "Feature", "properties": { "Line": 123, "TRAS": 2000, "x": "6.35419300000e+05", "y": "9.21980039000e+06" }, "geometry": { "type": "Point", "coordinates": [ 112.226114745972154, -7.056742685168008 ] } },
{ "type": "Feature", "properties": { "Line": 123, "TRAS": 2100, "x": "6.36669300000e+05", "y": "9.21980039000e+06" }, "geometry": { "type": "Point", "coordinates": [ 112.23743071862026, -7.056712823009531 ] } },
{ "type": "Feature", "properties": { "Line": 123, "TRAS": 2200, "x": "6.37919300000e+05", "y": "9.21980039000e+06" }, "geometry": { "type": "Point", "coordinates": [ 112.248746641948699, -7.056682686685273 ] } },
{ "type": "Feature", "properties": { "Line": 123, "TRAS": 2300, "x": "6.39169300000e+05", "y": "9.21980039000e+06" }, "geometry": { "type": "Point", "coordinates": [ 112.26006251550676, -7.056652276201081 ] } },
{ "type": "Feature", "properties": { "Line": 123, "TRAS": 2400, "x": "6.40419300000e+05", "y": "9.21980039000e+06" }, "geometry": { "type": "Point", "coordinates": [ 112.271378338843746, -7.056621591562857 ] } },
{ "type": "Feature", "properties": { "Line": 123, "TRAS": 2500, "x": "6.41669300000e+05", "y": "9.21980039000e+06" }, "geometry": { "type": "Point", "coordinates": [ 112.28269411150896, -7.056590632776555 ] } },
{ "type": "Feature", "properties": { "Line": 123, "TRAS": 2600, "x": "6.42919300000e+05", "y": "9.21980039000e+06" }, "geometry": { "type": "Point", "coordinates": [ 112.294009833051732, -7.05655939984818 ] } },
{ "type": "Feature", "properties": { "Line": 123, "TRAS": 2700, "x": "6.44169300000e+05", "y": "9.21980039000e+06" }, "geometry": { "type": "Point", "coordinates": [ 112.305325503021365, -7.056527892783797 ] } },
{ "type": "Feature", "properties": { "Line": 123, "TRAS": 2800, "x": "6.45419300000e+05", "y": "9.21980039000e+06" }, "geometry": { "type": "Point", "coordinates": [ 112.316641120967205, -7.056496111589516 ] } },
{ "type": "Feature", "properties": { "Line": 123, "TRAS": 2900, "x": "6.46669300000e+05", "y": "9.21980039000e+06" }, "geometry": { "type": "Point", "coordinates": [ 112.327956686438583, -7.056464056271505 ] } },
{ "type": "Feature", "properties": { "Line": 123, "TRAS": 3000, "x": "6.47919300000e+05", "y": "9.21980039000e+06" }, "geometry": { "type": "Point", "coordinates": [ 112.339272198984887, -7.056431726835984 ] } },
{ "type": "Feature", "properties": { "Line": 123, "TRAS": 3100, "x": "6.49169300000e+05", "y": "9.21980039000e+06" }, "geometry": { "type": "Point", "coordinates": [ 112.350587658155447, -7.056399123289225 ] } },
{ "type": "Feature", "properties": { "Line": 123, "TRAS": 3200, "x": "6.50419300000e+05", "y": "9.21980039000e+06" }, "geometry": { "type": "Point", "coordinates": [ 112.361903063499668, -7.056366245637556 ] } },
{ "type": "Feature", "properties": { "Line": 123, "TRAS": 3300, "x": "6.51669300000e+05", "y": "9.21980030000e+06" }, "geometry": { "type": "Point", "coordinates": [ 112.373218416966097, -7.056333907786853 ] } },
{ "type": "Feature", "properties": { "Line": 123, "TRAS": 3400, "x": "6.52919300000e+05", "y": "9.21980030000e+06" }, "geometry": { "type": "Point", "coordinates": [ 112.384533713325553, -7.056300481940658 ] } },
{ "type": "Feature", "properties": { "Line": 125, "TRAS": 1100, "x": "6.26369300000e+05", "y": "9.22080030000e+06" }, "geometry": { "type": "Point", "coordinates": [ 112.144163476968743, -7.047907393794834 ] } },
{ "type": "Feature", "properties": { "Line": 125, "TRAS": 1200, "x": "6.27619300000e+05", "y": "9.22080030000e+06" }, "geometry": { "type": "Point", "coordinates": [ 112.155479573826923, -7.047879552838737 ] } },
{ "type": "Feature", "properties": { "Line": 125, "TRAS": 1300, "x": "6.28869300000e+05", "y": "9.22080030000e+06" }, "geometry": { "type": "Point", "coordinates": [ 112.166795624633309, -7.047851438030921 ] } },
{ "type": "Feature", "properties": { "Line": 125, "TRAS": 1400, "x": "6.30119300000e+05", "y": "9.22080030000e+06" }, "geometry": { "type": "Point", "coordinates": [ 112.178111628937174, -7.047823049376842 ] } },
{ "type": "Feature", "properties": { "Line": 125, "TRAS": 1500, "x": "6.31369300000e+05", "y": "9.22080039000e+06" }, "geometry": { "type": "Point", "coordinates": [ 112.189427584212183, -7.047793572923435 ] } },
{ "type": "Feature", "properties": { "Line": 125, "TRAS": 1600, "x": "6.32619300000e+05", "y": "9.22080039000e+06" }, "geometry": { "type": "Point", "coordinates": [ 112.200743494139061, -7.047764636596784 ] } },
{ "type": "Feature", "properties": { "Line": 125, "TRAS": 1700, "x": "6.33869300000e+05", "y": "9.22080039000e+06" }, "geometry": { "type": "Point", "coordinates": [ 112.212059356211228, -7.047735426440587 ] } },
{ "type": "Feature", "properties": { "Line": 125, "TRAS": 1800, "x": "6.35119300000e+05", "y": "9.22080039000e+06" }, "geometry": { "type": "Point", "coordinates": [ 112.223375169977984, -7.047705942460515 ] } },
{ "type": "Feature", "properties": { "Line": 125, "TRAS": 1900, "x": "6.36369300000e+05", "y": "9.22080039000e+06" }, "geometry": { "type": "Point", "coordinates": [ 112.23469093498862, -7.047676184662286 ] } },
{ "type": "Feature", "properties": { "Line": 125, "TRAS": 2000, "x": "6.37619300000e+05", "y": "9.22080039000e+06" }, "geometry": { "type": "Point", "coordinates": [ 112.246006650792481, -7.047646153051677 ] } },
{ "type": "Feature", "properties": { "Line": 125, "TRAS": 2100, "x": "6.38869300000e+05", "y": "9.22080039000e+06" }, "geometry": { "type": "Point", "coordinates": [ 112.257322316938883, -7.047615847634513 ] } },
{ "type": "Feature", "properties": { "Line": 125, "TRAS": 2200, "x": "6.40119300000e+05", "y": "9.22080039000e+06" }, "geometry": { "type": "Point", "coordinates": [ 112.268637932977157, -7.047585268416677 ] } },
{ "type": "Feature", "properties": { "Line": 125, "TRAS": 2300, "x": "6.41369300000e+05", "y": "9.22080039000e+06" }, "geometry": { "type": "Point", "coordinates": [ 112.279953498456635, -7.047554415404102 ] } },
{ "type": "Feature", "properties": { "Line": 125, "TRAS": 2400, "x": "6.42619300000e+05", "y": "9.22080039000e+06" }, "geometry": { "type": "Point", "coordinates": [ 112.291269012926691, -7.047523288602775 ] } },
{ "type": "Feature", "properties": { "Line": 125, "TRAS": 2500, "x": "6.43869300000e+05", "y": "9.22080039000e+06" }, "geometry": { "type": "Point", "coordinates": [ 112.302584475936683, -7.047491888018734 ] } },
{ "type": "Feature", "properties": { "Line": 125, "TRAS": 2600, "x": "6.45119300000e+05", "y": "9.22080039000e+06" }, "geometry": { "type": "Point", "coordinates": [ 112.313899887035987, -7.047460213658074 ] } },
{ "type": "Feature", "properties": { "Line": 125, "TRAS": 2700, "x": "6.46369300000e+05", "y": "9.22080039000e+06" }, "geometry": { "type": "Point", "coordinates": [ 112.32521524577399, -7.047428265526939 ] } },
{ "type": "Feature", "properties": { "Line": 125, "TRAS": 2800, "x": "6.47619300000e+05", "y": "9.22080039000e+06" }, "geometry": { "type": "Point", "coordinates": [ 112.336530551700079, -7.047396043631529 ] } },
{ "type": "Feature", "properties": { "Line": 125, "TRAS": 2900, "x": "6.48869300000e+05", "y": "9.22080039000e+06" }, "geometry": { "type": "Point", "coordinates": [ 112.347845804363672, -7.047363547978096 ] } },
{ "type": "Feature", "properties": { "Line": 125, "TRAS": 3000, "x": "6.50119300000e+05", "y": "9.22080039000e+06" }, "geometry": { "type": "Point", "coordinates": [ 112.359161003314185, -7.047330778572944 ] } },
{ "type": "Feature", "properties": { "Line": 125, "TRAS": 3100, "x": "6.51369300000e+05", "y": "9.22080030000e+06" }, "geometry": { "type": "Point", "coordinates": [ 112.370476150492337, -7.047298549323183 ] } },
{ "type": "Feature", "properties": { "Line": 125, "TRAS": 3200, "x": "6.52619300000e+05", "y": "9.22080030000e+06" }, "geometry": { "type": "Point", "coordinates": [ 112.38179124068472, -7.047265232429837 ] } }
]
}
