{
"type": "FeatureCollection",
"name": "D:\\Lamturo_GIS\\Label_per_100_line_genap.geojson",
"crs": { "type": "name", "properties": { "name": "urn:ogc:def:crs:OGC:1.3:CRS84" } },
"features": [
{ "type": "Feature", "properties": { "Line": 102, "TRAS": 1100, "x": "6.30300500000e+05", "y": "9.22473150000e+06" }, "geometry": { "type": "Point", "coordinates": [ 112.179662301847344, -7.01226504846172 ] } },
{ "type": "Feature", "properties": { "Line": 102, "TRAS": 1200, "x": "6.30300500000e+05", "y": "9.22348150000e+06" }, "geometry": { "type": "Point", "coordinates": [ 112.179690770454812, -7.023570083091331 ] } },
{ "type": "Feature", "properties": { "Line": 102, "TRAS": 1300, "x": "6.30300500000e+05", "y": "9.22223150000e+06" }, "geometry": { "type": "Point", "coordinates": [ 112.179719286068902, -7.034875112168789 ] } },
{ "type": "Feature", "properties": { "Line": 102, "TRAS": 1400, "x": "6.30300500000e+05", "y": "9.22098150000e+06" }, "geometry": { "type": "Point", "coordinates": [ 112.179747848695186, -7.046180135685328 ] } },
{ "type": "Feature", "properties": { "Line": 102, "TRAS": 1500, "x": "6.30300500000e+05", "y": "9.21973159000e+06" }, "geometry": { "type": "Point", "coordinates": [ 112.179776456277693, -7.057484339671092 ] } },
{ "type": "Feature", "properties": { "Line": 102, "TRAS": 1600, "x": "6.30300500000e+05", "y": "9.21848159000e+06" }, "geometry": { "type": "Point", "coordinates": [ 112.179805112941793, -7.068789352039905 ] } },
{ "type": "Feature", "properties": { "Line": 102, "TRAS": 1700, "x": "6.30300500000e+05", "y": "9.21723159000e+06" }, "geometry": { "type": "Point", "coordinates": [ 112.179833816634911, -7.080094358821512 ] } },
{ "type": "Feature", "properties": { "Line": 102, "TRAS": 1800, "x": "6.30300500000e+05", "y": "9.21598159000e+06" }, "geometry": { "type": "Point", "coordinates": [ 112.179862567362662, -7.091399360007152 ] } },
{ "type": "Feature", "properties": { "Line": 102, "TRAS": 1900, "x": "6.30300500000e+05", "y": "9.21473159000e+06" }, "geometry": { "type": "Point", "coordinates": [ 112.179891365130686, -7.102704355588067 ] } },
{ "type": "Feature", "properties": { "Line": 102, "TRAS": 2000, "x": "6.30300500000e+05", "y": "9.21348159000e+06" }, "geometry": { "type": "Point", "coordinates": [ 112.179920209944612, -7.114009345555496 ] } },
{ "type": "Feature", "properties": { "Line": 102, "TRAS": 2100, "x": "6.30300500000e+05", "y": "9.21223159000e+06" }, "geometry": { "type": "Point", "coordinates": [ 112.179949101810109, -7.125314329900683 ] } },
{ "type": "Feature", "properties": { "Line": 102, "TRAS": 2200, "x": "6.30300500000e+05", "y": "9.21098159000e+06" }, "geometry": { "type": "Point", "coordinates": [ 112.17997804073282, -7.136619308614869 ] } },
{ "type": "Feature", "properties": { "Line": 102, "TRAS": 2300, "x": "6.30300500000e+05", "y": "9.20973159000e+06" }, "geometry": { "type": "Point", "coordinates": [ 112.180007026718428, -7.147924281689297 ] } },
{ "type": "Feature", "properties": { "Line": 102, "TRAS": 2400, "x": "6.30300500000e+05", "y": "9.20848150000e+06" }, "geometry": { "type": "Point", "coordinates": [ 112.180036061864669, -7.159230063072664 ] } },
{ "type": "Feature", "properties": { "Line": 102, "TRAS": 2500, "x": "6.30300500000e+05", "y": "9.20723150000e+06" }, "geometry": { "type": "Point", "coordinates": [ 112.180065141996494, -7.170535024840903 ] } },
{ "type": "Feature", "properties": { "Line": 102, "TRAS": 2600, "x": "6.30300500000e+05", "y": "9.20598150000e+06" }, "geometry": { "type": "Point", "coordinates": [ 112.180094269208269, -7.181839980943123 ] } },
{ "type": "Feature", "properties": { "Line": 102, "TRAS": 2700, "x": "6.30300500000e+05", "y": "9.20473150000e+06" }, "geometry": { "type": "Point", "coordinates": [ 112.180123443505707, -7.193144931370568 ] } },
{ "type": "Feature", "properties": { "Line": 102, "TRAS": 2800, "x": "6.30300500000e+05", "y": "9.20348150000e+06" }, "geometry": { "type": "Point", "coordinates": [ 112.18015266489455, -7.204449876114481 ] } },
{ "type": "Feature", "properties": { "Line": 102, "TRAS": 2900, "x": "6.30300500000e+05", "y": "9.20223150000e+06" }, "geometry": { "type": "Point", "coordinates": [ 112.180181933380496, -7.21575481516612 ] } },
{ "type": "Feature", "properties": { "Line": 104, "TRAS": 1100, "x": "6.31300500000e+05", "y": "9.22578150000e+06" }, "geometry": { "type": "Point", "coordinates": [ 112.188690317764767, -7.00274602329314 ] } },
{ "type": "Feature", "properties": { "Line": 104, "TRAS": 1200, "x": "6.31300500000e+05", "y": "9.22453150000e+06" }, "geometry": { "type": "Point", "coordinates": [ 112.188718964915651, -7.014051025430178 ] } },
{ "type": "Feature", "properties": { "Line": 104, "TRAS": 1300, "x": "6.31300500000e+05", "y": "9.22328150000e+06" }, "geometry": { "type": "Point", "coordinates": [ 112.188747659428927, -7.02535602202071 ] } },
{ "type": "Feature", "properties": { "Line": 104, "TRAS": 1400, "x": "6.31300500000e+05", "y": "9.22203150000e+06" }, "geometry": { "type": "Point", "coordinates": [ 112.188776401310207, -7.036661013055967 ] } },
{ "type": "Feature", "properties": { "Line": 104, "TRAS": 1500, "x": "6.31300500000e+05", "y": "9.22078159000e+06" }, "geometry": { "type": "Point", "coordinates": [ 112.188805188490591, -7.047965184568428 ] } },
{ "type": "Feature", "properties": { "Line": 104, "TRAS": 1600, "x": "6.31300500000e+05", "y": "9.21953159000e+06" }, "geometry": { "type": "Point", "coordinates": [ 112.18883402512138, -7.059270164467233 ] } },
{ "type": "Feature", "properties": { "Line": 104, "TRAS": 1700, "x": "6.31300500000e+05", "y": "9.21828159000e+06" }, "geometry": { "type": "Point", "coordinates": [ 112.188862909137072, -7.070575138784468 ] } },
{ "type": "Feature", "properties": { "Line": 104, "TRAS": 1800, "x": "6.31300500000e+05", "y": "9.21703159000e+06" }, "geometry": { "type": "Point", "coordinates": [ 112.188891840543349, -7.081880107511362 ] } },
{ "type": "Feature", "properties": { "Line": 104, "TRAS": 1900, "x": "6.31300500000e+05", "y": "9.21578159000e+06" }, "geometry": { "type": "Point", "coordinates": [ 112.188920819345867, -7.093185070639159 ] } },
{ "type": "Feature", "properties": { "Line": 104, "TRAS": 2000, "x": "6.31300500000e+05", "y": "9.21453159000e+06" }, "geometry": { "type": "Point", "coordinates": [ 112.188949845550312, -7.10449002815909 ] } },
{ "type": "Feature", "properties": { "Line": 104, "TRAS": 2100, "x": "6.31300500000e+05", "y": "9.21328159000e+06" }, "geometry": { "type": "Point", "coordinates": [ 112.188978919162366, -7.115794980062398 ] } },
{ "type": "Feature", "properties": { "Line": 104, "TRAS": 2200, "x": "6.31300500000e+05", "y": "9.21203159000e+06" }, "geometry": { "type": "Point", "coordinates": [ 112.189008040187716, -7.127099926340318 ] } },
{ "type": "Feature", "properties": { "Line": 104, "TRAS": 2300, "x": "6.31300500000e+05", "y": "9.21078159000e+06" }, "geometry": { "type": "Point", "coordinates": [ 112.189037208632087, -7.138404866984093 ] } },
{ "type": "Feature", "properties": { "Line": 104, "TRAS": 2400, "x": "6.31300500000e+05", "y": "9.20953159000e+06" }, "geometry": { "type": "Point", "coordinates": [ 112.189066424501178, -7.149709801984962 ] } },
{ "type": "Feature", "properties": { "Line": 104, "TRAS": 2500, "x": "6.31300500000e+05", "y": "9.20828150000e+06" }, "geometry": { "type": "Point", "coordinates": [ 112.189095689909379, -7.161015545288877 ] } },
{ "type": "Feature", "properties": { "Line": 104, "TRAS": 2600, "x": "6.31300500000e+05", "y": "9.20703150000e+06" }, "geometry": { "type": "Point", "coordinates": [ 112.189125000648517, -7.172320468977254 ] } },
{ "type": "Feature", "properties": { "Line": 104, "TRAS": 2700, "x": "6.31300500000e+05", "y": "9.20578150000e+06" }, "geometry": { "type": "Point", "coordinates": [ 112.189154358829583, -7.183625386996449 ] } },
{ "type": "Feature", "properties": { "Line": 104, "TRAS": 2800, "x": "6.31300500000e+05", "y": "9.20453150000e+06" }, "geometry": { "type": "Point", "coordinates": [ 112.189183764458335, -7.194930299337717 ] } },
{ "type": "Feature", "properties": { "Line": 104, "TRAS": 2900, "x": "6.31300500000e+05", "y": "9.20328150000e+06" }, "geometry": { "type": "Point", "coordinates": [ 112.189213217540527, -7.206235205992292 ] } },
{ "type": "Feature", "properties": { "Line": 104, "TRAS": 3000, "x": "6.31300500000e+05", "y": "9.20203150000e+06" }, "geometry": { "type": "Point", "coordinates": [ 112.189242718081928, -7.217540106951423 ] } },
{ "type": "Feature", "properties": { "Line": 106, "TRAS": 1100, "x": "6.32300500000e+05", "y": "9.22598150000e+06" }, "geometry": { "type": "Point", "coordinates": [ 112.197737566682278, -7.000914262507187 ] } },
{ "type": "Feature", "properties": { "Line": 106, "TRAS": 1200, "x": "6.32300500000e+05", "y": "9.22473150000e+06" }, "geometry": { "type": "Point", "coordinates": [ 112.197766424219125, -7.012219228097711 ] } },
{ "type": "Feature", "properties": { "Line": 106, "TRAS": 1300, "x": "6.32300500000e+05", "y": "9.22348150000e+06" }, "geometry": { "type": "Point", "coordinates": [ 112.197795329477884, -7.023524188141401 ] } },
{ "type": "Feature", "properties": { "Line": 106, "TRAS": 1400, "x": "6.32300500000e+05", "y": "9.22223150000e+06" }, "geometry": { "type": "Point", "coordinates": [ 112.197824282464239, -7.034829142629489 ] } },
{ "type": "Feature", "properties": { "Line": 106, "TRAS": 1500, "x": "6.32300500000e+05", "y": "9.22098150000e+06" }, "geometry": { "type": "Point", "coordinates": [ 112.197853283183846, -7.046134091553202 ] } },
{ "type": "Feature", "properties": { "Line": 106, "TRAS": 1600, "x": "6.32300500000e+05", "y": "9.21973159000e+06" }, "geometry": { "type": "Point", "coordinates": [ 112.197882329549202, -7.057438220948053 ] } },
{ "type": "Feature", "properties": { "Line": 106, "TRAS": 1700, "x": "6.32300500000e+05", "y": "9.21848159000e+06" }, "geometry": { "type": "Point", "coordinates": [ 112.197911425748941, -7.068743158717114 ] } },
{ "type": "Feature", "properties": { "Line": 106, "TRAS": 1800, "x": "6.32300500000e+05", "y": "9.21723159000e+06" }, "geometry": { "type": "Point", "coordinates": [ 112.197940569699014, -7.080048090895497 ] } },
{ "type": "Feature", "properties": { "Line": 106, "TRAS": 1900, "x": "6.32300500000e+05", "y": "9.21598159000e+06" }, "geometry": { "type": "Point", "coordinates": [ 112.197969761405091, -7.091353017474436 ] } },
{ "type": "Feature", "properties": { "Line": 106, "TRAS": 2000, "x": "6.32300500000e+05", "y": "9.21473159000e+06" }, "geometry": { "type": "Point", "coordinates": [ 112.197999000872954, -7.102657938445166 ] } },
{ "type": "Feature", "properties": { "Line": 106, "TRAS": 2100, "x": "6.32300500000e+05", "y": "9.21348159000e+06" }, "geometry": { "type": "Point", "coordinates": [ 112.19802828810829, -7.113962853798921 ] } },
{ "type": "Feature", "properties": { "Line": 106, "TRAS": 2200, "x": "6.32300500000e+05", "y": "9.21223159000e+06" }, "geometry": { "type": "Point", "coordinates": [ 112.198057623116824, -7.125267763526936 ] } },
{ "type": "Feature", "properties": { "Line": 106, "TRAS": 2300, "x": "6.32300500000e+05", "y": "9.21098159000e+06" }, "geometry": { "type": "Point", "coordinates": [ 112.198087005904341, -7.136572667620452 ] } },
{ "type": "Feature", "properties": { "Line": 106, "TRAS": 2400, "x": "6.32300500000e+05", "y": "9.20973159000e+06" }, "geometry": { "type": "Point", "coordinates": [ 112.198116436476568, -7.147877566070703 ] } },
{ "type": "Feature", "properties": { "Line": 106, "TRAS": 2500, "x": "6.32300500000e+05", "y": "9.20848150000e+06" }, "geometry": { "type": "Point", "coordinates": [ 112.198145916963469, -7.159183272821005 ] } },
{ "type": "Feature", "properties": { "Line": 106, "TRAS": 2600, "x": "6.32300500000e+05", "y": "9.20723150000e+06" }, "geometry": { "type": "Point", "coordinates": [ 112.198175443125876, -7.170488159958035 ] } },
{ "type": "Feature", "properties": { "Line": 106, "TRAS": 2700, "x": "6.32300500000e+05", "y": "9.20598150000e+06" }, "geometry": { "type": "Point", "coordinates": [ 112.198205017090373, -7.181793041425521 ] } },
{ "type": "Feature", "properties": { "Line": 106, "TRAS": 2800, "x": "6.32300500000e+05", "y": "9.20473150000e+06" }, "geometry": { "type": "Point", "coordinates": [ 112.198234638862687, -7.193097917214702 ] } },
{ "type": "Feature", "properties": { "Line": 106, "TRAS": 2900, "x": "6.32300500000e+05", "y": "9.20348150000e+06" }, "geometry": { "type": "Point", "coordinates": [ 112.198264308448671, -7.204402787316819 ] } },
{ "type": "Feature", "properties": { "Line": 106, "TRAS": 3000, "x": "6.32300500000e+05", "y": "9.20223150000e+06" }, "geometry": { "type": "Point", "coordinates": [ 112.198294025854125, -7.215707651723116 ] } },
{ "type": "Feature", "properties": { "Line": 108, "TRAS": 1100, "x": "6.33300500000e+05", "y": "9.22578150000e+06" }, "geometry": { "type": "Point", "coordinates": [ 112.206794013059223, -7.002699917334155 ] } },
{ "type": "Feature", "properties": { "Line": 108, "TRAS": 1200, "x": "6.33300500000e+05", "y": "9.22453150000e+06" }, "geometry": { "type": "Point", "coordinates": [ 112.206823096248655, -7.014004844320548 ] } },
{ "type": "Feature", "properties": { "Line": 108, "TRAS": 1300, "x": "6.33300500000e+05", "y": "9.22328150000e+06" }, "geometry": { "type": "Point", "coordinates": [ 112.206852227521367, -7.025309765756966 ] } },
{ "type": "Feature", "properties": { "Line": 108, "TRAS": 1400, "x": "6.33300500000e+05", "y": "9.22203150000e+06" }, "geometry": { "type": "Point", "coordinates": [ 112.206881406883042, -7.036614681634632 ] } },
{ "type": "Feature", "properties": { "Line": 108, "TRAS": 1500, "x": "6.33300500000e+05", "y": "9.22078159000e+06" }, "geometry": { "type": "Point", "coordinates": [ 112.206910632233303, -7.047918777991432 ] } },
{ "type": "Feature", "properties": { "Line": 108, "TRAS": 1600, "x": "6.33300500000e+05", "y": "9.21953159000e+06" }, "geometry": { "type": "Point", "coordinates": [ 112.206939907786619, -7.059223682725678 ] } },
{ "type": "Feature", "properties": { "Line": 108, "TRAS": 1700, "x": "6.33300500000e+05", "y": "9.21828159000e+06" }, "geometry": { "type": "Point", "coordinates": [ 112.206969231446095, -7.070528581874858 ] } },
{ "type": "Feature", "properties": { "Line": 108, "TRAS": 1800, "x": "6.33300500000e+05", "y": "9.21703159000e+06" }, "geometry": { "type": "Point", "coordinates": [ 112.206998603217471, -7.0818334754302 ] } },
{ "type": "Feature", "properties": { "Line": 108, "TRAS": 1900, "x": "6.33300500000e+05", "y": "9.21578159000e+06" }, "geometry": { "type": "Point", "coordinates": [ 112.20702802310646, -7.093138363382937 ] } },
{ "type": "Feature", "properties": { "Line": 108, "TRAS": 2000, "x": "6.33300500000e+05", "y": "9.21453159000e+06" }, "geometry": { "type": "Point", "coordinates": [ 112.207057491118874, -7.104443245724299 ] } },
{ "type": "Feature", "properties": { "Line": 108, "TRAS": 2100, "x": "6.33300500000e+05", "y": "9.21328159000e+06" }, "geometry": { "type": "Point", "coordinates": [ 112.207087007260469, -7.115748122445519 ] } },
{ "type": "Feature", "properties": { "Line": 108, "TRAS": 2200, "x": "6.33300500000e+05", "y": "9.21203159000e+06" }, "geometry": { "type": "Point", "coordinates": [ 112.207116571537028, -7.127052993537832 ] } },
{ "type": "Feature", "properties": { "Line": 108, "TRAS": 2300, "x": "6.33300500000e+05", "y": "9.21078159000e+06" }, "geometry": { "type": "Point", "coordinates": [ 112.207146183954322, -7.138357858992468 ] } },
{ "type": "Feature", "properties": { "Line": 108, "TRAS": 2400, "x": "6.33300500000e+05", "y": "9.20953159000e+06" }, "geometry": { "type": "Point", "coordinates": [ 112.20717584451819, -7.149662718800665 ] } },
{ "type": "Feature", "properties": { "Line": 108, "TRAS": 2500, "x": "6.33300500000e+05", "y": "9.20828150000e+06" }, "geometry": { "type": "Point", "coordinates": [ 112.207205555375197, -7.160968386902954 ] } },
{ "type": "Feature", "properties": { "Line": 108, "TRAS": 2600, "x": "6.33300500000e+05", "y": "9.20703150000e+06" }, "geometry": { "type": "Point", "coordinates": [ 112.20723531225309, -7.172273235391572 ] } },
{ "type": "Feature", "properties": { "Line": 108, "TRAS": 2700, "x": "6.33300500000e+05", "y": "9.20578150000e+06" }, "geometry": { "type": "Point", "coordinates": [ 112.207265117295009, -7.183578078207456 ] } },
{ "type": "Feature", "properties": { "Line": 108, "TRAS": 2800, "x": "6.33300500000e+05", "y": "9.20453150000e+06" }, "geometry": { "type": "Point", "coordinates": [ 112.20729497050678, -7.194882915341854 ] } },
{ "type": "Feature", "properties": { "Line": 108, "TRAS": 2900, "x": "6.33300500000e+05", "y": "9.20328150000e+06" }, "geometry": { "type": "Point", "coordinates": [ 112.207324871894272, -7.206187746785999 ] } },
{ "type": "Feature", "properties": { "Line": 108, "TRAS": 3000, "x": "6.33300500000e+05", "y": "9.20203150000e+06" }, "geometry": { "type": "Point", "coordinates": [ 112.207354821463355, -7.217492572531127 ] } },
{ "type": "Feature", "properties": { "Line": 110, "TRAS": 1100, "x": "6.34300500000e+05", "y": "9.22608150000e+06" }, "geometry": { "type": "Point", "coordinates": [ 112.215838789586329, -6.999963428994698 ] } },
{ "type": "Feature", "properties": { "Line": 110, "TRAS": 1200, "x": "6.34300500000e+05", "y": "9.22483150000e+06" }, "geometry": { "type": "Point", "coordinates": [ 112.21586807916394, -7.011268319311176 ] } },
{ "type": "Feature", "properties": { "Line": 110, "TRAS": 1300, "x": "6.34300500000e+05", "y": "9.22358150000e+06" }, "geometry": { "type": "Point", "coordinates": [ 112.215897417183896, -7.02257320407803 ] } },
{ "type": "Feature", "properties": { "Line": 110, "TRAS": 1400, "x": "6.34300500000e+05", "y": "9.22233150000e+06" }, "geometry": { "type": "Point", "coordinates": [ 112.215926803651897, -7.033878083286479 ] } },
{ "type": "Feature", "properties": { "Line": 110, "TRAS": 1500, "x": "6.34300500000e+05", "y": "9.22108150000e+06" }, "geometry": { "type": "Point", "coordinates": [ 112.215956238573739, -7.045182956927748 ] } },
{ "type": "Feature", "properties": { "Line": 110, "TRAS": 1600, "x": "6.34300500000e+05", "y": "9.21983159000e+06" }, "geometry": { "type": "Point", "coordinates": [ 112.215985719830627, -7.056487011042766 ] } },
{ "type": "Feature", "properties": { "Line": 110, "TRAS": 1700, "x": "6.34300500000e+05", "y": "9.21858159000e+06" }, "geometry": { "type": "Point", "coordinates": [ 112.216015251673923, -7.067791873523757 ] } },
{ "type": "Feature", "properties": { "Line": 110, "TRAS": 1800, "x": "6.34300500000e+05", "y": "9.21733159000e+06" }, "geometry": { "type": "Point", "coordinates": [ 112.216044831988384, -7.079096730411246 ] } },
{ "type": "Feature", "properties": { "Line": 110, "TRAS": 1900, "x": "6.34300500000e+05", "y": "9.21608159000e+06" }, "geometry": { "type": "Point", "coordinates": [ 112.21607446077978, -7.090401581696462 ] } },
{ "type": "Feature", "properties": { "Line": 110, "TRAS": 2000, "x": "6.34300500000e+05", "y": "9.21483159000e+06" }, "geometry": { "type": "Point", "coordinates": [ 112.216104138053922, -7.101706427370636 ] } },
{ "type": "Feature", "properties": { "Line": 110, "TRAS": 2100, "x": "6.34300500000e+05", "y": "9.21358159000e+06" }, "geometry": { "type": "Point", "coordinates": [ 112.216133863816637, -7.113011267424992 ] } },
{ "type": "Feature", "properties": { "Line": 110, "TRAS": 2200, "x": "6.34300500000e+05", "y": "9.21233159000e+06" }, "geometry": { "type": "Point", "coordinates": [ 112.216163638073709, -7.124316101850763 ] } },
{ "type": "Feature", "properties": { "Line": 110, "TRAS": 2300, "x": "6.34300500000e+05", "y": "9.21108159000e+06" }, "geometry": { "type": "Point", "coordinates": [ 112.216193460831022, -7.135620930639179 ] } },
{ "type": "Feature", "properties": { "Line": 110, "TRAS": 2400, "x": "6.34300500000e+05", "y": "9.20983159000e+06" }, "geometry": { "type": "Point", "coordinates": [ 112.216223332094387, -7.146925753781473 ] } },
{ "type": "Feature", "properties": { "Line": 110, "TRAS": 2500, "x": "6.34300500000e+05", "y": "9.20858150000e+06" }, "geometry": { "type": "Point", "coordinates": [ 112.216253254025645, -7.158231385215531 ] } },
{ "type": "Feature", "properties": { "Line": 110, "TRAS": 2600, "x": "6.34300500000e+05", "y": "9.20733150000e+06" }, "geometry": { "type": "Point", "coordinates": [ 112.21628322232219, -7.169536197038872 ] } },
{ "type": "Feature", "properties": { "Line": 110, "TRAS": 2700, "x": "6.34300500000e+05", "y": "9.20608150000e+06" }, "geometry": { "type": "Point", "coordinates": [ 112.21631323914238, -7.180841003189786 ] } },
{ "type": "Feature", "properties": { "Line": 110, "TRAS": 2800, "x": "6.34300500000e+05", "y": "9.20483150000e+06" }, "geometry": { "type": "Point", "coordinates": [ 112.216343304492113, -7.192145803659515 ] } },
{ "type": "Feature", "properties": { "Line": 110, "TRAS": 2900, "x": "6.34300500000e+05", "y": "9.20358150000e+06" }, "geometry": { "type": "Point", "coordinates": [ 112.216373418377259, -7.203450598439291 ] } },
{ "type": "Feature", "properties": { "Line": 110, "TRAS": 3000, "x": "6.34300500000e+05", "y": "9.20233150000e+06" }, "geometry": { "type": "Point", "coordinates": [ 112.216403580803743, -7.214755387520355 ] } },
{ "type": "Feature", "properties": { "Line": 110, "TRAS": 3100, "x": "6.34300500000e+05", "y": "9.20108150000e+06" }, "geometry": { "type": "Point", "coordinates": [ 112.216433791777462, -7.226060170893941 ] } },
{ "type": "Feature", "properties": { "Line": 110, "TRAS": 3200, "x": "6.34300500000e+05", "y": "9.19983150000e+06" }, "geometry": { "type": "Point", "coordinates": [ 112.216464051304328, -7.237364948551288 ] } },
{ "type": "Feature", "properties": { "Line": 110, "TRAS": 3300, "x": "6.34300500000e+05", "y": "9.19858150000e+06" }, "geometry": { "type": "Point", "coordinates": [ 112.21649435939031, -7.248669720483631 ] } },
{ "type": "Feature", "properties": { "Line": 110, "TRAS": 3400, "x": "6.34300500000e+05", "y": "9.19733150000e+06" }, "geometry": { "type": "Point", "coordinates": [ 112.21652471604132, -7.259974486682221 ] } },
{ "type": "Feature", "properties": { "Line": 110, "TRAS": 3500, "x": "6.34300500000e+05", "y": "9.19608150000e+06" }, "geometry": { "type": "Point", "coordinates": [ 112.216555121263312, -7.271279247138293 ] } },
{ "type": "Feature", "properties": { "Line": 110, "TRAS": 3600, "x": "6.34300500000e+05", "y": "9.19483150000e+06" }, "geometry": { "type": "Point", "coordinates": [ 112.21658557506224, -7.282584001843085 ] } },
{ "type": "Feature", "properties": { "Line": 110, "TRAS": 3700, "x": "6.34300500000e+05", "y": "9.19358150000e+06" }, "geometry": { "type": "Point", "coordinates": [ 112.216616077444101, -7.293888750787847 ] } },
{ "type": "Feature", "properties": { "Line": 110, "TRAS": 3800, "x": "6.34300500000e+05", "y": "9.19233150000e+06" }, "geometry": { "type": "Point", "coordinates": [ 112.21664662841485, -7.305193493963818 ] } },
{ "type": "Feature", "properties": { "Line": 110, "TRAS": 3900, "x": "6.34300500000e+05", "y": "9.19108150000e+06" }, "geometry": { "type": "Point", "coordinates": [ 112.216677227980497, -7.316498231362247 ] } },
{ "type": "Feature", "properties": { "Line": 112, "TRAS": 1100, "x": "6.35300500000e+05", "y": "9.22578150000e+06" }, "geometry": { "type": "Point", "coordinates": [ 112.22489758527513, -7.002653114903413 ] } },
{ "type": "Feature", "properties": { "Line": 112, "TRAS": 1200, "x": "6.35300500000e+05", "y": "9.22453150000e+06" }, "geometry": { "type": "Point", "coordinates": [ 112.224927104488515, -7.013957965603958 ] } },
{ "type": "Feature", "properties": { "Line": 112, "TRAS": 1300, "x": "6.35300500000e+05", "y": "9.22328150000e+06" }, "geometry": { "type": "Point", "coordinates": [ 112.224956672506039, -7.025262810751006 ] } },
{ "type": "Feature", "properties": { "Line": 112, "TRAS": 1400, "x": "6.35300500000e+05", "y": "9.22203150000e+06" }, "geometry": { "type": "Point", "coordinates": [ 112.224986289333486, -7.036567650335773 ] } },
{ "type": "Feature", "properties": { "Line": 112, "TRAS": 1500, "x": "6.35300500000e+05", "y": "9.22078159000e+06" }, "geometry": { "type": "Point", "coordinates": [ 112.225015952838973, -7.047871670401633 ] } },
{ "type": "Feature", "properties": { "Line": 112, "TRAS": 1600, "x": "6.35300500000e+05", "y": "9.21953159000e+06" }, "geometry": { "type": "Point", "coordinates": [ 112.225045667300165, -7.059176498835906 ] } },
{ "type": "Feature", "properties": { "Line": 112, "TRAS": 1700, "x": "6.35300500000e+05", "y": "9.21828159000e+06" }, "geometry": { "type": "Point", "coordinates": [ 112.225075430588703, -7.070481321681567 ] } },
{ "type": "Feature", "properties": { "Line": 112, "TRAS": 1800, "x": "6.35300500000e+05", "y": "9.21703159000e+06" }, "geometry": { "type": "Point", "coordinates": [ 112.225105242710413, -7.081786138929837 ] } },
{ "type": "Feature", "properties": { "Line": 112, "TRAS": 1900, "x": "6.35300500000e+05", "y": "9.21578159000e+06" }, "geometry": { "type": "Point", "coordinates": [ 112.22513510367115, -7.093090950571944 ] } },
{ "type": "Feature", "properties": { "Line": 112, "TRAS": 2000, "x": "6.35300500000e+05", "y": "9.21453159000e+06" }, "geometry": { "type": "Point", "coordinates": [ 112.225165013476754, -7.104395756599112 ] } },
{ "type": "Feature", "properties": { "Line": 112, "TRAS": 2100, "x": "6.35300500000e+05", "y": "9.21328159000e+06" }, "geometry": { "type": "Point", "coordinates": [ 112.225194972133082, -7.11570055700257 ] } },
{ "type": "Feature", "properties": { "Line": 112, "TRAS": 2200, "x": "6.35300500000e+05", "y": "9.21203159000e+06" }, "geometry": { "type": "Point", "coordinates": [ 112.225224979646001, -7.127005351773541 ] } },
{ "type": "Feature", "properties": { "Line": 112, "TRAS": 2300, "x": "6.35300500000e+05", "y": "9.21078159000e+06" }, "geometry": { "type": "Point", "coordinates": [ 112.225255036021409, -7.138310140903256 ] } },
{ "type": "Feature", "properties": { "Line": 112, "TRAS": 2400, "x": "6.35300500000e+05", "y": "9.20953159000e+06" }, "geometry": { "type": "Point", "coordinates": [ 112.225285141265175, -7.149614924382944 ] } },
{ "type": "Feature", "properties": { "Line": 112, "TRAS": 2500, "x": "6.35300500000e+05", "y": "9.20828150000e+06" }, "geometry": { "type": "Point", "coordinates": [ 112.225315297556065, -7.160920516147633 ] } },
{ "type": "Feature", "properties": { "Line": 112, "TRAS": 2600, "x": "6.35300500000e+05", "y": "9.20703150000e+06" }, "geometry": { "type": "Point", "coordinates": [ 112.225345500557793, -7.172225288300548 ] } },
{ "type": "Feature", "properties": { "Line": 112, "TRAS": 2700, "x": "6.35300500000e+05", "y": "9.20578150000e+06" }, "geometry": { "type": "Point", "coordinates": [ 112.225375752445601, -7.183530054777125 ] } },
{ "type": "Feature", "properties": { "Line": 112, "TRAS": 2800, "x": "6.35300500000e+05", "y": "9.20453150000e+06" }, "geometry": { "type": "Point", "coordinates": [ 112.225406053225427, -7.194834815568604 ] } },
{ "type": "Feature", "properties": { "Line": 112, "TRAS": 2900, "x": "6.35300500000e+05", "y": "9.20328150000e+06" }, "geometry": { "type": "Point", "coordinates": [ 112.225436402903227, -7.20613957066621 ] } },
{ "type": "Feature", "properties": { "Line": 112, "TRAS": 3000, "x": "6.35300500000e+05", "y": "9.20203150000e+06" }, "geometry": { "type": "Point", "coordinates": [ 112.225466801484913, -7.217444320061177 ] } },
{ "type": "Feature", "properties": { "Line": 114, "TRAS": 1100, "x": "6.36300500000e+05", "y": "9.22578150000e+06" }, "geometry": { "type": "Point", "coordinates": [ 112.233949324651988, -7.002629452518383 ] } },
{ "type": "Feature", "properties": { "Line": 114, "TRAS": 1200, "x": "6.36300500000e+05", "y": "9.22453150000e+06" }, "geometry": { "type": "Point", "coordinates": [ 112.233979061871821, -7.013934264650317 ] } },
{ "type": "Feature", "properties": { "Line": 114, "TRAS": 1300, "x": "6.36300500000e+05", "y": "9.22328150000e+06" }, "geometry": { "type": "Point", "coordinates": [ 112.234008848256224, -7.02523907122697 ] } },
{ "type": "Feature", "properties": { "Line": 114, "TRAS": 1400, "x": "6.36300500000e+05", "y": "9.22203150000e+06" }, "geometry": { "type": "Point", "coordinates": [ 112.234038683811008, -7.036543872239559 ] } },
{ "type": "Feature", "properties": { "Line": 114, "TRAS": 1500, "x": "6.36300500000e+05", "y": "9.22078159000e+06" }, "geometry": { "type": "Point", "coordinates": [ 112.23406856638853, -7.047847853734232 ] } },
{ "type": "Feature", "properties": { "Line": 114, "TRAS": 1600, "x": "6.36300500000e+05", "y": "9.21953159000e+06" }, "geometry": { "type": "Point", "coordinates": [ 112.234098500298074, -7.059152643592751 ] } },
{ "type": "Feature", "properties": { "Line": 114, "TRAS": 1700, "x": "6.36300500000e+05", "y": "9.21828159000e+06" }, "geometry": { "type": "Point", "coordinates": [ 112.234128483395565, -7.070457427860864 ] } },
{ "type": "Feature", "properties": { "Line": 114, "TRAS": 1800, "x": "6.36300500000e+05", "y": "9.21703159000e+06" }, "geometry": { "type": "Point", "coordinates": [ 112.234158515686858, -7.08176220652979 ] } },
{ "type": "Feature", "properties": { "Line": 114, "TRAS": 1900, "x": "6.36300500000e+05", "y": "9.21578159000e+06" }, "geometry": { "type": "Point", "coordinates": [ 112.234188597177862, -7.093066979590755 ] } },
{ "type": "Feature", "properties": { "Line": 114, "TRAS": 2000, "x": "6.36300500000e+05", "y": "9.21453159000e+06" }, "geometry": { "type": "Point", "coordinates": [ 112.234218727874449, -7.10437174703498 ] } },
{ "type": "Feature", "properties": { "Line": 114, "TRAS": 2100, "x": "6.36300500000e+05", "y": "9.21328159000e+06" }, "geometry": { "type": "Point", "coordinates": [ 112.234248907782529, -7.115676508853688 ] } },
{ "type": "Feature", "properties": { "Line": 114, "TRAS": 2200, "x": "6.36300500000e+05", "y": "9.21203159000e+06" }, "geometry": { "type": "Point", "coordinates": [ 112.234279136908, -7.126981265038102 ] } },
{ "type": "Feature", "properties": { "Line": 114, "TRAS": 2300, "x": "6.36300500000e+05", "y": "9.21078159000e+06" }, "geometry": { "type": "Point", "coordinates": [ 112.234309415256817, -7.138286015579451 ] } },
{ "type": "Feature", "properties": { "Line": 114, "TRAS": 2400, "x": "6.36300500000e+05", "y": "9.20953159000e+06" }, "geometry": { "type": "Point", "coordinates": [ 112.234339742834877, -7.149590760468957 ] } },
{ "type": "Feature", "properties": { "Line": 114, "TRAS": 2500, "x": "6.36300500000e+05", "y": "9.20828150000e+06" }, "geometry": { "type": "Point", "coordinates": [ 112.23437012183706, -7.160896313638869 ] } },
{ "type": "Feature", "properties": { "Line": 114, "TRAS": 2600, "x": "6.36300500000e+05", "y": "9.20703150000e+06" }, "geometry": { "type": "Point", "coordinates": [ 112.234400547895035, -7.172201047197965 ] } },
{ "type": "Feature", "properties": { "Line": 114, "TRAS": 2700, "x": "6.36300500000e+05", "y": "9.20578150000e+06" }, "geometry": { "type": "Point", "coordinates": [ 112.234431023200102, -7.183505775078901 ] } },
{ "type": "Feature", "properties": { "Line": 114, "TRAS": 2800, "x": "6.36300500000e+05", "y": "9.20453150000e+06" }, "geometry": { "type": "Point", "coordinates": [ 112.234461547758272, -7.194810497272912 ] } },
{ "type": "Feature", "properties": { "Line": 114, "TRAS": 2900, "x": "6.36300500000e+05", "y": "9.20328150000e+06" }, "geometry": { "type": "Point", "coordinates": [ 112.234492121575528, -7.206115213771223 ] } },
{ "type": "Feature", "properties": { "Line": 114, "TRAS": 3000, "x": "6.36300500000e+05", "y": "9.20203150000e+06" }, "geometry": { "type": "Point", "coordinates": [ 112.234522744657824, -7.217419924565061 ] } },
{ "type": "Feature", "properties": { "Line": 116, "TRAS": 1100, "x": "6.37300500000e+05", "y": "9.22593150000e+06" }, "geometry": { "type": "Point", "coordinates": [ 112.242997441268358, -7.001249042857597 ] } },
{ "type": "Feature", "properties": { "Line": 116, "TRAS": 1200, "x": "6.37300500000e+05", "y": "9.22468150000e+06" }, "geometry": { "type": "Point", "coordinates": [ 112.243027390548306, -7.012553816803392 ] } },
{ "type": "Feature", "properties": { "Line": 116, "TRAS": 1300, "x": "6.37300500000e+05", "y": "9.22343150000e+06" }, "geometry": { "type": "Point", "coordinates": [ 112.243057389352529, -7.023858585193163 ] } },
{ "type": "Feature", "properties": { "Line": 116, "TRAS": 1400, "x": "6.37300500000e+05", "y": "9.22218150000e+06" }, "geometry": { "type": "Point", "coordinates": [ 112.243087437686881, -7.035163348018129 ] } },
{ "type": "Feature", "properties": { "Line": 116, "TRAS": 1500, "x": "6.37300500000e+05", "y": "9.22093150000e+06" }, "geometry": { "type": "Point", "coordinates": [ 112.243117535557261, -7.046468105269503 ] } },
{ "type": "Feature", "properties": { "Line": 116, "TRAS": 1600, "x": "6.37300500000e+05", "y": "9.21968159000e+06" }, "geometry": { "type": "Point", "coordinates": [ 112.243147680797165, -7.057772042996583 ] } },
{ "type": "Feature", "properties": { "Line": 116, "TRAS": 1700, "x": "6.37300500000e+05", "y": "9.21843159000e+06" }, "geometry": { "type": "Point", "coordinates": [ 112.243177877753709, -7.069076789074826 ] } },
{ "type": "Feature", "properties": { "Line": 116, "TRAS": 1800, "x": "6.37300500000e+05", "y": "9.21718159000e+06" }, "geometry": { "type": "Point", "coordinates": [ 112.243208124263987, -7.080381529553128 ] } },
{ "type": "Feature", "properties": { "Line": 116, "TRAS": 1900, "x": "6.37300500000e+05", "y": "9.21593159000e+06" }, "geometry": { "type": "Point", "coordinates": [ 112.243238420333924, -7.091686264422709 ] } },
{ "type": "Feature", "properties": { "Line": 116, "TRAS": 2000, "x": "6.37300500000e+05", "y": "9.21468159000e+06" }, "geometry": { "type": "Point", "coordinates": [ 112.243268765969432, -7.102990993674788 ] } },
{ "type": "Feature", "properties": { "Line": 116, "TRAS": 2100, "x": "6.37300500000e+05", "y": "9.21343159000e+06" }, "geometry": { "type": "Point", "coordinates": [ 112.243299161176495, -7.114295717300587 ] } },
{ "type": "Feature", "properties": { "Line": 116, "TRAS": 2200, "x": "6.37300500000e+05", "y": "9.21218159000e+06" }, "geometry": { "type": "Point", "coordinates": [ 112.243329605961037, -7.125600435291322 ] } },
{ "type": "Feature", "properties": { "Line": 116, "TRAS": 2300, "x": "6.37300500000e+05", "y": "9.21093159000e+06" }, "geometry": { "type": "Point", "coordinates": [ 112.243360100329056, -7.136905147638221 ] } },
{ "type": "Feature", "properties": { "Line": 116, "TRAS": 2400, "x": "6.37300500000e+05", "y": "9.20968159000e+06" }, "geometry": { "type": "Point", "coordinates": [ 112.243390644286478, -7.148209854332506 ] } },
{ "type": "Feature", "properties": { "Line": 116, "TRAS": 2500, "x": "6.37300500000e+05", "y": "9.20843150000e+06" }, "geometry": { "type": "Point", "coordinates": [ 112.243421240043844, -7.159515369303667 ] } },
{ "type": "Feature", "properties": { "Line": 116, "TRAS": 2600, "x": "6.37300500000e+05", "y": "9.20718150000e+06" }, "geometry": { "type": "Point", "coordinates": [ 112.243451883201672, -7.170820064665982 ] } },
{ "type": "Feature", "properties": { "Line": 116, "TRAS": 2700, "x": "6.37300500000e+05", "y": "9.20593150000e+06" }, "geometry": { "type": "Point", "coordinates": [ 112.243482575966908, -7.182124754349357 ] } },
{ "type": "Feature", "properties": { "Line": 116, "TRAS": 2800, "x": "6.37300500000e+05", "y": "9.20468150000e+06" }, "geometry": { "type": "Point", "coordinates": [ 112.243513318345578, -7.193429438345018 ] } },
{ "type": "Feature", "properties": { "Line": 116, "TRAS": 2900, "x": "6.37300500000e+05", "y": "9.20343150000e+06" }, "geometry": { "type": "Point", "coordinates": [ 112.243544110343706, -7.204734116644188 ] } },
{ "type": "Feature", "properties": { "Line": 116, "TRAS": 3000, "x": "6.37300500000e+05", "y": "9.20218150000e+06" }, "geometry": { "type": "Point", "coordinates": [ 112.243574951967318, -7.216038789238096 ] } },
{ "type": "Feature", "properties": { "Line": 118, "TRAS": 1100, "x": "6.38300500000e+05", "y": "9.22663150000e+06" }, "geometry": { "type": "Point", "coordinates": [ 112.252032219491198, -6.994894383035468 ] } },
{ "type": "Feature", "properties": { "Line": 118, "TRAS": 1200, "x": "6.38300500000e+05", "y": "9.22538150000e+06" }, "geometry": { "type": "Point", "coordinates": [ 112.252062358794035, -7.006199120953845 ] } },
{ "type": "Feature", "properties": { "Line": 118, "TRAS": 1300, "x": "6.38300500000e+05", "y": "9.22413150000e+06" }, "geometry": { "type": "Point", "coordinates": [ 112.252092547978236, -7.017503853319313 ] } },
{ "type": "Feature", "properties": { "Line": 118, "TRAS": 1400, "x": "6.38300500000e+05", "y": "9.22288150000e+06" }, "geometry": { "type": "Point", "coordinates": [ 112.252122787049714, -7.028808580123087 ] } },
{ "type": "Feature", "properties": { "Line": 118, "TRAS": 1500, "x": "6.38300500000e+05", "y": "9.22163150000e+06" }, "geometry": { "type": "Point", "coordinates": [ 112.252153076014366, -7.040113301356376 ] } },
{ "type": "Feature", "properties": { "Line": 118, "TRAS": 1600, "x": "6.38300500000e+05", "y": "9.22038159000e+06" }, "geometry": { "type": "Point", "coordinates": [ 112.252183412691949, -7.051417203071071 ] } },
{ "type": "Feature", "properties": { "Line": 118, "TRAS": 1700, "x": "6.38300500000e+05", "y": "9.21913159000e+06" }, "geometry": { "type": "Point", "coordinates": [ 112.252213801457202, -7.062721913137435 ] } },
{ "type": "Feature", "properties": { "Line": 118, "TRAS": 1800, "x": "6.38300500000e+05", "y": "9.21788159000e+06" }, "geometry": { "type": "Point", "coordinates": [ 112.25224424013345, -7.074026617606957 ] } },
{ "type": "Feature", "properties": { "Line": 118, "TRAS": 1900, "x": "6.38300500000e+05", "y": "9.21663159000e+06" }, "geometry": { "type": "Point", "coordinates": [ 112.25227472872669, -7.085331316470851 ] } },
{ "type": "Feature", "properties": { "Line": 118, "TRAS": 2000, "x": "6.38300500000e+05", "y": "9.21538159000e+06" }, "geometry": { "type": "Point", "coordinates": [ 112.252305267242861, -7.096636009720334 ] } },
{ "type": "Feature", "properties": { "Line": 118, "TRAS": 2100, "x": "6.38300500000e+05", "y": "9.21413159000e+06" }, "geometry": { "type": "Point", "coordinates": [ 112.252335855687974, -7.107940697346621 ] } },
{ "type": "Feature", "properties": { "Line": 118, "TRAS": 2200, "x": "6.38300500000e+05", "y": "9.21288159000e+06" }, "geometry": { "type": "Point", "coordinates": [ 112.252366494067985, -7.119245379340936 ] } },
{ "type": "Feature", "properties": { "Line": 118, "TRAS": 2300, "x": "6.38300500000e+05", "y": "9.21163159000e+06" }, "geometry": { "type": "Point", "coordinates": [ 112.252397182388933, -7.130550055694488 ] } },
{ "type": "Feature", "properties": { "Line": 118, "TRAS": 2400, "x": "6.38300500000e+05", "y": "9.21038159000e+06" }, "geometry": { "type": "Point", "coordinates": [ 112.252427920656814, -7.141854726398504 ] } },
{ "type": "Feature", "properties": { "Line": 118, "TRAS": 2500, "x": "6.38300500000e+05", "y": "9.20913159000e+06" }, "geometry": { "type": "Point", "coordinates": [ 112.25245870887764, -7.153159391444202 ] } },
{ "type": "Feature", "properties": { "Line": 118, "TRAS": 2600, "x": "6.38300500000e+05", "y": "9.20788150000e+06" }, "geometry": { "type": "Point", "coordinates": [ 112.252489549279616, -7.164464864758072 ] } },
{ "type": "Feature", "properties": { "Line": 118, "TRAS": 2700, "x": "6.38300500000e+05", "y": "9.20663150000e+06" }, "geometry": { "type": "Point", "coordinates": [ 112.252520437428061, -7.175769518460387 ] } },
{ "type": "Feature", "properties": { "Line": 118, "TRAS": 2800, "x": "6.38300500000e+05", "y": "9.20538150000e+06" }, "geometry": { "type": "Point", "coordinates": [ 112.252551375547611, -7.187074166478047 ] } },
{ "type": "Feature", "properties": { "Line": 118, "TRAS": 2900, "x": "6.38300500000e+05", "y": "9.20413150000e+06" }, "geometry": { "type": "Point", "coordinates": [ 112.252582363644279, -7.198378808802281 ] } },
{ "type": "Feature", "properties": { "Line": 118, "TRAS": 3000, "x": "6.38300500000e+05", "y": "9.20288150000e+06" }, "geometry": { "type": "Point", "coordinates": [ 112.25261340172419, -7.209683445424306 ] } },
{ "type": "Feature", "properties": { "Line": 120, "TRAS": 1100, "x": "6.39300500000e+05", "y": "9.22658150000e+06" }, "geometry": { "type": "Point", "coordinates": [ 112.261084929078066, -6.995322413182816 ] } },
{ "type": "Feature", "properties": { "Line": 120, "TRAS": 1200, "x": "6.39300500000e+05", "y": "9.22533150000e+06" }, "geometry": { "type": "Point", "coordinates": [ 112.261115288140601, -7.006627111460451 ] } },
{ "type": "Feature", "properties": { "Line": 120, "TRAS": 1300, "x": "6.39300500000e+05", "y": "9.22408150000e+06" }, "geometry": { "type": "Point", "coordinates": [ 112.261145697445102, -7.017931804183009 ] } },
{ "type": "Feature", "properties": { "Line": 120, "TRAS": 1400, "x": "6.39300500000e+05", "y": "9.22283150000e+06" }, "geometry": { "type": "Point", "coordinates": [ 112.261176156997522, -7.029236491341699 ] } },
{ "type": "Feature", "properties": { "Line": 120, "TRAS": 1500, "x": "6.39300500000e+05", "y": "9.22158150000e+06" }, "geometry": { "type": "Point", "coordinates": [ 112.261206666803844, -7.040541172927727 ] } },
{ "type": "Feature", "properties": { "Line": 120, "TRAS": 1600, "x": "6.39300500000e+05", "y": "9.22033159000e+06" }, "geometry": { "type": "Point", "coordinates": [ 112.26123722466788, -7.051845034995838 ] } },
{ "type": "Feature", "properties": { "Line": 120, "TRAS": 1700, "x": "6.39300500000e+05", "y": "9.21908159000e+06" }, "geometry": { "type": "Point", "coordinates": [ 112.261267834996275, -7.063149705410583 ] } },
{ "type": "Feature", "properties": { "Line": 120, "TRAS": 1800, "x": "6.39300500000e+05", "y": "9.21783159000e+06" }, "geometry": { "type": "Point", "coordinates": [ 112.261298495596506, -7.074454370226299 ] } },
{ "type": "Feature", "properties": { "Line": 120, "TRAS": 1900, "x": "6.39300500000e+05", "y": "9.21658159000e+06" }, "geometry": { "type": "Point", "coordinates": [ 112.261329206474571, -7.085759029434199 ] } },
{ "type": "Feature", "properties": { "Line": 120, "TRAS": 2000, "x": "6.39300500000e+05", "y": "9.21533159000e+06" }, "geometry": { "type": "Point", "coordinates": [ 112.261359967636508, -7.097063683025501 ] } },
{ "type": "Feature", "properties": { "Line": 120, "TRAS": 2100, "x": "6.39300500000e+05", "y": "9.21408159000e+06" }, "geometry": { "type": "Point", "coordinates": [ 112.261390779088316, -7.10836833099141 ] } },
{ "type": "Feature", "properties": { "Line": 120, "TRAS": 2200, "x": "6.39300500000e+05", "y": "9.21283159000e+06" }, "geometry": { "type": "Point", "coordinates": [ 112.261421640836048, -7.119672973323148 ] } },
{ "type": "Feature", "properties": { "Line": 120, "TRAS": 2300, "x": "6.39300500000e+05", "y": "9.21158159000e+06" }, "geometry": { "type": "Point", "coordinates": [ 112.261452552885757, -7.130977610011926 ] } },
{ "type": "Feature", "properties": { "Line": 120, "TRAS": 2400, "x": "6.39300500000e+05", "y": "9.21033159000e+06" }, "geometry": { "type": "Point", "coordinates": [ 112.261483515243484, -7.142282241048964 ] } },
{ "type": "Feature", "properties": { "Line": 120, "TRAS": 2500, "x": "6.39300500000e+05", "y": "9.20908159000e+06" }, "geometry": { "type": "Point", "coordinates": [ 112.261514527915296, -7.153586866425475 ] } },
{ "type": "Feature", "properties": { "Line": 120, "TRAS": 2600, "x": "6.39300500000e+05", "y": "9.20783150000e+06" }, "geometry": { "type": "Point", "coordinates": [ 112.261545593145613, -7.164892300065094 ] } },
{ "type": "Feature", "properties": { "Line": 120, "TRAS": 2700, "x": "6.39300500000e+05", "y": "9.20658150000e+06" }, "geometry": { "type": "Point", "coordinates": [ 112.261576706467466, -7.176196914093805 ] } },
{ "type": "Feature", "properties": { "Line": 120, "TRAS": 2800, "x": "6.39300500000e+05", "y": "9.20533150000e+06" }, "geometry": { "type": "Point", "coordinates": [ 112.261607870121665, -7.187501522435644 ] } },
{ "type": "Feature", "properties": { "Line": 120, "TRAS": 2900, "x": "6.39300500000e+05", "y": "9.20408150000e+06" }, "geometry": { "type": "Point", "coordinates": [ 112.261639084114321, -7.198806125081837 ] } },
{ "type": "Feature", "properties": { "Line": 120, "TRAS": 3000, "x": "6.39300500000e+05", "y": "9.20283150000e+06" }, "geometry": { "type": "Point", "coordinates": [ 112.26167034845156, -7.210110722023603 ] } },
{ "type": "Feature", "properties": { "Line": 122, "TRAS": 1100, "x": "6.40300500000e+05", "y": "9.22713150000e+06" }, "geometry": { "type": "Point", "coordinates": [ 112.270122964126443, -6.990324028257082 ] } },
{ "type": "Feature", "properties": { "Line": 122, "TRAS": 1200, "x": "6.40300500000e+05", "y": "9.22588150000e+06" }, "geometry": { "type": "Point", "coordinates": [ 112.270153518686612, -7.001628689274413 ] } },
{ "type": "Feature", "properties": { "Line": 122, "TRAS": 1300, "x": "6.40300500000e+05", "y": "9.22463150000e+06" }, "geometry": { "type": "Point", "coordinates": [ 112.270184123846448, -7.012933344738705 ] } },
{ "type": "Feature", "properties": { "Line": 122, "TRAS": 1400, "x": "6.40300500000e+05", "y": "9.22338150000e+06" }, "geometry": { "type": "Point", "coordinates": [ 112.27021477961199, -7.024237994641166 ] } },
{ "type": "Feature", "properties": { "Line": 122, "TRAS": 1500, "x": "6.40300500000e+05", "y": "9.22213150000e+06" }, "geometry": { "type": "Point", "coordinates": [ 112.270245485989236, -7.035542638972998 ] } },
{ "type": "Feature", "properties": { "Line": 122, "TRAS": 1600, "x": "6.40300500000e+05", "y": "9.22088150000e+06" }, "geometry": { "type": "Point", "coordinates": [ 112.270276242984181, -7.046847277725411 ] } },
{ "type": "Feature", "properties": { "Line": 122, "TRAS": 1700, "x": "6.40300500000e+05", "y": "9.21963159000e+06" }, "geometry": { "type": "Point", "coordinates": [ 112.270307048382875, -7.058151096956221 ] } },
{ "type": "Feature", "properties": { "Line": 122, "TRAS": 1800, "x": "6.40300500000e+05", "y": "9.21838159000e+06" }, "geometry": { "type": "Point", "coordinates": [ 112.27033790662766, -7.069455724523815 ] } },
{ "type": "Feature", "properties": { "Line": 122, "TRAS": 1900, "x": "6.40300500000e+05", "y": "9.21713159000e+06" }, "geometry": { "type": "Point", "coordinates": [ 112.270368815508263, -7.080760346485611 ] } },
{ "type": "Feature", "properties": { "Line": 122, "TRAS": 2000, "x": "6.40300500000e+05", "y": "9.21588159000e+06" }, "geometry": { "type": "Point", "coordinates": [ 112.270399775030725, -7.092064962832821 ] } },
{ "type": "Feature", "properties": { "Line": 122, "TRAS": 2100, "x": "6.40300500000e+05", "y": "9.21463159000e+06" }, "geometry": { "type": "Point", "coordinates": [ 112.270430785201086, -7.103369573556652 ] } },
{ "type": "Feature", "properties": { "Line": 122, "TRAS": 2200, "x": "6.40300500000e+05", "y": "9.21338159000e+06" }, "geometry": { "type": "Point", "coordinates": [ 112.270461846025455, -7.114674178648318 ] } },
{ "type": "Feature", "properties": { "Line": 122, "TRAS": 2300, "x": "6.40300500000e+05", "y": "9.21213159000e+06" }, "geometry": { "type": "Point", "coordinates": [ 112.270492957509916, -7.12597877809903 ] } },
{ "type": "Feature", "properties": { "Line": 122, "TRAS": 2400, "x": "6.40300500000e+05", "y": "9.21088159000e+06" }, "geometry": { "type": "Point", "coordinates": [ 112.270524119660536, -7.137283371900002 ] } },
{ "type": "Feature", "properties": { "Line": 122, "TRAS": 2500, "x": "6.40300500000e+05", "y": "9.20963159000e+06" }, "geometry": { "type": "Point", "coordinates": [ 112.270555332483468, -7.148587960042446 ] } },
{ "type": "Feature", "properties": { "Line": 122, "TRAS": 2600, "x": "6.40300500000e+05", "y": "9.20838150000e+06" }, "geometry": { "type": "Point", "coordinates": [ 112.270586598237585, -7.159893356447309 ] } },
{ "type": "Feature", "properties": { "Line": 122, "TRAS": 2700, "x": "6.40300500000e+05", "y": "9.20713150000e+06" }, "geometry": { "type": "Point", "coordinates": [ 112.27061791242707, -7.171197933245935 ] } },
{ "type": "Feature", "properties": { "Line": 122, "TRAS": 2800, "x": "6.40300500000e+05", "y": "9.20588150000e+06" }, "geometry": { "type": "Point", "coordinates": [ 112.2706492773072, -7.182502504359681 ] } },
{ "type": "Feature", "properties": { "Line": 122, "TRAS": 2900, "x": "6.40300500000e+05", "y": "9.20463150000e+06" }, "geometry": { "type": "Point", "coordinates": [ 112.270680692884156, -7.193807069779758 ] } },
{ "type": "Feature", "properties": { "Line": 122, "TRAS": 3000, "x": "6.40300500000e+05", "y": "9.20338150000e+06" }, "geometry": { "type": "Point", "coordinates": [ 112.270712159164077, -7.205111629497392 ] } },
{ "type": "Feature", "properties": { "Line": 124, "TRAS": 1100, "x": "6.41300500000e+05", "y": "9.22768150000e+06" }, "geometry": { "type": "Point", "coordinates": [ 112.279160785260075, -6.985325503528795 ] } },
{ "type": "Feature", "properties": { "Line": 124, "TRAS": 1200, "x": "6.41300500000e+05", "y": "9.22643150000e+06" }, "geometry": { "type": "Point", "coordinates": [ 112.279191534998105, -6.996630127001982 ] } },
{ "type": "Feature", "properties": { "Line": 124, "TRAS": 1300, "x": "6.41300500000e+05", "y": "9.22518150000e+06" }, "geometry": { "type": "Point", "coordinates": [ 112.279222335693518, -7.007934744924158 ] } },
{ "type": "Feature", "properties": { "Line": 124, "TRAS": 1400, "x": "6.41300500000e+05", "y": "9.22393150000e+06" }, "geometry": { "type": "Point", "coordinates": [ 112.279253187352339, -7.019239357286529 ] } },
{ "type": "Feature", "properties": { "Line": 124, "TRAS": 1500, "x": "6.41300500000e+05", "y": "9.22268150000e+06" }, "geometry": { "type": "Point", "coordinates": [ 112.279284089980621, -7.030543964080292 ] } },
{ "type": "Feature", "properties": { "Line": 124, "TRAS": 1600, "x": "6.41300500000e+05", "y": "9.22143150000e+06" }, "geometry": { "type": "Point", "coordinates": [ 112.279315043584418, -7.041848565296654 ] } },
{ "type": "Feature", "properties": { "Line": 124, "TRAS": 1700, "x": "6.41300500000e+05", "y": "9.22018159000e+06" }, "geometry": { "type": "Point", "coordinates": [ 112.279346045935611, -7.053152346996131 ] } },
{ "type": "Feature", "properties": { "Line": 124, "TRAS": 1800, "x": "6.41300500000e+05", "y": "9.21893159000e+06" }, "geometry": { "type": "Point", "coordinates": [ 112.279377101504949, -7.064456937031699 ] } },
{ "type": "Feature", "properties": { "Line": 124, "TRAS": 1900, "x": "6.41300500000e+05", "y": "9.21768159000e+06" }, "geometry": { "type": "Point", "coordinates": [ 112.279408208068006, -7.075761521463478 ] } },
{ "type": "Feature", "properties": { "Line": 124, "TRAS": 2000, "x": "6.41300500000e+05", "y": "9.21643159000e+06" }, "geometry": { "type": "Point", "coordinates": [ 112.279439365630893, -7.087066100282676 ] } },
{ "type": "Feature", "properties": { "Line": 124, "TRAS": 2100, "x": "6.41300500000e+05", "y": "9.21518159000e+06" }, "geometry": { "type": "Point", "coordinates": [ 112.279470574199692, -7.098370673480495 ] } },
{ "type": "Feature", "properties": { "Line": 124, "TRAS": 2200, "x": "6.41300500000e+05", "y": "9.21393159000e+06" }, "geometry": { "type": "Point", "coordinates": [ 112.279501833780515, -7.109675241048146 ] } },
{ "type": "Feature", "properties": { "Line": 124, "TRAS": 2300, "x": "6.41300500000e+05", "y": "9.21268159000e+06" }, "geometry": { "type": "Point", "coordinates": [ 112.279533144379513, -7.120979802976838 ] } },
{ "type": "Feature", "properties": { "Line": 124, "TRAS": 2400, "x": "6.41300500000e+05", "y": "9.21143159000e+06" }, "geometry": { "type": "Point", "coordinates": [ 112.279564506002785, -7.132284359257778 ] } },
{ "type": "Feature", "properties": { "Line": 124, "TRAS": 2500, "x": "6.41300500000e+05", "y": "9.21018159000e+06" }, "geometry": { "type": "Point", "coordinates": [ 112.279595918656497, -7.143588909882181 ] } },
{ "type": "Feature", "properties": { "Line": 124, "TRAS": 2600, "x": "6.41300500000e+05", "y": "9.20893159000e+06" }, "geometry": { "type": "Point", "coordinates": [ 112.279627382346789, -7.154893454841252 ] } },
{ "type": "Feature", "properties": { "Line": 124, "TRAS": 2700, "x": "6.41300500000e+05", "y": "9.20768150000e+06" }, "geometry": { "type": "Point", "coordinates": [ 112.279658899350736, -7.16619880805283 ] } },
{ "type": "Feature", "properties": { "Line": 124, "TRAS": 2800, "x": "6.41300500000e+05", "y": "9.20643150000e+06" }, "geometry": { "type": "Point", "coordinates": [ 112.279690465136397, -7.177503341654471 ] } },
{ "type": "Feature", "properties": { "Line": 124, "TRAS": 2900, "x": "6.41300500000e+05", "y": "9.20518150000e+06" }, "geometry": { "type": "Point", "coordinates": [ 112.27972208197717, -7.18880786956442 ] } },
{ "type": "Feature", "properties": { "Line": 124, "TRAS": 3000, "x": "6.41300500000e+05", "y": "9.20393150000e+06" }, "geometry": { "type": "Point", "coordinates": [ 112.279753749879248, -7.200112391773891 ] } },
{ "type": "Feature", "properties": { "Line": 124, "TRAS": 3100, "x": "6.41300500000e+05", "y": "9.20268150000e+06" }, "geometry": { "type": "Point", "coordinates": [ 112.279785468848857, -7.211416908274104 ] } },
{ "type": "Feature", "properties": { "Line": 126, "TRAS": 1100, "x": "6.42300500000e+05", "y": "9.22638150000e+06" }, "geometry": { "type": "Point", "coordinates": [ 112.288244208691225, -6.997057624159684 ] } },
{ "type": "Feature", "properties": { "Line": 126, "TRAS": 1200, "x": "6.42300500000e+05", "y": "9.22513150000e+06" }, "geometry": { "type": "Point", "coordinates": [ 112.288275229235751, -7.008362201589272 ] } },
{ "type": "Feature", "properties": { "Line": 126, "TRAS": 1300, "x": "6.42300500000e+05", "y": "9.22388150000e+06" }, "geometry": { "type": "Point", "coordinates": [ 112.288306301104313, -7.019666773456844 ] } },
{ "type": "Feature", "properties": { "Line": 126, "TRAS": 1400, "x": "6.42300500000e+05", "y": "9.22263150000e+06" }, "geometry": { "type": "Point", "coordinates": [ 112.288337424302981, -7.030971339753597 ] } },
{ "type": "Feature", "properties": { "Line": 126, "TRAS": 1500, "x": "6.42300500000e+05", "y": "9.22138150000e+06" }, "geometry": { "type": "Point", "coordinates": [ 112.288368598837835, -7.04227590047073 ] } },
{ "type": "Feature", "properties": { "Line": 126, "TRAS": 1600, "x": "6.42300500000e+05", "y": "9.22013159000e+06" }, "geometry": { "type": "Point", "coordinates": [ 112.288399822464896, -7.053579641671678 ] } },
{ "type": "Feature", "properties": { "Line": 126, "TRAS": 1700, "x": "6.42300500000e+05", "y": "9.21888159000e+06" }, "geometry": { "type": "Point", "coordinates": [ 112.288431099686775, -7.064884191203578 ] } },
{ "type": "Feature", "properties": { "Line": 126, "TRAS": 1800, "x": "6.42300500000e+05", "y": "9.21763159000e+06" }, "geometry": { "type": "Point", "coordinates": [ 112.288462428263202, -7.076188735129465 ] } },
{ "type": "Feature", "properties": { "Line": 126, "TRAS": 1900, "x": "6.42300500000e+05", "y": "9.21638159000e+06" }, "geometry": { "type": "Point", "coordinates": [ 112.288493808200315, -7.087493273440539 ] } },
{ "type": "Feature", "properties": { "Line": 126, "TRAS": 2000, "x": "6.42300500000e+05", "y": "9.21513159000e+06" }, "geometry": { "type": "Point", "coordinates": [ 112.288525239504239, -7.098797806128005 ] } },
{ "type": "Feature", "properties": { "Line": 126, "TRAS": 2100, "x": "6.42300500000e+05", "y": "9.21388159000e+06" }, "geometry": { "type": "Point", "coordinates": [ 112.288556722181156, -7.110102333183068 ] } },
{ "type": "Feature", "properties": { "Line": 126, "TRAS": 2200, "x": "6.42300500000e+05", "y": "9.21263159000e+06" }, "geometry": { "type": "Point", "coordinates": [ 112.288588256237219, -7.121406854596934 ] } },
{ "type": "Feature", "properties": { "Line": 126, "TRAS": 2300, "x": "6.42300500000e+05", "y": "9.21138159000e+06" }, "geometry": { "type": "Point", "coordinates": [ 112.28861984167861, -7.132711370360808 ] } },
{ "type": "Feature", "properties": { "Line": 126, "TRAS": 2400, "x": "6.42300500000e+05", "y": "9.21013159000e+06" }, "geometry": { "type": "Point", "coordinates": [ 112.288651478511525, -7.1440158804659 ] } },
{ "type": "Feature", "properties": { "Line": 126, "TRAS": 2500, "x": "6.42300500000e+05", "y": "9.20888159000e+06" }, "geometry": { "type": "Point", "coordinates": [ 112.288683166742118, -7.155320384903414 ] } },
{ "type": "Feature", "properties": { "Line": 126, "TRAS": 2600, "x": "6.42300500000e+05", "y": "9.20763150000e+06" }, "geometry": { "type": "Point", "coordinates": [ 112.288714908663778, -7.166625697588267 ] } },
{ "type": "Feature", "properties": { "Line": 126, "TRAS": 2700, "x": "6.42300500000e+05", "y": "9.20638150000e+06" }, "geometry": { "type": "Point", "coordinates": [ 112.288746699712163, -7.177930190663846 ] } },
{ "type": "Feature", "properties": { "Line": 126, "TRAS": 2800, "x": "6.42300500000e+05", "y": "9.20513150000e+06" }, "geometry": { "type": "Point", "coordinates": [ 112.2887785421769, -7.189234678045478 ] } },
{ "type": "Feature", "properties": { "Line": 126, "TRAS": 2900, "x": "6.42300500000e+05", "y": "9.20388150000e+06" }, "geometry": { "type": "Point", "coordinates": [ 112.288810436064281, -7.200539159724373 ] } },
{ "type": "Feature", "properties": { "Line": 126, "TRAS": 3000, "x": "6.42300500000e+05", "y": "9.20263150000e+06" }, "geometry": { "type": "Point", "coordinates": [ 112.288842381380505, -7.211843635691745 ] } },
{ "type": "Feature", "properties": { "Line": 128, "TRAS": 1100, "x": "6.43300500000e+05", "y": "9.22618150000e+06" }, "geometry": { "type": "Point", "coordinates": [ 112.297300613154732, -6.998841488812553 ] } },
{ "type": "Feature", "properties": { "Line": 128, "TRAS": 1200, "x": "6.43300500000e+05", "y": "9.22493150000e+06" }, "geometry": { "type": "Point", "coordinates": [ 112.297331859775184, -7.010146024798397 ] } },
{ "type": "Feature", "properties": { "Line": 128, "TRAS": 1300, "x": "6.43300500000e+05", "y": "9.22368150000e+06" }, "geometry": { "type": "Point", "coordinates": [ 112.297363158080984, -7.021450555218944 ] } },
{ "type": "Feature", "properties": { "Line": 128, "TRAS": 1400, "x": "6.43300500000e+05", "y": "9.22243150000e+06" }, "geometry": { "type": "Point", "coordinates": [ 112.29739450807827, -7.032755080065388 ] } },
{ "type": "Feature", "properties": { "Line": 128, "TRAS": 1500, "x": "6.43300500000e+05", "y": "9.22118150000e+06" }, "geometry": { "type": "Point", "coordinates": [ 112.297425909773182, -7.044059599328928 ] } },
{ "type": "Feature", "properties": { "Line": 128, "TRAS": 1600, "x": "6.43300500000e+05", "y": "9.21993159000e+06" }, "geometry": { "type": "Point", "coordinates": [ 112.297457360905355, -7.055363299075979 ] } },
{ "type": "Feature", "properties": { "Line": 128, "TRAS": 1700, "x": "6.43300500000e+05", "y": "9.21868159000e+06" }, "geometry": { "type": "Point", "coordinates": [ 112.297488866010227, -7.066667807147705 ] } },
{ "type": "Feature", "properties": { "Line": 128, "TRAS": 1800, "x": "6.43300500000e+05", "y": "9.21743159000e+06" }, "geometry": { "type": "Point", "coordinates": [ 112.297520422831226, -7.077972309610121 ] } },
{ "type": "Feature", "properties": { "Line": 128, "TRAS": 1900, "x": "6.43300500000e+05", "y": "9.21618159000e+06" }, "geometry": { "type": "Point", "coordinates": [ 112.297552031374479, -7.08927680645443 ] } },
{ "type": "Feature", "properties": { "Line": 128, "TRAS": 2000, "x": "6.43300500000e+05", "y": "9.21493159000e+06" }, "geometry": { "type": "Point", "coordinates": [ 112.29758369164621, -7.100581297671829 ] } },
{ "type": "Feature", "properties": { "Line": 128, "TRAS": 2100, "x": "6.43300500000e+05", "y": "9.21368159000e+06" }, "geometry": { "type": "Point", "coordinates": [ 112.297615403652628, -7.111885783253522 ] } },
{ "type": "Feature", "properties": { "Line": 128, "TRAS": 2200, "x": "6.43300500000e+05", "y": "9.21243159000e+06" }, "geometry": { "type": "Point", "coordinates": [ 112.297647167399916, -7.123190263190709 ] } },
{ "type": "Feature", "properties": { "Line": 128, "TRAS": 2300, "x": "6.43300500000e+05", "y": "9.21118159000e+06" }, "geometry": { "type": "Point", "coordinates": [ 112.297678982894325, -7.134494737474595 ] } },
{ "type": "Feature", "properties": { "Line": 128, "TRAS": 2400, "x": "6.43300500000e+05", "y": "9.20993159000e+06" }, "geometry": { "type": "Point", "coordinates": [ 112.297710850142067, -7.145799206096386 ] } },
{ "type": "Feature", "properties": { "Line": 128, "TRAS": 2500, "x": "6.43300500000e+05", "y": "9.20868150000e+06" }, "geometry": { "type": "Point", "coordinates": [ 112.297742771449421, -7.157104482968409 ] } },
{ "type": "Feature", "properties": { "Line": 128, "TRAS": 2600, "x": "6.43300500000e+05", "y": "9.20743150000e+06" }, "geometry": { "type": "Point", "coordinates": [ 112.297774742226295, -7.168408940239212 ] } },
{ "type": "Feature", "properties": { "Line": 128, "TRAS": 2700, "x": "6.43300500000e+05", "y": "9.20618150000e+06" }, "geometry": { "type": "Point", "coordinates": [ 112.297806764775302, -7.179713391821531 ] } },
{ "type": "Feature", "properties": { "Line": 128, "TRAS": 2800, "x": "6.43300500000e+05", "y": "9.20493150000e+06" }, "geometry": { "type": "Point", "coordinates": [ 112.297838839102667, -7.191017837706582 ] } },
{ "type": "Feature", "properties": { "Line": 128, "TRAS": 2900, "x": "6.43300500000e+05", "y": "9.20368150000e+06" }, "geometry": { "type": "Point", "coordinates": [ 112.297870965214699, -7.202322277885568 ] } },
{ "type": "Feature", "properties": { "Line": 128, "TRAS": 3000, "x": "6.43300500000e+05", "y": "9.20243150000e+06" }, "geometry": { "type": "Point", "coordinates": [ 112.297903143117694, -7.213626712349698 ] } },
{ "type": "Feature", "properties": { "Line": 130, "TRAS": 1100, "x": "6.44300500000e+05", "y": "9.22603150000e+06" }, "geometry": { "type": "Point", "coordinates": [ 112.306355797695048, -7.000172986417435 ] } },
{ "type": "Feature", "properties": { "Line": 130, "TRAS": 1200, "x": "6.44300500000e+05", "y": "9.22478150000e+06" }, "geometry": { "type": "Point", "coordinates": [ 112.306387268421219, -7.011477480897522 ] } },
{ "type": "Feature", "properties": { "Line": 130, "TRAS": 1300, "x": "6.44300500000e+05", "y": "9.22353150000e+06" }, "geometry": { "type": "Point", "coordinates": [ 112.306418791193835, -7.022781969809369 ] } },
{ "type": "Feature", "properties": { "Line": 130, "TRAS": 1400, "x": "6.44300500000e+05", "y": "9.22228150000e+06" }, "geometry": { "type": "Point", "coordinates": [ 112.306450366019078, -7.034086453144171 ] } },
{ "type": "Feature", "properties": { "Line": 130, "TRAS": 1500, "x": "6.44300500000e+05", "y": "9.22103150000e+06" }, "geometry": { "type": "Point", "coordinates": [ 112.306481992903116, -7.045390930893119 ] } },
{ "type": "Feature", "properties": { "Line": 130, "TRAS": 1600, "x": "6.44300500000e+05", "y": "9.21978159000e+06" }, "geometry": { "type": "Point", "coordinates": [ 112.306513669569398, -7.056694589125618 ] } },
{ "type": "Feature", "properties": { "Line": 130, "TRAS": 1700, "x": "6.44300500000e+05", "y": "9.21853159000e+06" }, "geometry": { "type": "Point", "coordinates": [ 112.306545400585904, -7.067999055676849 ] } },
{ "type": "Feature", "properties": { "Line": 130, "TRAS": 1800, "x": "6.44300500000e+05", "y": "9.21728159000e+06" }, "geometry": { "type": "Point", "coordinates": [ 112.306577183679806, -7.079303516615814 ] } },
{ "type": "Feature", "properties": { "Line": 130, "TRAS": 1900, "x": "6.44300500000e+05", "y": "9.21603159000e+06" }, "geometry": { "type": "Point", "coordinates": [ 112.306609018857358, -7.090607971933709 ] } },
{ "type": "Feature", "properties": { "Line": 130, "TRAS": 2000, "x": "6.44300500000e+05", "y": "9.21478159000e+06" }, "geometry": { "type": "Point", "coordinates": [ 112.30664090612477, -7.101912421621733 ] } },
{ "type": "Feature", "properties": { "Line": 130, "TRAS": 2100, "x": "6.44300500000e+05", "y": "9.21353159000e+06" }, "geometry": { "type": "Point", "coordinates": [ 112.306672845488322, -7.113216865671082 ] } },
{ "type": "Feature", "properties": { "Line": 130, "TRAS": 2200, "x": "6.44300500000e+05", "y": "9.21228159000e+06" }, "geometry": { "type": "Point", "coordinates": [ 112.306704836954225, -7.124521304072959 ] } },
{ "type": "Feature", "properties": { "Line": 130, "TRAS": 2300, "x": "6.44300500000e+05", "y": "9.21103159000e+06" }, "geometry": { "type": "Point", "coordinates": [ 112.306736880528788, -7.135825736818563 ] } },
{ "type": "Feature", "properties": { "Line": 130, "TRAS": 2400, "x": "6.44300500000e+05", "y": "9.20978159000e+06" }, "geometry": { "type": "Point", "coordinates": [ 112.306768976218279, -7.147130163899094 ] } },
{ "type": "Feature", "properties": { "Line": 130, "TRAS": 2500, "x": "6.44300500000e+05", "y": "9.20853150000e+06" }, "geometry": { "type": "Point", "coordinates": [ 112.306801126345491, -7.158435399223892 ] } },
{ "type": "Feature", "properties": { "Line": 130, "TRAS": 2600, "x": "6.44300500000e+05", "y": "9.20728150000e+06" }, "geometry": { "type": "Point", "coordinates": [ 112.306833326287446, -7.169739814947474 ] } },
{ "type": "Feature", "properties": { "Line": 130, "TRAS": 2700, "x": "6.44300500000e+05", "y": "9.20603150000e+06" }, "geometry": { "type": "Point", "coordinates": [ 112.306865578363229, -7.181044224979593 ] } },
{ "type": "Feature", "properties": { "Line": 130, "TRAS": 2800, "x": "6.44300500000e+05", "y": "9.20478150000e+06" }, "geometry": { "type": "Point", "coordinates": [ 112.30689788257915, -7.192348629311454 ] } },
{ "type": "Feature", "properties": { "Line": 130, "TRAS": 2900, "x": "6.44300500000e+05", "y": "9.20353150000e+06" }, "geometry": { "type": "Point", "coordinates": [ 112.306930238941533, -7.203653027934259 ] } },
{ "type": "Feature", "properties": { "Line": 130, "TRAS": 3000, "x": "6.44300500000e+05", "y": "9.20228150000e+06" }, "geometry": { "type": "Point", "coordinates": [ 112.306962647456729, -7.214957420839212 ] } },
{ "type": "Feature", "properties": { "Line": 132, "TRAS": 1100, "x": "6.45300500000e+05", "y": "9.22563150000e+06" }, "geometry": { "type": "Point", "coordinates": [ 112.31541733672276, -7.003765191062339 ] } },
{ "type": "Feature", "properties": { "Line": 132, "TRAS": 1200, "x": "6.45300500000e+05", "y": "9.22438150000e+06" }, "geometry": { "type": "Point", "coordinates": [ 112.315449042118289, -7.01506964263881 ] } },
{ "type": "Feature", "properties": { "Line": 132, "TRAS": 1300, "x": "6.45300500000e+05", "y": "9.22313150000e+06" }, "geometry": { "type": "Point", "coordinates": [ 112.315480799922611, -7.026374088642325 ] } },
{ "type": "Feature", "properties": { "Line": 132, "TRAS": 1400, "x": "6.45300500000e+05", "y": "9.22188150000e+06" }, "geometry": { "type": "Point", "coordinates": [ 112.315512610141951, -7.037678529064071 ] } },
{ "type": "Feature", "properties": { "Line": 132, "TRAS": 1500, "x": "6.45300500000e+05", "y": "9.22063159000e+06" }, "geometry": { "type": "Point", "coordinates": [ 112.315544470486515, -7.048982149976139 ] } },
{ "type": "Feature", "properties": { "Line": 132, "TRAS": 1600, "x": "6.45300500000e+05", "y": "9.21938159000e+06" }, "geometry": { "type": "Point", "coordinates": [ 112.315576385550784, -7.060286579208331 ] } },
{ "type": "Feature", "properties": { "Line": 132, "TRAS": 1700, "x": "6.45300500000e+05", "y": "9.21813159000e+06" }, "geometry": { "type": "Point", "coordinates": [ 112.315608353048759, -7.07159100283233 ] } },
{ "type": "Feature", "properties": { "Line": 132, "TRAS": 1800, "x": "6.45300500000e+05", "y": "9.21688159000e+06" }, "geometry": { "type": "Point", "coordinates": [ 112.315640372986749, -7.082895420839329 ] } },
{ "type": "Feature", "properties": { "Line": 132, "TRAS": 1900, "x": "6.45300500000e+05", "y": "9.21563159000e+06" }, "geometry": { "type": "Point", "coordinates": [ 112.315672445370978, -7.094199833220526 ] } },
{ "type": "Feature", "properties": { "Line": 132, "TRAS": 2000, "x": "6.45300500000e+05", "y": "9.21438159000e+06" }, "geometry": { "type": "Point", "coordinates": [ 112.315704570207757, -7.105504239967114 ] } },
{ "type": "Feature", "properties": { "Line": 132, "TRAS": 2100, "x": "6.45300500000e+05", "y": "9.21313159000e+06" }, "geometry": { "type": "Point", "coordinates": [ 112.315736747503351, -7.116808641070286 ] } },
{ "type": "Feature", "properties": { "Line": 132, "TRAS": 2200, "x": "6.45300500000e+05", "y": "9.21188159000e+06" }, "geometry": { "type": "Point", "coordinates": [ 112.315768977264099, -7.128113036521242 ] } },
{ "type": "Feature", "properties": { "Line": 132, "TRAS": 2300, "x": "6.45300500000e+05", "y": "9.21063159000e+06" }, "geometry": { "type": "Point", "coordinates": [ 112.315801259496268, -7.139417426311177 ] } },
{ "type": "Feature", "properties": { "Line": 132, "TRAS": 2400, "x": "6.45300500000e+05", "y": "9.20938159000e+06" }, "geometry": { "type": "Point", "coordinates": [ 112.315833594206239, -7.150721810431292 ] } },
{ "type": "Feature", "properties": { "Line": 132, "TRAS": 2500, "x": "6.45300500000e+05", "y": "9.20813150000e+06" }, "geometry": { "type": "Point", "coordinates": [ 112.315865983734071, -7.162027002787824 ] } },
{ "type": "Feature", "properties": { "Line": 132, "TRAS": 2600, "x": "6.45300500000e+05", "y": "9.20688150000e+06" }, "geometry": { "type": "Point", "coordinates": [ 112.315898423422382, -7.173331375541481 ] } },
{ "type": "Feature", "properties": { "Line": 132, "TRAS": 2700, "x": "6.45300500000e+05", "y": "9.20563150000e+06" }, "geometry": { "type": "Point", "coordinates": [ 112.315930915607495, -7.184635742598913 ] } },
{ "type": "Feature", "properties": { "Line": 132, "TRAS": 2800, "x": "6.45300500000e+05", "y": "9.20438150000e+06" }, "geometry": { "type": "Point", "coordinates": [ 112.315963460295791, -7.195940103951328 ] } },
{ "type": "Feature", "properties": { "Line": 132, "TRAS": 2900, "x": "6.45300500000e+05", "y": "9.20313150000e+06" }, "geometry": { "type": "Point", "coordinates": [ 112.315996057493635, -7.207244459589925 ] } },
{ "type": "Feature", "properties": { "Line": 132, "TRAS": 3000, "x": "6.45300500000e+05", "y": "9.20188150000e+06" }, "geometry": { "type": "Point", "coordinates": [ 112.316028707207423, -7.2185488095059 ] } },
{ "type": "Feature", "properties": { "Line": 134, "TRAS": 1100, "x": "6.46300500000e+05", "y": "9.22563150000e+06" }, "geometry": { "type": "Point", "coordinates": [ 112.324468777242743, -7.0037397827525 ] } },
{ "type": "Feature", "properties": { "Line": 134, "TRAS": 1200, "x": "6.46300500000e+05", "y": "9.22438150000e+06" }, "geometry": { "type": "Point", "coordinates": [ 112.324500700649466, -7.015044192922492 ] } },
{ "type": "Feature", "properties": { "Line": 134, "TRAS": 1300, "x": "6.46300500000e+05", "y": "9.22313150000e+06" }, "geometry": { "type": "Point", "coordinates": [ 112.324532676825328, -7.026348597517615 ] } },
{ "type": "Feature", "properties": { "Line": 134, "TRAS": 1400, "x": "6.46300500000e+05", "y": "9.22188150000e+06" }, "geometry": { "type": "Point", "coordinates": [ 112.324564705776623, -7.037652996529054 ] } },
{ "type": "Feature", "properties": { "Line": 134, "TRAS": 1500, "x": "6.46300500000e+05", "y": "9.22063159000e+06" }, "geometry": { "type": "Point", "coordinates": [ 112.324596785197812, -7.048956576031877 ] } },
{ "type": "Feature", "properties": { "Line": 134, "TRAS": 1600, "x": "6.46300500000e+05", "y": "9.21938159000e+06" }, "geometry": { "type": "Point", "coordinates": [ 112.324628919714925, -7.060260963849921 ] } },
{ "type": "Feature", "properties": { "Line": 134, "TRAS": 1700, "x": "6.46300500000e+05", "y": "9.21813159000e+06" }, "geometry": { "type": "Point", "coordinates": [ 112.324661107026316, -7.071565346057849 ] } },
{ "type": "Feature", "properties": { "Line": 134, "TRAS": 1800, "x": "6.46300500000e+05", "y": "9.21688159000e+06" }, "geometry": { "type": "Point", "coordinates": [ 112.324693347138265, -7.082869722646848 ] } },
{ "type": "Feature", "properties": { "Line": 134, "TRAS": 1900, "x": "6.46300500000e+05", "y": "9.21563159000e+06" }, "geometry": { "type": "Point", "coordinates": [ 112.324725640057082, -7.094174093608113 ] } },
{ "type": "Feature", "properties": { "Line": 134, "TRAS": 2000, "x": "6.46300500000e+05", "y": "9.21438159000e+06" }, "geometry": { "type": "Point", "coordinates": [ 112.324757985789091, -7.105478458932834 ] } },
{ "type": "Feature", "properties": { "Line": 134, "TRAS": 2100, "x": "6.46300500000e+05", "y": "9.21313159000e+06" }, "geometry": { "type": "Point", "coordinates": [ 112.324790384340645, -7.116782818612201 ] } },
{ "type": "Feature", "properties": { "Line": 134, "TRAS": 2200, "x": "6.46300500000e+05", "y": "9.21188159000e+06" }, "geometry": { "type": "Point", "coordinates": [ 112.324822835718081, -7.128087172637412 ] } },
{ "type": "Feature", "properties": { "Line": 134, "TRAS": 2300, "x": "6.46300500000e+05", "y": "9.21063159000e+06" }, "geometry": { "type": "Point", "coordinates": [ 112.324855339927751, -7.139391520999657 ] } },
{ "type": "Feature", "properties": { "Line": 134, "TRAS": 2400, "x": "6.46300500000e+05", "y": "9.20938159000e+06" }, "geometry": { "type": "Point", "coordinates": [ 112.324887896976037, -7.150695863690134 ] } },
{ "type": "Feature", "properties": { "Line": 134, "TRAS": 2500, "x": "6.46300500000e+05", "y": "9.20813150000e+06" }, "geometry": { "type": "Point", "coordinates": [ 112.324920509219112, -7.162001014612096 ] } },
{ "type": "Feature", "properties": { "Line": 134, "TRAS": 2600, "x": "6.46300500000e+05", "y": "9.20688150000e+06" }, "geometry": { "type": "Point", "coordinates": [ 112.324953171967564, -7.173305345932211 ] } },
{ "type": "Feature", "properties": { "Line": 134, "TRAS": 2700, "x": "6.46300500000e+05", "y": "9.20563150000e+06" }, "geometry": { "type": "Point", "coordinates": [ 112.324985887573789, -7.184609671554143 ] } },
{ "type": "Feature", "properties": { "Line": 134, "TRAS": 2800, "x": "6.46300500000e+05", "y": "9.20438150000e+06" }, "geometry": { "type": "Point", "coordinates": [ 112.325018656044193, -7.195913991469099 ] } },
{ "type": "Feature", "properties": { "Line": 134, "TRAS": 2900, "x": "6.46300500000e+05", "y": "9.20313150000e+06" }, "geometry": { "type": "Point", "coordinates": [ 112.325051477385202, -7.207218305668271 ] } },
{ "type": "Feature", "properties": { "Line": 136, "TRAS": 1100, "x": "6.47300500000e+05", "y": "9.22563150000e+06" }, "geometry": { "type": "Point", "coordinates": [ 112.333520183994466, -7.003714200329989 ] } },
{ "type": "Feature", "properties": { "Line": 136, "TRAS": 1200, "x": "6.47300500000e+05", "y": "9.22438150000e+06" }, "geometry": { "type": "Point", "coordinates": [ 112.333552325408377, -7.015018568809764 ] } },
{ "type": "Feature", "properties": { "Line": 136, "TRAS": 1300, "x": "6.47300500000e+05", "y": "9.22313150000e+06" }, "geometry": { "type": "Point", "coordinates": [ 112.333584519951799, -7.026322931712746 ] } },
{ "type": "Feature", "properties": { "Line": 136, "TRAS": 1400, "x": "6.47300500000e+05", "y": "9.22188150000e+06" }, "geometry": { "type": "Point", "coordinates": [ 112.333616767631042, -7.037627289030115 ] } },
{ "type": "Feature", "properties": { "Line": 136, "TRAS": 1500, "x": "6.47300500000e+05", "y": "9.22063159000e+06" }, "geometry": { "type": "Point", "coordinates": [ 112.333649066124806, -7.048930826839937 ] } },
{ "type": "Feature", "properties": { "Line": 136, "TRAS": 1600, "x": "6.47300500000e+05", "y": "9.21938159000e+06" }, "geometry": { "type": "Point", "coordinates": [ 112.33368142009077, -7.060235172960044 ] } },
{ "type": "Feature", "properties": { "Line": 136, "TRAS": 1700, "x": "6.47300500000e+05", "y": "9.21813159000e+06" }, "geometry": { "type": "Point", "coordinates": [ 112.333713827211525, -7.071539513468096 ] } },
{ "type": "Feature", "properties": { "Line": 136, "TRAS": 1800, "x": "6.47300500000e+05", "y": "9.21688159000e+06" }, "geometry": { "type": "Point", "coordinates": [ 112.333746287493383, -7.082843848355279 ] } },
{ "type": "Feature", "properties": { "Line": 136, "TRAS": 1900, "x": "6.47300500000e+05", "y": "9.21563159000e+06" }, "geometry": { "type": "Point", "coordinates": [ 112.333778800942753, -7.094148177612783 ] } },
{ "type": "Feature", "properties": { "Line": 136, "TRAS": 2000, "x": "6.47300500000e+05", "y": "9.21438159000e+06" }, "geometry": { "type": "Point", "coordinates": [ 112.333811367565957, -7.105452501231794 ] } },
{ "type": "Feature", "properties": { "Line": 136, "TRAS": 2100, "x": "6.47300500000e+05", "y": "9.21313159000e+06" }, "geometry": { "type": "Point", "coordinates": [ 112.333843987369391, -7.116756819203503 ] } },
{ "type": "Feature", "properties": { "Line": 136, "TRAS": 2200, "x": "6.47300500000e+05", "y": "9.21188159000e+06" }, "geometry": { "type": "Point", "coordinates": [ 112.333876660359451, -7.128061131519098 ] } },
{ "type": "Feature", "properties": { "Line": 136, "TRAS": 2300, "x": "6.47300500000e+05", "y": "9.21063159000e+06" }, "geometry": { "type": "Point", "coordinates": [ 112.33390938654253, -7.139365438169772 ] } },
{ "type": "Feature", "properties": { "Line": 136, "TRAS": 2400, "x": "6.47300500000e+05", "y": "9.20938159000e+06" }, "geometry": { "type": "Point", "coordinates": [ 112.333942165925052, -7.150669739146717 ] } },
{ "type": "Feature", "properties": { "Line": 136, "TRAS": 2500, "x": "6.47300500000e+05", "y": "9.20813150000e+06" }, "geometry": { "type": "Point", "coordinates": [ 112.333975000879278, -7.161974848350177 ] } },
{ "type": "Feature", "properties": { "Line": 136, "TRAS": 2600, "x": "6.47300500000e+05", "y": "9.20688150000e+06" }, "geometry": { "type": "Point", "coordinates": [ 112.334007886683779, -7.173279137952827 ] } },
{ "type": "Feature", "properties": { "Line": 136, "TRAS": 2700, "x": "6.47300500000e+05", "y": "9.20563150000e+06" }, "geometry": { "type": "Point", "coordinates": [ 112.334040825706992, -7.184583421855326 ] } },
{ "type": "Feature", "properties": { "Line": 136, "TRAS": 2800, "x": "6.47300500000e+05", "y": "9.20438150000e+06" }, "geometry": { "type": "Point", "coordinates": [ 112.334073817955414, -7.195887700048873 ] } },
{ "type": "Feature", "properties": { "Line": 138, "TRAS": 1100, "x": "6.48300500000e+05", "y": "9.22563150000e+06" }, "geometry": { "type": "Point", "coordinates": [ 112.342571556747345, -7.003688443797983 ] } },
{ "type": "Feature", "properties": { "Line": 138, "TRAS": 1200, "x": "6.48300500000e+05", "y": "9.22438150000e+06" }, "geometry": { "type": "Point", "coordinates": [ 112.342603916164435, -7.01499277030381 ] } },
{ "type": "Feature", "properties": { "Line": 138, "TRAS": 1300, "x": "6.48300500000e+05", "y": "9.22313150000e+06" }, "geometry": { "type": "Point", "coordinates": [ 112.342636329071368, -7.026297091230904 ] } },
{ "type": "Feature", "properties": { "Line": 138, "TRAS": 1400, "x": "6.48300500000e+05", "y": "9.22188150000e+06" }, "geometry": { "type": "Point", "coordinates": [ 112.342668795474495, -7.037601406570444 ] } },
{ "type": "Feature", "properties": { "Line": 138, "TRAS": 1500, "x": "6.48300500000e+05", "y": "9.22063159000e+06" }, "geometry": { "type": "Point", "coordinates": [ 112.342701313036827, -7.048904902403518 ] } },
{ "type": "Feature", "properties": { "Line": 138, "TRAS": 1600, "x": "6.48300500000e+05", "y": "9.21938159000e+06" }, "geometry": { "type": "Point", "coordinates": [ 112.342733886447562, -7.060209206541903 ] } },
{ "type": "Feature", "properties": { "Line": 138, "TRAS": 1700, "x": "6.48300500000e+05", "y": "9.21813159000e+06" }, "geometry": { "type": "Point", "coordinates": [ 112.342766513373604, -7.071513505066282 ] } },
{ "type": "Feature", "properties": { "Line": 138, "TRAS": 1800, "x": "6.48300500000e+05", "y": "9.21688159000e+06" }, "geometry": { "type": "Point", "coordinates": [ 112.342799193821335, -7.082817797967837 ] } },
{ "type": "Feature", "properties": { "Line": 138, "TRAS": 1900, "x": "6.48300500000e+05", "y": "9.21563159000e+06" }, "geometry": { "type": "Point", "coordinates": [ 112.34283192779715, -7.094122085237756 ] } },
{ "type": "Feature", "properties": { "Line": 138, "TRAS": 2000, "x": "6.48300500000e+05", "y": "9.21438159000e+06" }, "geometry": { "type": "Point", "coordinates": [ 112.342864715307471, -7.105426366867222 ] } },
{ "type": "Feature", "properties": { "Line": 138, "TRAS": 2100, "x": "6.48300500000e+05", "y": "9.21313159000e+06" }, "geometry": { "type": "Point", "coordinates": [ 112.342897556358707, -7.116730642847419 ] } },
{ "type": "Feature", "properties": { "Line": 138, "TRAS": 2200, "x": "6.48300500000e+05", "y": "9.21188159000e+06" }, "geometry": { "type": "Point", "coordinates": [ 112.342930450957283, -7.128034913169537 ] } },
{ "type": "Feature", "properties": { "Line": 138, "TRAS": 2300, "x": "6.48300500000e+05", "y": "9.21063159000e+06" }, "geometry": { "type": "Point", "coordinates": [ 112.342963399109678, -7.139339177824762 ] } },
{ "type": "Feature", "properties": { "Line": 138, "TRAS": 2400, "x": "6.48300500000e+05", "y": "9.20938159000e+06" }, "geometry": { "type": "Point", "coordinates": [ 112.342996400822329, -7.150643436804282 ] } },
{ "type": "Feature", "properties": { "Line": 138, "TRAS": 2500, "x": "6.48300500000e+05", "y": "9.20813150000e+06" }, "geometry": { "type": "Point", "coordinates": [ 112.343029458483599, -7.161948504005319 ] } },
{ "type": "Feature", "properties": { "Line": 138, "TRAS": 2600, "x": "6.48300500000e+05", "y": "9.20688150000e+06" }, "geometry": { "type": "Point", "coordinates": [ 112.343062567340013, -7.173252751606589 ] } },
{ "type": "Feature", "properties": { "Line": 138, "TRAS": 2700, "x": "6.48300500000e+05", "y": "9.20563150000e+06" }, "geometry": { "type": "Point", "coordinates": [ 112.34309572977611, -7.18455699350572 ] } },
{ "type": "Feature", "properties": { "Line": 140, "TRAS": 1100, "x": "6.49300500000e+05", "y": "9.22563150000e+06" }, "geometry": { "type": "Point", "coordinates": [ 112.351622895270779, -7.00366251315968 ] } },
{ "type": "Feature", "properties": { "Line": 140, "TRAS": 1200, "x": "6.49300500000e+05", "y": "9.22438150000e+06" }, "geometry": { "type": "Point", "coordinates": [ 112.351655472686986, -7.014966797407832 ] } },
{ "type": "Feature", "properties": { "Line": 140, "TRAS": 1300, "x": "6.49300500000e+05", "y": "9.22313150000e+06" }, "geometry": { "type": "Point", "coordinates": [ 112.351688103953364, -7.026271076075299 ] } },
{ "type": "Feature", "properties": { "Line": 140, "TRAS": 1400, "x": "6.49300500000e+05", "y": "9.22188150000e+06" }, "geometry": { "type": "Point", "coordinates": [ 112.351720789076325, -7.037575349153259 ] } },
{ "type": "Feature", "properties": { "Line": 140, "TRAS": 1500, "x": "6.49300500000e+05", "y": "9.22063159000e+06" }, "geometry": { "type": "Point", "coordinates": [ 112.351753525703131, -7.048878802725835 ] } },
{ "type": "Feature", "properties": { "Line": 140, "TRAS": 1600, "x": "6.49300500000e+05", "y": "9.21938159000e+06" }, "geometry": { "type": "Point", "coordinates": [ 112.351786318554574, -7.06018306459872 ] } },
{ "type": "Feature", "properties": { "Line": 140, "TRAS": 1700, "x": "6.49300500000e+05", "y": "9.21813159000e+06" }, "geometry": { "type": "Point", "coordinates": [ 112.35181916528181, -7.071487320855635 ] } },
{ "type": "Feature", "properties": { "Line": 140, "TRAS": 1800, "x": "6.49300500000e+05", "y": "9.21688159000e+06" }, "geometry": { "type": "Point", "coordinates": [ 112.351852065891308, -7.082791571487758 ] } },
{ "type": "Feature", "properties": { "Line": 140, "TRAS": 1900, "x": "6.49300500000e+05", "y": "9.21563159000e+06" }, "geometry": { "type": "Point", "coordinates": [ 112.351885020389489, -7.094095816486273 ] } },
{ "type": "Feature", "properties": { "Line": 140, "TRAS": 2000, "x": "6.49300500000e+05", "y": "9.21438159000e+06" }, "geometry": { "type": "Point", "coordinates": [ 112.351918028782791, -7.10540005584236 ] } },
{ "type": "Feature", "properties": { "Line": 140, "TRAS": 2100, "x": "6.49300500000e+05", "y": "9.21313159000e+06" }, "geometry": { "type": "Point", "coordinates": [ 112.351951091077709, -7.116704289547203 ] } },
{ "type": "Feature", "properties": { "Line": 140, "TRAS": 2200, "x": "6.49300500000e+05", "y": "9.21188159000e+06" }, "geometry": { "type": "Point", "coordinates": [ 112.351984207280708, -7.128008517591983 ] } },
{ "type": "Feature", "properties": { "Line": 140, "TRAS": 2300, "x": "6.49300500000e+05", "y": "9.21063159000e+06" }, "geometry": { "type": "Point", "coordinates": [ 112.352017377398269, -7.139312739967888 ] } },
{ "type": "Feature", "properties": { "Line": 140, "TRAS": 2400, "x": "6.49300500000e+05", "y": "9.20938159000e+06" }, "geometry": { "type": "Point", "coordinates": [ 112.3520506014369, -7.1506169566661 ] } },
{ "type": "Feature", "properties": { "Line": 140, "TRAS": 2500, "x": "6.49300500000e+05", "y": "9.20813150000e+06" }, "geometry": { "type": "Point", "coordinates": [ 112.352083881801079, -7.161921981580793 ] } },
{ "type": "Feature", "properties": { "Line": 140, "TRAS": 2600, "x": "6.49300500000e+05", "y": "9.20688150000e+06" }, "geometry": { "type": "Point", "coordinates": [ 112.352117213705256, -7.17322618689677 ] } },
{ "type": "Feature", "properties": { "Line": 140, "TRAS": 2700, "x": "6.49300500000e+05", "y": "9.20563150000e+06" }, "geometry": { "type": "Point", "coordinates": [ 112.352150599550058, -7.184530386508611 ] } },
{ "type": "Feature", "properties": { "Line": 142, "TRAS": 1100, "x": "6.50300500000e+05", "y": "9.22458150000e+06" }, "geometry": { "type": "Point", "coordinates": [ 112.360701743836842, -7.013131971826899 ] } },
{ "type": "Feature", "properties": { "Line": 142, "TRAS": 1200, "x": "6.50300500000e+05", "y": "9.22333150000e+06" }, "geometry": { "type": "Point", "coordinates": [ 112.360734584784481, -7.024436208844822 ] } },
{ "type": "Feature", "properties": { "Line": 142, "TRAS": 1300, "x": "6.50300500000e+05", "y": "9.22208150000e+06" }, "geometry": { "type": "Point", "coordinates": [ 112.360767479948024, -7.035740440272682 ] } },
{ "type": "Feature", "properties": { "Line": 142, "TRAS": 1400, "x": "6.50300500000e+05", "y": "9.22083150000e+06" }, "geometry": { "type": "Point", "coordinates": [ 112.360800429333949, -7.047044666101653 ] } },
{ "type": "Feature", "properties": { "Line": 142, "TRAS": 1500, "x": "6.50300500000e+05", "y": "9.21958159000e+06" }, "geometry": { "type": "Point", "coordinates": [ 112.360833430570452, -7.058348072419262 ] } },
{ "type": "Feature", "properties": { "Line": 142, "TRAS": 1600, "x": "6.50300500000e+05", "y": "9.21833159000e+06" }, "geometry": { "type": "Point", "coordinates": [ 112.360866488416562, -7.06965228702439 ] } },
{ "type": "Feature", "properties": { "Line": 142, "TRAS": 1700, "x": "6.50300500000e+05", "y": "9.21708159000e+06" }, "geometry": { "type": "Point", "coordinates": [ 112.360899600504411, -7.080956496004157 ] } },
{ "type": "Feature", "properties": { "Line": 142, "TRAS": 1800, "x": "6.50300500000e+05", "y": "9.21583159000e+06" }, "geometry": { "type": "Point", "coordinates": [ 112.360932766840492, -7.092260699349743 ] } },
{ "type": "Feature", "properties": { "Line": 142, "TRAS": 1900, "x": "6.50300500000e+05", "y": "9.21458159000e+06" }, "geometry": { "type": "Point", "coordinates": [ 112.360965987431314, -7.103564897052324 ] } },
{ "type": "Feature", "properties": { "Line": 142, "TRAS": 2000, "x": "6.50300500000e+05", "y": "9.21333159000e+06" }, "geometry": { "type": "Point", "coordinates": [ 112.360999262283357, -7.114869089103081 ] } },
{ "type": "Feature", "properties": { "Line": 142, "TRAS": 2100, "x": "6.50300500000e+05", "y": "9.21208159000e+06" }, "geometry": { "type": "Point", "coordinates": [ 112.361032591403173, -7.126173275493196 ] } },
{ "type": "Feature", "properties": { "Line": 142, "TRAS": 2200, "x": "6.50300500000e+05", "y": "9.21083159000e+06" }, "geometry": { "type": "Point", "coordinates": [ 112.361065974797256, -7.137477456213843 ] } },
{ "type": "Feature", "properties": { "Line": 142, "TRAS": 2300, "x": "6.50300500000e+05", "y": "9.20958159000e+06" }, "geometry": { "type": "Point", "coordinates": [ 112.361099412472171, -7.148781631256214 ] } },
{ "type": "Feature", "properties": { "Line": 142, "TRAS": 2400, "x": "6.50300500000e+05", "y": "9.20833150000e+06" }, "geometry": { "type": "Point", "coordinates": [ 112.361132906847828, -7.160086614511468 ] } },
{ "type": "Feature", "properties": { "Line": 142, "TRAS": 2500, "x": "6.50300500000e+05", "y": "9.20708150000e+06" }, "geometry": { "type": "Point", "coordinates": [ 112.36116645310797, -7.17139077817041 ] } },
{ "type": "Feature", "properties": { "Line": 142, "TRAS": 2600, "x": "6.50300500000e+05", "y": "9.20583150000e+06" }, "geometry": { "type": "Point", "coordinates": [ 112.361200053668611, -7.182694936124619 ] } },
{ "type": "Feature", "properties": { "Line": 144, "TRAS": 1100, "x": "6.51300500000e+05", "y": "9.22363150000e+06" }, "geometry": { "type": "Point", "coordinates": [ 112.369778316344011, -7.021696845107655 ] } },
{ "type": "Feature", "properties": { "Line": 144, "TRAS": 1200, "x": "6.51300500000e+05", "y": "9.22238150000e+06" }, "geometry": { "type": "Point", "coordinates": [ 112.369811417062621, -7.033001035049657 ] } },
{ "type": "Feature", "properties": { "Line": 144, "TRAS": 1300, "x": "6.51300500000e+05", "y": "9.22113150000e+06" }, "geometry": { "type": "Point", "coordinates": [ 112.369844572362425, -7.04430521939291 ] } },
{ "type": "Feature", "properties": { "Line": 144, "TRAS": 1400, "x": "6.51300500000e+05", "y": "9.21988159000e+06" }, "geometry": { "type": "Point", "coordinates": [ 112.369877779856864, -7.055608584227912 ] } },
{ "type": "Feature", "properties": { "Line": 144, "TRAS": 1500, "x": "6.51300500000e+05", "y": "9.21863159000e+06" }, "geometry": { "type": "Point", "coordinates": [ 112.369911044334671, -7.066912757347576 ] } },
{ "type": "Feature", "properties": { "Line": 144, "TRAS": 1600, "x": "6.51300500000e+05", "y": "9.21738159000e+06" }, "geometry": { "type": "Point", "coordinates": [ 112.369944363413168, -7.078216924842004 ] } },
{ "type": "Feature", "properties": { "Line": 144, "TRAS": 1700, "x": "6.51300500000e+05", "y": "9.21613159000e+06" }, "geometry": { "type": "Point", "coordinates": [ 112.369977737098907, -7.089521086702374 ] } },
{ "type": "Feature", "properties": { "Line": 144, "TRAS": 1800, "x": "6.51300500000e+05", "y": "9.21488159000e+06" }, "geometry": { "type": "Point", "coordinates": [ 112.370011165398438, -7.100825242919855 ] } },
{ "type": "Feature", "properties": { "Line": 144, "TRAS": 1900, "x": "6.51300500000e+05", "y": "9.21363159000e+06" }, "geometry": { "type": "Point", "coordinates": [ 112.370044648318284, -7.112129393485628 ] } },
{ "type": "Feature", "properties": { "Line": 144, "TRAS": 2000, "x": "6.51300500000e+05", "y": "9.21238159000e+06" }, "geometry": { "type": "Point", "coordinates": [ 112.370078185865026, -7.123433538390866 ] } },
{ "type": "Feature", "properties": { "Line": 144, "TRAS": 2100, "x": "6.51300500000e+05", "y": "9.21113159000e+06" }, "geometry": { "type": "Point", "coordinates": [ 112.370111778045214, -7.134737677626748 ] } },
{ "type": "Feature", "properties": { "Line": 144, "TRAS": 2200, "x": "6.51300500000e+05", "y": "9.20988159000e+06" }, "geometry": { "type": "Point", "coordinates": [ 112.370145424865427, -7.146041811184453 ] } },
{ "type": "Feature", "properties": { "Line": 144, "TRAS": 2300, "x": "6.51300500000e+05", "y": "9.20863150000e+06" }, "geometry": { "type": "Point", "coordinates": [ 112.370179128760753, -7.157346752952155 ] } },
{ "type": "Feature", "properties": { "Line": 144, "TRAS": 2400, "x": "6.51300500000e+05", "y": "9.20738150000e+06" }, "geometry": { "type": "Point", "coordinates": [ 112.370212884884765, -7.16865087512663 ] } },
{ "type": "Feature", "properties": { "Line": 144, "TRAS": 2500, "x": "6.51300500000e+05", "y": "9.20613150000e+06" }, "geometry": { "type": "Point", "coordinates": [ 112.370246695668627, -7.179954991596466 ] } }
]
}
