{
"type": "FeatureCollection",
"name": "D:\\Lamturo_GIS\\Lumpur_Hisap.geojson",
"crs": { "type": "name", "properties": { "name": "urn:ogc:def:crs:OGC:1.3:CRS84" } },
"features": [
{ "type": "Feature", "properties": { "KODE": 1061225, "KATEGORI": "Sungai\/ Rawa", "KETERANGAN": "Lumpur Hisap", "X": "6.32300500000e+05", "Y": "9.22441900000e+06" }, "geometry": { "type": "Point", "coordinates": [ 112.197773646059659, -7.015045468628992 ] } },
{ "type": "Feature", "properties": { "KODE": 1121610, "KATEGORI": "Sungai \/ Rawa", "KETERANGAN": "Lumpur Hisap", "X": "6.35300500000e+05", "Y": "9.21940659000e+06" }, "geometry": { "type": "Point", "coordinates": [ 112.225048641431684, -7.060306981372103 ] } },
{ "type": "Feature", "properties": { "KODE": 1121610, "KATEGORI": "Sungai \/ Rawa", "KETERANGAN": "Lumpur Hisap", "X": "6.35300500000e+05", "Y": "9.21940659000e+06" }, "geometry": { "type": "Point", "coordinates": [ 112.225048641431684, -7.060306981372103 ] } },
{ "type": "Feature", "properties": { "KODE": 1121610, "KATEGORI": "Sungai \/ Rawa", "KETERANGAN": "Lumpur Hisap", "X": "6.35300500000e+05", "Y": "9.21940659000e+06" }, "geometry": { "type": "Point", "coordinates": [ 112.225048641431684, -7.060306981372103 ] } },
{ "type": "Feature", "properties": { "KODE": 1121611, "KATEGORI": "Sungai \/ Rawa", "KETERANGAN": "Lumpur Hisap", "X": "6.35300500000e+05", "Y": "9.21939400000e+06" }, "geometry": { "type": "Point", "coordinates": [ 112.225048941013284, -7.060420843570051 ] } },
{ "type": "Feature", "properties": { "KODE": 1121611, "KATEGORI": "Sungai \/ Rawa", "KETERANGAN": "Lumpur Hisap", "X": "6.35300500000e+05", "Y": "9.21939400000e+06" }, "geometry": { "type": "Point", "coordinates": [ 112.225048941013284, -7.060420843570051 ] } },
{ "type": "Feature", "properties": { "KODE": 1121611, "KATEGORI": "Sungai \/ Rawa", "KETERANGAN": "Lumpur Hisap", "X": "6.35300500000e+05", "Y": "9.21939400000e+06" }, "geometry": { "type": "Point", "coordinates": [ 112.225048941013284, -7.060420843570051 ] } },
{ "type": "Feature", "properties": { "KODE": 1121612, "KATEGORI": "Sungai \/ Rawa", "KETERANGAN": "Lumpur Hisap", "X": "6.35300500000e+05", "Y": "9.21938159000e+06" }, "geometry": { "type": "Point", "coordinates": [ 112.225049236316593, -7.060533077872638 ] } },
{ "type": "Feature", "properties": { "KODE": 1121612, "KATEGORI": "Sungai \/ Rawa", "KETERANGAN": "Lumpur Hisap", "X": "6.35300500000e+05", "Y": "9.21938159000e+06" }, "geometry": { "type": "Point", "coordinates": [ 112.225049236316593, -7.060533077872638 ] } },
{ "type": "Feature", "properties": { "KODE": 1121612, "KATEGORI": "Sungai \/ Rawa", "KETERANGAN": "Lumpur Hisap", "X": "6.35300500000e+05", "Y": "9.21938159000e+06" }, "geometry": { "type": "Point", "coordinates": [ 112.225049236316593, -7.060533077872638 ] } },
{ "type": "Feature", "properties": { "KODE": 1121613, "KATEGORI": "Sungai \/ Rawa", "KETERANGAN": "Lumpur Hisap", "X": "6.35300500000e+05", "Y": "9.21936900000e+06" }, "geometry": { "type": "Point", "coordinates": [ 112.225049535908028, -7.060646940069456 ] } },
{ "type": "Feature", "properties": { "KODE": 1121613, "KATEGORI": "Sungai \/ Rawa", "KETERANGAN": "Lumpur Hisap", "X": "6.35300500000e+05", "Y": "9.21936900000e+06" }, "geometry": { "type": "Point", "coordinates": [ 112.225049535908028, -7.060646940069456 ] } },
{ "type": "Feature", "properties": { "KODE": 1121613, "KATEGORI": "Sungai \/ Rawa", "KETERANGAN": "Lumpur Hisap", "X": "6.35300500000e+05", "Y": "9.21936900000e+06" }, "geometry": { "type": "Point", "coordinates": [ 112.225049535908028, -7.060646940069456 ] } },
{ "type": "Feature", "properties": { "KODE": 1121614, "KATEGORI": "Sungai \/ Rawa", "KETERANGAN": "Lumpur Hisap", "X": "6.35300500000e+05", "Y": "9.21935659000e+06" }, "geometry": { "type": "Point", "coordinates": [ 112.225049831221028, -7.060759174370934 ] } },
{ "type": "Feature", "properties": { "KODE": 1121614, "KATEGORI": "Sungai \/ Rawa", "KETERANGAN": "Lumpur Hisap", "X": "6.35300500000e+05", "Y": "9.21935659000e+06" }, "geometry": { "type": "Point", "coordinates": [ 112.225049831221028, -7.060759174370934 ] } },
{ "type": "Feature", "properties": { "KODE": 1121614, "KATEGORI": "Sungai \/ Rawa", "KETERANGAN": "Lumpur Hisap", "X": "6.35300500000e+05", "Y": "9.21935659000e+06" }, "geometry": { "type": "Point", "coordinates": [ 112.225049831221028, -7.060759174370934 ] } },
{ "type": "Feature", "properties": { "KODE": 1121615, "KATEGORI": "Sungai \/ Rawa", "KETERANGAN": "Lumpur Hisap", "X": "6.35300500000e+05", "Y": "9.21934400000e+06" }, "geometry": { "type": "Point", "coordinates": [ 112.225050130822297, -7.060873036566627 ] } },
{ "type": "Feature", "properties": { "KODE": 1121615, "KATEGORI": "Sungai \/ Rawa", "KETERANGAN": "Lumpur Hisap", "X": "6.35300500000e+05", "Y": "9.21934400000e+06" }, "geometry": { "type": "Point", "coordinates": [ 112.225050130822297, -7.060873036566627 ] } },
{ "type": "Feature", "properties": { "KODE": 1121615, "KATEGORI": "Sungai \/ Rawa", "KETERANGAN": "Lumpur Hisap", "X": "6.35300500000e+05", "Y": "9.21934400000e+06" }, "geometry": { "type": "Point", "coordinates": [ 112.225050130822297, -7.060873036566627 ] } },
{ "type": "Feature", "properties": { "KODE": 1121616, "KATEGORI": "Sungai \/ Rawa", "KETERANGAN": "Lumpur Hisap", "X": "6.35300500000e+05", "Y": "9.21933159000e+06" }, "geometry": { "type": "Point", "coordinates": [ 112.225050426144989, -7.060985270866993 ] } },
{ "type": "Feature", "properties": { "KODE": 1121616, "KATEGORI": "Sungai \/ Rawa", "KETERANGAN": "Lumpur Hisap", "X": "6.35300500000e+05", "Y": "9.21933159000e+06" }, "geometry": { "type": "Point", "coordinates": [ 112.225050426144989, -7.060985270866993 ] } },
{ "type": "Feature", "properties": { "KODE": 1121616, "KATEGORI": "Sungai \/ Rawa", "KETERANGAN": "Lumpur Hisap", "X": "6.35300500000e+05", "Y": "9.21933159000e+06" }, "geometry": { "type": "Point", "coordinates": [ 112.225050426144989, -7.060985270866993 ] } },
{ "type": "Feature", "properties": { "KODE": 1121617, "KATEGORI": "Sungai \/ Rawa", "KETERANGAN": "Lumpur Hisap", "X": "6.35300500000e+05", "Y": "9.21931900000e+06" }, "geometry": { "type": "Point", "coordinates": [ 112.225050725756091, -7.061099133061563 ] } },
{ "type": "Feature", "properties": { "KODE": 1121617, "KATEGORI": "Sungai \/ Rawa", "KETERANGAN": "Lumpur Hisap", "X": "6.35300500000e+05", "Y": "9.21931900000e+06" }, "geometry": { "type": "Point", "coordinates": [ 112.225050725756091, -7.061099133061563 ] } },
{ "type": "Feature", "properties": { "KODE": 1121617, "KATEGORI": "Sungai \/ Rawa", "KETERANGAN": "Lumpur Hisap", "X": "6.35300500000e+05", "Y": "9.21931900000e+06" }, "geometry": { "type": "Point", "coordinates": [ 112.225050725756091, -7.061099133061563 ] } },
{ "type": "Feature", "properties": { "KODE": 1121618, "KATEGORI": "Sungai \/ Rawa", "KETERANGAN": "Lumpur Hisap", "X": "6.35300500000e+05", "Y": "9.21930659000e+06" }, "geometry": { "type": "Point", "coordinates": [ 112.225051021088476, -7.061211367360819 ] } },
{ "type": "Feature", "properties": { "KODE": 1121618, "KATEGORI": "Sungai \/ Rawa", "KETERANGAN": "Lumpur Hisap", "X": "6.35300500000e+05", "Y": "9.21930659000e+06" }, "geometry": { "type": "Point", "coordinates": [ 112.225051021088476, -7.061211367360819 ] } },
{ "type": "Feature", "properties": { "KODE": 1121618, "KATEGORI": "Sungai \/ Rawa", "KETERANGAN": "Lumpur Hisap", "X": "6.35300500000e+05", "Y": "9.21930659000e+06" }, "geometry": { "type": "Point", "coordinates": [ 112.225051021088476, -7.061211367360819 ] } },
{ "type": "Feature", "properties": { "KODE": 1121619, "KATEGORI": "Sungai \/ Rawa", "KETERANGAN": "Lumpur Hisap", "X": "6.35300500000e+05", "Y": "9.21929400000e+06" }, "geometry": { "type": "Point", "coordinates": [ 112.225051320709412, -7.061325229554261 ] } },
{ "type": "Feature", "properties": { "KODE": 1121619, "KATEGORI": "Sungai \/ Rawa", "KETERANGAN": "Lumpur Hisap", "X": "6.35300500000e+05", "Y": "9.21929400000e+06" }, "geometry": { "type": "Point", "coordinates": [ 112.225051320709412, -7.061325229554261 ] } },
{ "type": "Feature", "properties": { "KODE": 1121619, "KATEGORI": "Sungai \/ Rawa", "KETERANGAN": "Lumpur Hisap", "X": "6.35300500000e+05", "Y": "9.21929400000e+06" }, "geometry": { "type": "Point", "coordinates": [ 112.225051320709412, -7.061325229554261 ] } },
{ "type": "Feature", "properties": { "KODE": 1121620, "KATEGORI": "Sungai \/ Rawa", "KETERANGAN": "Lumpur Hisap", "X": "6.35300500000e+05", "Y": "9.21928159000e+06" }, "geometry": { "type": "Point", "coordinates": [ 112.225051616051502, -7.061437463852408 ] } },
{ "type": "Feature", "properties": { "KODE": 1121620, "KATEGORI": "Sungai \/ Rawa", "KETERANGAN": "Lumpur Hisap", "X": "6.35300500000e+05", "Y": "9.21928159000e+06" }, "geometry": { "type": "Point", "coordinates": [ 112.225051616051502, -7.061437463852408 ] } },
{ "type": "Feature", "properties": { "KODE": 1121620, "KATEGORI": "Sungai \/ Rawa", "KETERANGAN": "Lumpur Hisap", "X": "6.35300500000e+05", "Y": "9.21928159000e+06" }, "geometry": { "type": "Point", "coordinates": [ 112.225051616051502, -7.061437463852408 ] } },
{ "type": "Feature", "properties": { "KODE": 1121621, "KATEGORI": "Sungai \/ Rawa", "KETERANGAN": "Lumpur Hisap", "X": "6.35300500000e+05", "Y": "9.21926900000e+06" }, "geometry": { "type": "Point", "coordinates": [ 112.225051915682272, -7.061551326044723 ] } },
{ "type": "Feature", "properties": { "KODE": 1121621, "KATEGORI": "Sungai \/ Rawa", "KETERANGAN": "Lumpur Hisap", "X": "6.35300500000e+05", "Y": "9.21926900000e+06" }, "geometry": { "type": "Point", "coordinates": [ 112.225051915682272, -7.061551326044723 ] } },
{ "type": "Feature", "properties": { "KODE": 1121621, "KATEGORI": "Sungai \/ Rawa", "KETERANGAN": "Lumpur Hisap", "X": "6.35300500000e+05", "Y": "9.21926900000e+06" }, "geometry": { "type": "Point", "coordinates": [ 112.225051915682272, -7.061551326044723 ] } },
{ "type": "Feature", "properties": { "KODE": 1121622, "KATEGORI": "Sungai \/ Rawa", "KETERANGAN": "Lumpur Hisap", "X": "6.35300500000e+05", "Y": "9.21925659000e+06" }, "geometry": { "type": "Point", "coordinates": [ 112.225052211034054, -7.061663560341761 ] } },
{ "type": "Feature", "properties": { "KODE": 1121622, "KATEGORI": "Sungai \/ Rawa", "KETERANGAN": "Lumpur Hisap", "X": "6.35300500000e+05", "Y": "9.21925659000e+06" }, "geometry": { "type": "Point", "coordinates": [ 112.225052211034054, -7.061663560341761 ] } },
{ "type": "Feature", "properties": { "KODE": 1121622, "KATEGORI": "Sungai \/ Rawa", "KETERANGAN": "Lumpur Hisap", "X": "6.35300500000e+05", "Y": "9.21925659000e+06" }, "geometry": { "type": "Point", "coordinates": [ 112.225052211034054, -7.061663560341761 ] } },
{ "type": "Feature", "properties": { "KODE": 1121623, "KATEGORI": "Sungai \/ Rawa", "KETERANGAN": "Lumpur Hisap", "X": "6.35300500000e+05", "Y": "9.21924400000e+06" }, "geometry": { "type": "Point", "coordinates": [ 112.225052510674658, -7.061777422532951 ] } },
{ "type": "Feature", "properties": { "KODE": 1121623, "KATEGORI": "Sungai \/ Rawa", "KETERANGAN": "Lumpur Hisap", "X": "6.35300500000e+05", "Y": "9.21924400000e+06" }, "geometry": { "type": "Point", "coordinates": [ 112.225052510674658, -7.061777422532951 ] } },
{ "type": "Feature", "properties": { "KODE": 1121623, "KATEGORI": "Sungai \/ Rawa", "KETERANGAN": "Lumpur Hisap", "X": "6.35300500000e+05", "Y": "9.21924400000e+06" }, "geometry": { "type": "Point", "coordinates": [ 112.225052510674658, -7.061777422532951 ] } },
{ "type": "Feature", "properties": { "KODE": 1121624, "KATEGORI": "Sungai \/ Rawa", "KETERANGAN": "Lumpur Hisap", "X": "6.35300500000e+05", "Y": "9.21923159000e+06" }, "geometry": { "type": "Point", "coordinates": [ 112.225052806036146, -7.061889656828877 ] } },
{ "type": "Feature", "properties": { "KODE": 1121624, "KATEGORI": "Sungai \/ Rawa", "KETERANGAN": "Lumpur Hisap", "X": "6.35300500000e+05", "Y": "9.21923159000e+06" }, "geometry": { "type": "Point", "coordinates": [ 112.225052806036146, -7.061889656828877 ] } },
{ "type": "Feature", "properties": { "KODE": 1121624, "KATEGORI": "Sungai \/ Rawa", "KETERANGAN": "Lumpur Hisap", "X": "6.35300500000e+05", "Y": "9.21923159000e+06" }, "geometry": { "type": "Point", "coordinates": [ 112.225052806036146, -7.061889656828877 ] } },
{ "type": "Feature", "properties": { "KODE": 1121625, "KATEGORI": "Sungai \/ Rawa", "KETERANGAN": "Lumpur Hisap", "X": "6.35300500000e+05", "Y": "9.21921900000e+06" }, "geometry": { "type": "Point", "coordinates": [ 112.225053105686584, -7.06200351901894 ] } },
{ "type": "Feature", "properties": { "KODE": 1121625, "KATEGORI": "Sungai \/ Rawa", "KETERANGAN": "Lumpur Hisap", "X": "6.35300500000e+05", "Y": "9.21921900000e+06" }, "geometry": { "type": "Point", "coordinates": [ 112.225053105686584, -7.06200351901894 ] } },
{ "type": "Feature", "properties": { "KODE": 1121625, "KATEGORI": "Sungai \/ Rawa", "KETERANGAN": "Lumpur Hisap", "X": "6.35300500000e+05", "Y": "9.21921900000e+06" }, "geometry": { "type": "Point", "coordinates": [ 112.225053105686584, -7.06200351901894 ] } },
{ "type": "Feature", "properties": { "KODE": 1121626, "KATEGORI": "Sungai \/ Rawa", "KETERANGAN": "Lumpur Hisap", "X": "6.35300500000e+05", "Y": "9.21920659000e+06" }, "geometry": { "type": "Point", "coordinates": [ 112.225053401057764, -7.062115753313758 ] } },
{ "type": "Feature", "properties": { "KODE": 1121626, "KATEGORI": "Sungai \/ Rawa", "KETERANGAN": "Lumpur Hisap", "X": "6.35300500000e+05", "Y": "9.21920659000e+06" }, "geometry": { "type": "Point", "coordinates": [ 112.225053401057764, -7.062115753313758 ] } },
{ "type": "Feature", "properties": { "KODE": 1121626, "KATEGORI": "Sungai \/ Rawa", "KETERANGAN": "Lumpur Hisap", "X": "6.35300500000e+05", "Y": "9.21920659000e+06" }, "geometry": { "type": "Point", "coordinates": [ 112.225053401057764, -7.062115753313758 ] } },
{ "type": "Feature", "properties": { "KODE": 1121627, "KATEGORI": "Sungai \/ Rawa", "KETERANGAN": "Lumpur Hisap", "X": "6.35300500000e+05", "Y": "9.21919400000e+06" }, "geometry": { "type": "Point", "coordinates": [ 112.225053700718036, -7.062229615502694 ] } },
{ "type": "Feature", "properties": { "KODE": 1121627, "KATEGORI": "Sungai \/ Rawa", "KETERANGAN": "Lumpur Hisap", "X": "6.35300500000e+05", "Y": "9.21919400000e+06" }, "geometry": { "type": "Point", "coordinates": [ 112.225053700718036, -7.062229615502694 ] } },
{ "type": "Feature", "properties": { "KODE": 1121627, "KATEGORI": "Sungai \/ Rawa", "KETERANGAN": "Lumpur Hisap", "X": "6.35300500000e+05", "Y": "9.21919400000e+06" }, "geometry": { "type": "Point", "coordinates": [ 112.225053700718036, -7.062229615502694 ] } },
{ "type": "Feature", "properties": { "KODE": 1121628, "KATEGORI": "Sungai \/ Rawa", "KETERANGAN": "Lumpur Hisap", "X": "6.35300500000e+05", "Y": "9.21918159000e+06" }, "geometry": { "type": "Point", "coordinates": [ 112.225053996098907, -7.0623418497964 ] } },
{ "type": "Feature", "properties": { "KODE": 1121628, "KATEGORI": "Sungai \/ Rawa", "KETERANGAN": "Lumpur Hisap", "X": "6.35300500000e+05", "Y": "9.21918159000e+06" }, "geometry": { "type": "Point", "coordinates": [ 112.225053996098907, -7.0623418497964 ] } },
{ "type": "Feature", "properties": { "KODE": 1121628, "KATEGORI": "Sungai \/ Rawa", "KETERANGAN": "Lumpur Hisap", "X": "6.35300500000e+05", "Y": "9.21918159000e+06" }, "geometry": { "type": "Point", "coordinates": [ 112.225053996098907, -7.0623418497964 ] } },
{ "type": "Feature", "properties": { "KODE": 1161834, "KATEGORI": "Sungai\/Rawa", "KETERANGAN": "Lumpur Hisap", "X": "6.37300500000e+05", "Y": "9.21675659000e+06" }, "geometry": { "type": "Point", "coordinates": [ 112.243218419366869, -7.084225140038525 ] } },
{ "type": "Feature", "properties": { "KODE": 1161835, "KATEGORI": "Sungai\/Rawa", "KETERANGAN": "Lumpur Hisap", "X": "6.37300500000e+05", "Y": "9.21674400000e+06" }, "geometry": { "type": "Point", "coordinates": [ 112.243218724431514, -7.084339001336893 ] } },
{ "type": "Feature", "properties": { "KODE": 1161836, "KATEGORI": "Sungai\/Rawa", "KETERANGAN": "Lumpur Hisap", "X": "6.37300500000e+05", "Y": "9.21673159000e+06" }, "geometry": { "type": "Point", "coordinates": [ 112.243219025139567, -7.08445123475276 ] } }
]
}
