{
"type": "FeatureCollection",
"name": "D:\\Lamturo_GIS\\Potensi_Banjir.geojson",
"crs": { "type": "name", "properties": { "name": "urn:ogc:def:crs:OGC:1.3:CRS84" } },
"features": [
{ "type": "Feature", "properties": { "KODE": 1101496, "KATEGORI": "Sungai \/ Rawa", "KETERANGAN": "Potensi Banjir", "X": "6.34300500000e+05", "Y": "9.22113150000e+06" }, "geometry": { "type": "Point", "coordinates": [ 112.215955060246472, -7.0447307620891 ] } },
{ "type": "Feature", "properties": { "KODE": 1101496, "KATEGORI": "Sungai \/ Rawa", "KETERANGAN": "Potensi Banjir", "X": "6.34300500000e+05", "Y": "9.22113150000e+06" }, "geometry": { "type": "Point", "coordinates": [ 112.215955060246472, -7.0447307620891 ] } },
{ "type": "Feature", "properties": { "KODE": 1101496, "KATEGORI": "Potensi banjir", "KETERANGAN": "Potensi Banjir", "X": "6.34300500000e+05", "Y": "9.22113150000e+06" }, "geometry": { "type": "Point", "coordinates": [ 112.215955060246472, -7.0447307620891 ] } },
{ "type": "Feature", "properties": { "KODE": 1101497, "KATEGORI": "Sungai \/ Rawa", "KETERANGAN": "Potensi Banjir", "X": "6.34300500000e+05", "Y": "9.22111900000e+06" }, "geometry": { "type": "Point", "coordinates": [ 112.21595535482102, -7.044843810799597 ] } },
{ "type": "Feature", "properties": { "KODE": 1101497, "KATEGORI": "Sungai \/ Rawa", "KETERANGAN": "Potensi Banjir", "X": "6.34300500000e+05", "Y": "9.22111900000e+06" }, "geometry": { "type": "Point", "coordinates": [ 112.21595535482102, -7.044843810799597 ] } },
{ "type": "Feature", "properties": { "KODE": 1101497, "KATEGORI": "Potensi banjir", "KETERANGAN": "Potensi Banjir", "X": "6.34300500000e+05", "Y": "9.22111900000e+06" }, "geometry": { "type": "Point", "coordinates": [ 112.21595535482102, -7.044843810799597 ] } },
{ "type": "Feature", "properties": { "KODE": 1101498, "KATEGORI": "Sungai \/ Rawa", "KETERANGAN": "Potensi Banjir", "X": "6.34300500000e+05", "Y": "9.22110650000e+06" }, "geometry": { "type": "Point", "coordinates": [ 112.215955649400414, -7.044956859509539 ] } },
{ "type": "Feature", "properties": { "KODE": 1101498, "KATEGORI": "Sungai \/ Rawa", "KETERANGAN": "Potensi Banjir", "X": "6.34300500000e+05", "Y": "9.22110650000e+06" }, "geometry": { "type": "Point", "coordinates": [ 112.215955649400414, -7.044956859509539 ] } },
{ "type": "Feature", "properties": { "KODE": 1101498, "KATEGORI": "Potensi banjir", "KETERANGAN": "Potensi Banjir", "X": "6.34300500000e+05", "Y": "9.22110650000e+06" }, "geometry": { "type": "Point", "coordinates": [ 112.215955649400414, -7.044956859509539 ] } },
{ "type": "Feature", "properties": { "KODE": 1101499, "KATEGORI": "Sungai \/ Rawa", "KETERANGAN": "Potensi Banjir", "X": "6.34300500000e+05", "Y": "9.22109400000e+06" }, "geometry": { "type": "Point", "coordinates": [ 112.215955943984653, -7.045069908218922 ] } },
{ "type": "Feature", "properties": { "KODE": 1101499, "KATEGORI": "Sungai \/ Rawa", "KETERANGAN": "Potensi Banjir", "X": "6.34300500000e+05", "Y": "9.22109400000e+06" }, "geometry": { "type": "Point", "coordinates": [ 112.215955943984653, -7.045069908218922 ] } },
{ "type": "Feature", "properties": { "KODE": 1101499, "KATEGORI": "Potensi banjir", "KETERANGAN": "Potensi Banjir", "X": "6.34300500000e+05", "Y": "9.22109400000e+06" }, "geometry": { "type": "Point", "coordinates": [ 112.215955943984653, -7.045069908218922 ] } },
{ "type": "Feature", "properties": { "KODE": 1101500, "KATEGORI": "Sungai \/ Rawa", "KETERANGAN": "Potensi Banjir", "X": "6.34300500000e+05", "Y": "9.22108150000e+06" }, "geometry": { "type": "Point", "coordinates": [ 112.215956238573739, -7.045182956927748 ] } },
{ "type": "Feature", "properties": { "KODE": 1101500, "KATEGORI": "Sungai \/ Rawa", "KETERANGAN": "Potensi Banjir", "X": "6.34300500000e+05", "Y": "9.22108150000e+06" }, "geometry": { "type": "Point", "coordinates": [ 112.215956238573739, -7.045182956927748 ] } },
{ "type": "Feature", "properties": { "KODE": 1101500, "KATEGORI": "Potensi banjir", "KETERANGAN": "Potensi Banjir", "X": "6.34300500000e+05", "Y": "9.22108150000e+06" }, "geometry": { "type": "Point", "coordinates": [ 112.215956238573739, -7.045182956927748 ] } },
{ "type": "Feature", "properties": { "KODE": 1101501, "KATEGORI": "Sungai \/ Rawa", "KETERANGAN": "Potensi Banjir", "X": "6.34300500000e+05", "Y": "9.22106900000e+06" }, "geometry": { "type": "Point", "coordinates": [ 112.21595653316767, -7.045296005636017 ] } },
{ "type": "Feature", "properties": { "KODE": 1101501, "KATEGORI": "Sungai \/ Rawa", "KETERANGAN": "Potensi Banjir", "X": "6.34300500000e+05", "Y": "9.22106900000e+06" }, "geometry": { "type": "Point", "coordinates": [ 112.21595653316767, -7.045296005636017 ] } },
{ "type": "Feature", "properties": { "KODE": 1101501, "KATEGORI": "Potensi banjir", "KETERANGAN": "Potensi Banjir", "X": "6.34300500000e+05", "Y": "9.22106900000e+06" }, "geometry": { "type": "Point", "coordinates": [ 112.21595653316767, -7.045296005636017 ] } },
{ "type": "Feature", "properties": { "KODE": 1101502, "KATEGORI": "Sungai \/ Rawa", "KETERANGAN": "Potensi Banjir", "X": "6.34300500000e+05", "Y": "9.22105650000e+06" }, "geometry": { "type": "Point", "coordinates": [ 112.215956827766448, -7.04540905434373 ] } },
{ "type": "Feature", "properties": { "KODE": 1101502, "KATEGORI": "Sungai \/ Rawa", "KETERANGAN": "Potensi Banjir", "X": "6.34300500000e+05", "Y": "9.22105650000e+06" }, "geometry": { "type": "Point", "coordinates": [ 112.215956827766448, -7.04540905434373 ] } },
{ "type": "Feature", "properties": { "KODE": 1101502, "KATEGORI": "Potensi banjir", "KETERANGAN": "Potensi Banjir", "X": "6.34300500000e+05", "Y": "9.22105650000e+06" }, "geometry": { "type": "Point", "coordinates": [ 112.215956827766448, -7.04540905434373 ] } },
{ "type": "Feature", "properties": { "KODE": 1101503, "KATEGORI": "Sungai \/ Rawa", "KETERANGAN": "Potensi Banjir", "X": "6.34300500000e+05", "Y": "9.22104400000e+06" }, "geometry": { "type": "Point", "coordinates": [ 112.215957122370071, -7.045522103050883 ] } },
{ "type": "Feature", "properties": { "KODE": 1101503, "KATEGORI": "Sungai \/ Rawa", "KETERANGAN": "Potensi Banjir", "X": "6.34300500000e+05", "Y": "9.22104400000e+06" }, "geometry": { "type": "Point", "coordinates": [ 112.215957122370071, -7.045522103050883 ] } },
{ "type": "Feature", "properties": { "KODE": 1101503, "KATEGORI": "Potensi banjir", "KETERANGAN": "Potensi Banjir", "X": "6.34300500000e+05", "Y": "9.22104400000e+06" }, "geometry": { "type": "Point", "coordinates": [ 112.215957122370071, -7.045522103050883 ] } },
{ "type": "Feature", "properties": { "KODE": 1101504, "KATEGORI": "Sungai \/ Rawa", "KETERANGAN": "Potensi Banjir", "X": "6.34300500000e+05", "Y": "9.22103150000e+06" }, "geometry": { "type": "Point", "coordinates": [ 112.21595741697854, -7.045635151757478 ] } },
{ "type": "Feature", "properties": { "KODE": 1101504, "KATEGORI": "Sungai \/ Rawa", "KETERANGAN": "Potensi Banjir", "X": "6.34300500000e+05", "Y": "9.22103150000e+06" }, "geometry": { "type": "Point", "coordinates": [ 112.21595741697854, -7.045635151757478 ] } },
{ "type": "Feature", "properties": { "KODE": 1101504, "KATEGORI": "Potensi banjir", "KETERANGAN": "Potensi Banjir", "X": "6.34300500000e+05", "Y": "9.22103150000e+06" }, "geometry": { "type": "Point", "coordinates": [ 112.21595741697854, -7.045635151757478 ] } },
{ "type": "Feature", "properties": { "KODE": 1101505, "KATEGORI": "Sungai \/ Rawa", "KETERANGAN": "Potensi Banjir", "X": "6.34300500000e+05", "Y": "9.22101900000e+06" }, "geometry": { "type": "Point", "coordinates": [ 112.215957711591841, -7.045748200463517 ] } },
{ "type": "Feature", "properties": { "KODE": 1101505, "KATEGORI": "Sungai \/ Rawa", "KETERANGAN": "Potensi Banjir", "X": "6.34300500000e+05", "Y": "9.22101900000e+06" }, "geometry": { "type": "Point", "coordinates": [ 112.215957711591841, -7.045748200463517 ] } },
{ "type": "Feature", "properties": { "KODE": 1101505, "KATEGORI": "Potensi banjir", "KETERANGAN": "Potensi Banjir", "X": "6.34300500000e+05", "Y": "9.22101900000e+06" }, "geometry": { "type": "Point", "coordinates": [ 112.215957711591841, -7.045748200463517 ] } },
{ "type": "Feature", "properties": { "KODE": 1101506, "KATEGORI": "Sungai \/ Rawa", "KETERANGAN": "Potensi Banjir", "X": "6.34300500000e+05", "Y": "9.22100650000e+06" }, "geometry": { "type": "Point", "coordinates": [ 112.215958006210002, -7.045861249168998 ] } },
{ "type": "Feature", "properties": { "KODE": 1101506, "KATEGORI": "Sungai \/ Rawa", "KETERANGAN": "Potensi Banjir", "X": "6.34300500000e+05", "Y": "9.22100650000e+06" }, "geometry": { "type": "Point", "coordinates": [ 112.215958006210002, -7.045861249168998 ] } },
{ "type": "Feature", "properties": { "KODE": 1101506, "KATEGORI": "Potensi banjir", "KETERANGAN": "Potensi Banjir", "X": "6.34300500000e+05", "Y": "9.22100650000e+06" }, "geometry": { "type": "Point", "coordinates": [ 112.215958006210002, -7.045861249168998 ] } },
{ "type": "Feature", "properties": { "KODE": 1101507, "KATEGORI": "Sungai \/ Rawa", "KETERANGAN": "Potensi Banjir", "X": "6.34300500000e+05", "Y": "9.22099400000e+06" }, "geometry": { "type": "Point", "coordinates": [ 112.215958300833023, -7.04597429787392 ] } },
{ "type": "Feature", "properties": { "KODE": 1101507, "KATEGORI": "Sungai \/ Rawa", "KETERANGAN": "Potensi Banjir", "X": "6.34300500000e+05", "Y": "9.22099400000e+06" }, "geometry": { "type": "Point", "coordinates": [ 112.215958300833023, -7.04597429787392 ] } },
{ "type": "Feature", "properties": { "KODE": 1101507, "KATEGORI": "Potensi banjir", "KETERANGAN": "Potensi Banjir", "X": "6.34300500000e+05", "Y": "9.22099400000e+06" }, "geometry": { "type": "Point", "coordinates": [ 112.215958300833023, -7.04597429787392 ] } },
{ "type": "Feature", "properties": { "KODE": 1101508, "KATEGORI": "Sungai \/ Rawa", "KETERANGAN": "Potensi Banjir", "X": "6.34300500000e+05", "Y": "9.22098150000e+06" }, "geometry": { "type": "Point", "coordinates": [ 112.215958595460862, -7.046087346578286 ] } },
{ "type": "Feature", "properties": { "KODE": 1101508, "KATEGORI": "Sungai \/ Rawa", "KETERANGAN": "Potensi Banjir", "X": "6.34300500000e+05", "Y": "9.22098150000e+06" }, "geometry": { "type": "Point", "coordinates": [ 112.215958595460862, -7.046087346578286 ] } },
{ "type": "Feature", "properties": { "KODE": 1101508, "KATEGORI": "Potensi banjir", "KETERANGAN": "Potensi Banjir", "X": "6.34300500000e+05", "Y": "9.22098150000e+06" }, "geometry": { "type": "Point", "coordinates": [ 112.215958595460862, -7.046087346578286 ] } },
{ "type": "Feature", "properties": { "KODE": 1101509, "KATEGORI": "Sungai \/ Rawa", "KETERANGAN": "Potensi Banjir", "X": "6.34300500000e+05", "Y": "9.22096900000e+06" }, "geometry": { "type": "Point", "coordinates": [ 112.21595889009356, -7.046200395282093 ] } },
{ "type": "Feature", "properties": { "KODE": 1101509, "KATEGORI": "Sungai \/ Rawa", "KETERANGAN": "Potensi Banjir", "X": "6.34300500000e+05", "Y": "9.22096900000e+06" }, "geometry": { "type": "Point", "coordinates": [ 112.21595889009356, -7.046200395282093 ] } },
{ "type": "Feature", "properties": { "KODE": 1101509, "KATEGORI": "Potensi banjir", "KETERANGAN": "Potensi Banjir", "X": "6.34300500000e+05", "Y": "9.22096900000e+06" }, "geometry": { "type": "Point", "coordinates": [ 112.21595889009356, -7.046200395282093 ] } },
{ "type": "Feature", "properties": { "KODE": 1101510, "KATEGORI": "Sungai \/ Rawa", "KETERANGAN": "Potensi Banjir", "X": "6.34300500000e+05", "Y": "9.22095650000e+06" }, "geometry": { "type": "Point", "coordinates": [ 112.215959184731105, -7.046313443985341 ] } },
{ "type": "Feature", "properties": { "KODE": 1101510, "KATEGORI": "Sungai \/ Rawa", "KETERANGAN": "Potensi Banjir", "X": "6.34300500000e+05", "Y": "9.22095650000e+06" }, "geometry": { "type": "Point", "coordinates": [ 112.215959184731105, -7.046313443985341 ] } },
{ "type": "Feature", "properties": { "KODE": 1101510, "KATEGORI": "Potensi banjir", "KETERANGAN": "Potensi Banjir", "X": "6.34300500000e+05", "Y": "9.22095650000e+06" }, "geometry": { "type": "Point", "coordinates": [ 112.215959184731105, -7.046313443985341 ] } },
{ "type": "Feature", "properties": { "KODE": 1101511, "KATEGORI": "Sungai \/ Rawa", "KETERANGAN": "Potensi Banjir", "X": "6.34300500000e+05", "Y": "9.22094400000e+06" }, "geometry": { "type": "Point", "coordinates": [ 112.215959479373495, -7.046426492688036 ] } },
{ "type": "Feature", "properties": { "KODE": 1101511, "KATEGORI": "Sungai \/ Rawa", "KETERANGAN": "Potensi Banjir", "X": "6.34300500000e+05", "Y": "9.22094400000e+06" }, "geometry": { "type": "Point", "coordinates": [ 112.215959479373495, -7.046426492688036 ] } },
{ "type": "Feature", "properties": { "KODE": 1101511, "KATEGORI": "Potensi banjir", "KETERANGAN": "Potensi Banjir", "X": "6.34300500000e+05", "Y": "9.22094400000e+06" }, "geometry": { "type": "Point", "coordinates": [ 112.215959479373495, -7.046426492688036 ] } },
{ "type": "Feature", "properties": { "KODE": 1101512, "KATEGORI": "Sungai \/ Rawa", "KETERANGAN": "Potensi Banjir", "X": "6.34300500000e+05", "Y": "9.22093150000e+06" }, "geometry": { "type": "Point", "coordinates": [ 112.215959774020732, -7.04653954139017 ] } },
{ "type": "Feature", "properties": { "KODE": 1101512, "KATEGORI": "Sungai \/ Rawa", "KETERANGAN": "Potensi Banjir", "X": "6.34300500000e+05", "Y": "9.22093150000e+06" }, "geometry": { "type": "Point", "coordinates": [ 112.215959774020732, -7.04653954139017 ] } },
{ "type": "Feature", "properties": { "KODE": 1101512, "KATEGORI": "Potensi banjir", "KETERANGAN": "Potensi Banjir", "X": "6.34300500000e+05", "Y": "9.22093150000e+06" }, "geometry": { "type": "Point", "coordinates": [ 112.215959774020732, -7.04653954139017 ] } },
{ "type": "Feature", "properties": { "KODE": 1101513, "KATEGORI": "Sungai \/ Rawa", "KETERANGAN": "Potensi Banjir", "X": "6.34300500000e+05", "Y": "9.22091900000e+06" }, "geometry": { "type": "Point", "coordinates": [ 112.215960068672814, -7.046652590091747 ] } },
{ "type": "Feature", "properties": { "KODE": 1101513, "KATEGORI": "Sungai \/ Rawa", "KETERANGAN": "Potensi Banjir", "X": "6.34300500000e+05", "Y": "9.22091900000e+06" }, "geometry": { "type": "Point", "coordinates": [ 112.215960068672814, -7.046652590091747 ] } },
{ "type": "Feature", "properties": { "KODE": 1101513, "KATEGORI": "Potensi banjir", "KETERANGAN": "Potensi Banjir", "X": "6.34300500000e+05", "Y": "9.22091900000e+06" }, "geometry": { "type": "Point", "coordinates": [ 112.215960068672814, -7.046652590091747 ] } },
{ "type": "Feature", "properties": { "KODE": 1101514, "KATEGORI": "Sungai \/ Rawa", "KETERANGAN": "Potensi Banjir", "X": "6.34300500000e+05", "Y": "9.22090650000e+06" }, "geometry": { "type": "Point", "coordinates": [ 112.215960363329742, -7.046765638792766 ] } },
{ "type": "Feature", "properties": { "KODE": 1101514, "KATEGORI": "Sungai \/ Rawa", "KETERANGAN": "Potensi Banjir", "X": "6.34300500000e+05", "Y": "9.22090650000e+06" }, "geometry": { "type": "Point", "coordinates": [ 112.215960363329742, -7.046765638792766 ] } },
{ "type": "Feature", "properties": { "KODE": 1101514, "KATEGORI": "Potensi banjir", "KETERANGAN": "Potensi Banjir", "X": "6.34300500000e+05", "Y": "9.22090650000e+06" }, "geometry": { "type": "Point", "coordinates": [ 112.215960363329742, -7.046765638792766 ] } },
{ "type": "Feature", "properties": { "KODE": 1101515, "KATEGORI": "Sungai \/ Rawa", "KETERANGAN": "Potensi Banjir", "X": "6.34300500000e+05", "Y": "9.22089400000e+06" }, "geometry": { "type": "Point", "coordinates": [ 112.215960657991516, -7.046878687493228 ] } },
{ "type": "Feature", "properties": { "KODE": 1101515, "KATEGORI": "Sungai \/ Rawa", "KETERANGAN": "Potensi Banjir", "X": "6.34300500000e+05", "Y": "9.22089400000e+06" }, "geometry": { "type": "Point", "coordinates": [ 112.215960657991516, -7.046878687493228 ] } },
{ "type": "Feature", "properties": { "KODE": 1101515, "KATEGORI": "Potensi banjir", "KETERANGAN": "Potensi Banjir", "X": "6.34300500000e+05", "Y": "9.22089400000e+06" }, "geometry": { "type": "Point", "coordinates": [ 112.215960657991516, -7.046878687493228 ] } },
{ "type": "Feature", "properties": { "KODE": 1101516, "KATEGORI": "Sungai \/ Rawa", "KETERANGAN": "Potensi Banjir", "X": "6.34300500000e+05", "Y": "9.22088150000e+06" }, "geometry": { "type": "Point", "coordinates": [ 112.215960952658122, -7.046991736193132 ] } },
{ "type": "Feature", "properties": { "KODE": 1101516, "KATEGORI": "Sungai \/ Rawa", "KETERANGAN": "Potensi Banjir", "X": "6.34300500000e+05", "Y": "9.22088150000e+06" }, "geometry": { "type": "Point", "coordinates": [ 112.215960952658122, -7.046991736193132 ] } },
{ "type": "Feature", "properties": { "KODE": 1101516, "KATEGORI": "Potensi banjir", "KETERANGAN": "Potensi Banjir", "X": "6.34300500000e+05", "Y": "9.22088150000e+06" }, "geometry": { "type": "Point", "coordinates": [ 112.215960952658122, -7.046991736193132 ] } },
{ "type": "Feature", "properties": { "KODE": 1101517, "KATEGORI": "Sungai \/ Rawa", "KETERANGAN": "Potensi Banjir", "X": "6.34300500000e+05", "Y": "9.22086900000e+06" }, "geometry": { "type": "Point", "coordinates": [ 112.215961247329602, -7.047104784892477 ] } },
{ "type": "Feature", "properties": { "KODE": 1101517, "KATEGORI": "Sungai \/ Rawa", "KETERANGAN": "Potensi Banjir", "X": "6.34300500000e+05", "Y": "9.22086900000e+06" }, "geometry": { "type": "Point", "coordinates": [ 112.215961247329602, -7.047104784892477 ] } },
{ "type": "Feature", "properties": { "KODE": 1101517, "KATEGORI": "Potensi banjir", "KETERANGAN": "Potensi Banjir", "X": "6.34300500000e+05", "Y": "9.22086900000e+06" }, "geometry": { "type": "Point", "coordinates": [ 112.215961247329602, -7.047104784892477 ] } },
{ "type": "Feature", "properties": { "KODE": 1101518, "KATEGORI": "Sungai \/ Rawa", "KETERANGAN": "Potensi Banjir", "X": "6.34300500000e+05", "Y": "9.22085650000e+06" }, "geometry": { "type": "Point", "coordinates": [ 112.215961542005914, -7.047217833591266 ] } },
{ "type": "Feature", "properties": { "KODE": 1101518, "KATEGORI": "Sungai \/ Rawa", "KETERANGAN": "Potensi Banjir", "X": "6.34300500000e+05", "Y": "9.22085650000e+06" }, "geometry": { "type": "Point", "coordinates": [ 112.215961542005914, -7.047217833591266 ] } },
{ "type": "Feature", "properties": { "KODE": 1101518, "KATEGORI": "Potensi banjir", "KETERANGAN": "Potensi Banjir", "X": "6.34300500000e+05", "Y": "9.22085650000e+06" }, "geometry": { "type": "Point", "coordinates": [ 112.215961542005914, -7.047217833591266 ] } },
{ "type": "Feature", "properties": { "KODE": 1101519, "KATEGORI": "Sungai \/ Rawa", "KETERANGAN": "Potensi Banjir", "X": "6.34300500000e+05", "Y": "9.22084400000e+06" }, "geometry": { "type": "Point", "coordinates": [ 112.215961836687072, -7.047330882289496 ] } },
{ "type": "Feature", "properties": { "KODE": 1101519, "KATEGORI": "Sungai \/ Rawa", "KETERANGAN": "Potensi Banjir", "X": "6.34300500000e+05", "Y": "9.22084400000e+06" }, "geometry": { "type": "Point", "coordinates": [ 112.215961836687072, -7.047330882289496 ] } },
{ "type": "Feature", "properties": { "KODE": 1101519, "KATEGORI": "Potensi banjir", "KETERANGAN": "Potensi Banjir", "X": "6.34300500000e+05", "Y": "9.22084400000e+06" }, "geometry": { "type": "Point", "coordinates": [ 112.215961836687072, -7.047330882289496 ] } },
{ "type": "Feature", "properties": { "KODE": 1101520, "KATEGORI": "Sungai \/ Rawa", "KETERANGAN": "Potensi Banjir", "X": "6.34300500000e+05", "Y": "9.22083150000e+06" }, "geometry": { "type": "Point", "coordinates": [ 112.215962131373061, -7.047443930987169 ] } },
{ "type": "Feature", "properties": { "KODE": 1101520, "KATEGORI": "Sungai \/ Rawa", "KETERANGAN": "Potensi Banjir", "X": "6.34300500000e+05", "Y": "9.22083150000e+06" }, "geometry": { "type": "Point", "coordinates": [ 112.215962131373061, -7.047443930987169 ] } },
{ "type": "Feature", "properties": { "KODE": 1101520, "KATEGORI": "Potensi banjir", "KETERANGAN": "Potensi Banjir", "X": "6.34300500000e+05", "Y": "9.22083150000e+06" }, "geometry": { "type": "Point", "coordinates": [ 112.215962131373061, -7.047443930987169 ] } },
{ "type": "Feature", "properties": { "KODE": 1101521, "KATEGORI": "Sungai \/ Rawa", "KETERANGAN": "Potensi Banjir", "X": "6.34300500000e+05", "Y": "9.22081900000e+06" }, "geometry": { "type": "Point", "coordinates": [ 112.215962426063925, -7.047556979684286 ] } },
{ "type": "Feature", "properties": { "KODE": 1101521, "KATEGORI": "Sungai \/ Rawa", "KETERANGAN": "Potensi Banjir", "X": "6.34300500000e+05", "Y": "9.22081900000e+06" }, "geometry": { "type": "Point", "coordinates": [ 112.215962426063925, -7.047556979684286 ] } },
{ "type": "Feature", "properties": { "KODE": 1101521, "KATEGORI": "Potensi banjir", "KETERANGAN": "Potensi Banjir", "X": "6.34300500000e+05", "Y": "9.22081900000e+06" }, "geometry": { "type": "Point", "coordinates": [ 112.215962426063925, -7.047556979684286 ] } },
{ "type": "Feature", "properties": { "KODE": 1101522, "KATEGORI": "Sungai \/ Rawa", "KETERANGAN": "Potensi Banjir", "X": "6.34300500000e+05", "Y": "9.22080650000e+06" }, "geometry": { "type": "Point", "coordinates": [ 112.21596272075962, -7.047670028380843 ] } },
{ "type": "Feature", "properties": { "KODE": 1101522, "KATEGORI": "Sungai \/ Rawa", "KETERANGAN": "Potensi Banjir", "X": "6.34300500000e+05", "Y": "9.22080650000e+06" }, "geometry": { "type": "Point", "coordinates": [ 112.21596272075962, -7.047670028380843 ] } },
{ "type": "Feature", "properties": { "KODE": 1101522, "KATEGORI": "Potensi banjir", "KETERANGAN": "Potensi Banjir", "X": "6.34300500000e+05", "Y": "9.22080650000e+06" }, "geometry": { "type": "Point", "coordinates": [ 112.21596272075962, -7.047670028380843 ] } },
{ "type": "Feature", "properties": { "KODE": 1101523, "KATEGORI": "Sungai \/ Rawa", "KETERANGAN": "Potensi Banjir", "X": "6.34300500000e+05", "Y": "9.22079400000e+06" }, "geometry": { "type": "Point", "coordinates": [ 112.215963015460162, -7.047783077076841 ] } },
{ "type": "Feature", "properties": { "KODE": 1101523, "KATEGORI": "Sungai \/ Rawa", "KETERANGAN": "Potensi Banjir", "X": "6.34300500000e+05", "Y": "9.22079400000e+06" }, "geometry": { "type": "Point", "coordinates": [ 112.215963015460162, -7.047783077076841 ] } },
{ "type": "Feature", "properties": { "KODE": 1101523, "KATEGORI": "Potensi banjir", "KETERANGAN": "Potensi Banjir", "X": "6.34300500000e+05", "Y": "9.22079400000e+06" }, "geometry": { "type": "Point", "coordinates": [ 112.215963015460162, -7.047783077076841 ] } },
{ "type": "Feature", "properties": { "KODE": 1101524, "KATEGORI": "Sungai \/ Rawa", "KETERANGAN": "Potensi Banjir", "X": "6.34300500000e+05", "Y": "9.22078159000e+06" }, "geometry": { "type": "Point", "coordinates": [ 112.215963308043641, -7.047895311821678 ] } },
{ "type": "Feature", "properties": { "KODE": 1101524, "KATEGORI": "Sungai \/ Rawa", "KETERANGAN": "Potensi Banjir", "X": "6.34300500000e+05", "Y": "9.22078159000e+06" }, "geometry": { "type": "Point", "coordinates": [ 112.215963308043641, -7.047895311821678 ] } },
{ "type": "Feature", "properties": { "KODE": 1101524, "KATEGORI": "Potensi banjir", "KETERANGAN": "Potensi Banjir", "X": "6.34300500000e+05", "Y": "9.22078159000e+06" }, "geometry": { "type": "Point", "coordinates": [ 112.215963308043641, -7.047895311821678 ] } },
{ "type": "Feature", "properties": { "KODE": 1101525, "KATEGORI": "Sungai \/ Rawa", "KETERANGAN": "Potensi Banjir", "X": "6.34300500000e+05", "Y": "9.22076900000e+06" }, "geometry": { "type": "Point", "coordinates": [ 112.215963604875782, -7.048009174467166 ] } },
{ "type": "Feature", "properties": { "KODE": 1101525, "KATEGORI": "Sungai \/ Rawa", "KETERANGAN": "Potensi Banjir", "X": "6.34300500000e+05", "Y": "9.22076900000e+06" }, "geometry": { "type": "Point", "coordinates": [ 112.215963604875782, -7.048009174467166 ] } },
{ "type": "Feature", "properties": { "KODE": 1101525, "KATEGORI": "Potensi banjir", "KETERANGAN": "Potensi Banjir", "X": "6.34300500000e+05", "Y": "9.22076900000e+06" }, "geometry": { "type": "Point", "coordinates": [ 112.215963604875782, -7.048009174467166 ] } },
{ "type": "Feature", "properties": { "KODE": 1101526, "KATEGORI": "Sungai \/ Rawa", "KETERANGAN": "Potensi Banjir", "X": "6.34300500000e+05", "Y": "9.22075659000e+06" }, "geometry": { "type": "Point", "coordinates": [ 112.215963897468896, -7.048121409210896 ] } },
{ "type": "Feature", "properties": { "KODE": 1101526, "KATEGORI": "Sungai \/ Rawa", "KETERANGAN": "Potensi Banjir", "X": "6.34300500000e+05", "Y": "9.22075659000e+06" }, "geometry": { "type": "Point", "coordinates": [ 112.215963897468896, -7.048121409210896 ] } },
{ "type": "Feature", "properties": { "KODE": 1101526, "KATEGORI": "Potensi banjir", "KETERANGAN": "Potensi Banjir", "X": "6.34300500000e+05", "Y": "9.22075659000e+06" }, "geometry": { "type": "Point", "coordinates": [ 112.215963897468896, -7.048121409210896 ] } },
{ "type": "Feature", "properties": { "KODE": 1101527, "KATEGORI": "Sungai \/ Rawa", "KETERANGAN": "Potensi Banjir", "X": "6.34300500000e+05", "Y": "9.22074400000e+06" }, "geometry": { "type": "Point", "coordinates": [ 112.2159641943108, -7.048235271855261 ] } },
{ "type": "Feature", "properties": { "KODE": 1101527, "KATEGORI": "Sungai \/ Rawa", "KETERANGAN": "Potensi Banjir", "X": "6.34300500000e+05", "Y": "9.22074400000e+06" }, "geometry": { "type": "Point", "coordinates": [ 112.2159641943108, -7.048235271855261 ] } },
{ "type": "Feature", "properties": { "KODE": 1101527, "KATEGORI": "Potensi banjir", "KETERANGAN": "Potensi Banjir", "X": "6.34300500000e+05", "Y": "9.22074400000e+06" }, "geometry": { "type": "Point", "coordinates": [ 112.2159641943108, -7.048235271855261 ] } },
{ "type": "Feature", "properties": { "KODE": 1101528, "KATEGORI": "Sungai \/ Rawa", "KETERANGAN": "Potensi Banjir", "X": "6.34300500000e+05", "Y": "9.22073159000e+06" }, "geometry": { "type": "Point", "coordinates": [ 112.215964486913535, -7.048347506597883 ] } },
{ "type": "Feature", "properties": { "KODE": 1101528, "KATEGORI": "Sungai \/ Rawa", "KETERANGAN": "Potensi Banjir", "X": "6.34300500000e+05", "Y": "9.22073159000e+06" }, "geometry": { "type": "Point", "coordinates": [ 112.215964486913535, -7.048347506597883 ] } },
{ "type": "Feature", "properties": { "KODE": 1101528, "KATEGORI": "Potensi banjir", "KETERANGAN": "Potensi Banjir", "X": "6.34300500000e+05", "Y": "9.22073159000e+06" }, "geometry": { "type": "Point", "coordinates": [ 112.215964486913535, -7.048347506597883 ] } },
{ "type": "Feature", "properties": { "KODE": 1101529, "KATEGORI": "Sungai \/ Rawa", "KETERANGAN": "Potensi Banjir", "X": "6.34300500000e+05", "Y": "9.22071900000e+06" }, "geometry": { "type": "Point", "coordinates": [ 112.215964783765187, -7.048461369241124 ] } },
{ "type": "Feature", "properties": { "KODE": 1101529, "KATEGORI": "Sungai \/ Rawa", "KETERANGAN": "Potensi Banjir", "X": "6.34300500000e+05", "Y": "9.22071900000e+06" }, "geometry": { "type": "Point", "coordinates": [ 112.215964783765187, -7.048461369241124 ] } },
{ "type": "Feature", "properties": { "KODE": 1101529, "KATEGORI": "Potensi banjir", "KETERANGAN": "Potensi Banjir", "X": "6.34300500000e+05", "Y": "9.22071900000e+06" }, "geometry": { "type": "Point", "coordinates": [ 112.215964783765187, -7.048461369241124 ] } },
{ "type": "Feature", "properties": { "KODE": 1101530, "KATEGORI": "Sungai \/ Rawa", "KETERANGAN": "Potensi Banjir", "X": "6.34300500000e+05", "Y": "9.22070659000e+06" }, "geometry": { "type": "Point", "coordinates": [ 112.215965076377543, -7.048573603982638 ] } },
{ "type": "Feature", "properties": { "KODE": 1101530, "KATEGORI": "Sungai \/ Rawa", "KETERANGAN": "Potensi Banjir", "X": "6.34300500000e+05", "Y": "9.22070659000e+06" }, "geometry": { "type": "Point", "coordinates": [ 112.215965076377543, -7.048573603982638 ] } },
{ "type": "Feature", "properties": { "KODE": 1101530, "KATEGORI": "Potensi banjir", "KETERANGAN": "Potensi Banjir", "X": "6.34300500000e+05", "Y": "9.22070659000e+06" }, "geometry": { "type": "Point", "coordinates": [ 112.215965076377543, -7.048573603982638 ] } },
{ "type": "Feature", "properties": { "KODE": 1101531, "KATEGORI": "Sungai \/ Rawa", "KETERANGAN": "Potensi Banjir", "X": "6.34300500000e+05", "Y": "9.22069400000e+06" }, "geometry": { "type": "Point", "coordinates": [ 112.215965373238959, -7.048687466624755 ] } },
{ "type": "Feature", "properties": { "KODE": 1101531, "KATEGORI": "Sungai \/ Rawa", "KETERANGAN": "Potensi Banjir", "X": "6.34300500000e+05", "Y": "9.22069400000e+06" }, "geometry": { "type": "Point", "coordinates": [ 112.215965373238959, -7.048687466624755 ] } },
{ "type": "Feature", "properties": { "KODE": 1101531, "KATEGORI": "Potensi banjir", "KETERANGAN": "Potensi Banjir", "X": "6.34300500000e+05", "Y": "9.22069400000e+06" }, "geometry": { "type": "Point", "coordinates": [ 112.215965373238959, -7.048687466624755 ] } },
{ "type": "Feature", "properties": { "KODE": 1101532, "KATEGORI": "Sungai \/ Rawa", "KETERANGAN": "Potensi Banjir", "X": "6.34300500000e+05", "Y": "9.22068159000e+06" }, "geometry": { "type": "Point", "coordinates": [ 112.215965665860949, -7.04879970136516 ] } },
{ "type": "Feature", "properties": { "KODE": 1101532, "KATEGORI": "Sungai \/ Rawa", "KETERANGAN": "Potensi Banjir", "X": "6.34300500000e+05", "Y": "9.22068159000e+06" }, "geometry": { "type": "Point", "coordinates": [ 112.215965665860949, -7.04879970136516 ] } },
{ "type": "Feature", "properties": { "KODE": 1101532, "KATEGORI": "Potensi banjir", "KETERANGAN": "Potensi Banjir", "X": "6.34300500000e+05", "Y": "9.22068159000e+06" }, "geometry": { "type": "Point", "coordinates": [ 112.215965665860949, -7.04879970136516 ] } },
{ "type": "Feature", "properties": { "KODE": 1101533, "KATEGORI": "Sungai \/ Rawa", "KETERANGAN": "Potensi Banjir", "X": "6.34300500000e+05", "Y": "9.22066900000e+06" }, "geometry": { "type": "Point", "coordinates": [ 112.215965962732128, -7.048913564006155 ] } },
{ "type": "Feature", "properties": { "KODE": 1101533, "KATEGORI": "Sungai \/ Rawa", "KETERANGAN": "Potensi Banjir", "X": "6.34300500000e+05", "Y": "9.22066900000e+06" }, "geometry": { "type": "Point", "coordinates": [ 112.215965962732128, -7.048913564006155 ] } },
{ "type": "Feature", "properties": { "KODE": 1101533, "KATEGORI": "Potensi banjir", "KETERANGAN": "Potensi Banjir", "X": "6.34300500000e+05", "Y": "9.22066900000e+06" }, "geometry": { "type": "Point", "coordinates": [ 112.215965962732128, -7.048913564006155 ] } },
{ "type": "Feature", "properties": { "KODE": 1101534, "KATEGORI": "Sungai \/ Rawa", "KETERANGAN": "Potensi Banjir", "X": "6.34300500000e+05", "Y": "9.22065659000e+06" }, "geometry": { "type": "Point", "coordinates": [ 112.215966255363725, -7.049025798745453 ] } },
{ "type": "Feature", "properties": { "KODE": 1101534, "KATEGORI": "Sungai \/ Rawa", "KETERANGAN": "Potensi Banjir", "X": "6.34300500000e+05", "Y": "9.22065659000e+06" }, "geometry": { "type": "Point", "coordinates": [ 112.215966255363725, -7.049025798745453 ] } },
{ "type": "Feature", "properties": { "KODE": 1101534, "KATEGORI": "Potensi banjir", "KETERANGAN": "Potensi Banjir", "X": "6.34300500000e+05", "Y": "9.22065659000e+06" }, "geometry": { "type": "Point", "coordinates": [ 112.215966255363725, -7.049025798745453 ] } },
{ "type": "Feature", "properties": { "KODE": 1101535, "KATEGORI": "Sungai \/ Rawa", "KETERANGAN": "Potensi Banjir", "X": "6.34300500000e+05", "Y": "9.22064400000e+06" }, "geometry": { "type": "Point", "coordinates": [ 112.215966552244666, -7.049139661385324 ] } },
{ "type": "Feature", "properties": { "KODE": 1101535, "KATEGORI": "Sungai \/ Rawa", "KETERANGAN": "Potensi Banjir", "X": "6.34300500000e+05", "Y": "9.22064400000e+06" }, "geometry": { "type": "Point", "coordinates": [ 112.215966552244666, -7.049139661385324 ] } },
{ "type": "Feature", "properties": { "KODE": 1101535, "KATEGORI": "Potensi banjir", "KETERANGAN": "Potensi Banjir", "X": "6.34300500000e+05", "Y": "9.22064400000e+06" }, "geometry": { "type": "Point", "coordinates": [ 112.215966552244666, -7.049139661385324 ] } },
{ "type": "Feature", "properties": { "KODE": 1101536, "KATEGORI": "Sungai \/ Rawa", "KETERANGAN": "Potensi Banjir", "X": "6.34300500000e+05", "Y": "9.22063159000e+06" }, "geometry": { "type": "Point", "coordinates": [ 112.215966844885898, -7.049251896123515 ] } },
{ "type": "Feature", "properties": { "KODE": 1101536, "KATEGORI": "Sungai \/ Rawa", "KETERANGAN": "Potensi Banjir", "X": "6.34300500000e+05", "Y": "9.22063159000e+06" }, "geometry": { "type": "Point", "coordinates": [ 112.215966844885898, -7.049251896123515 ] } },
{ "type": "Feature", "properties": { "KODE": 1101536, "KATEGORI": "Potensi banjir", "KETERANGAN": "Potensi Banjir", "X": "6.34300500000e+05", "Y": "9.22063159000e+06" }, "geometry": { "type": "Point", "coordinates": [ 112.215966844885898, -7.049251896123515 ] } },
{ "type": "Feature", "properties": { "KODE": 1101537, "KATEGORI": "Sungai \/ Rawa", "KETERANGAN": "Potensi Banjir", "X": "6.34300500000e+05", "Y": "9.22061900000e+06" }, "geometry": { "type": "Point", "coordinates": [ 112.215967141776588, -7.049365758762261 ] } },
{ "type": "Feature", "properties": { "KODE": 1101537, "KATEGORI": "Sungai \/ Rawa", "KETERANGAN": "Potensi Banjir", "X": "6.34300500000e+05", "Y": "9.22061900000e+06" }, "geometry": { "type": "Point", "coordinates": [ 112.215967141776588, -7.049365758762261 ] } },
{ "type": "Feature", "properties": { "KODE": 1101537, "KATEGORI": "Potensi banjir", "KETERANGAN": "Potensi Banjir", "X": "6.34300500000e+05", "Y": "9.22061900000e+06" }, "geometry": { "type": "Point", "coordinates": [ 112.215967141776588, -7.049365758762261 ] } },
{ "type": "Feature", "properties": { "KODE": 1101538, "KATEGORI": "Sungai \/ Rawa", "KETERANGAN": "Potensi Banjir", "X": "6.34300500000e+05", "Y": "9.22060659000e+06" }, "geometry": { "type": "Point", "coordinates": [ 112.215967434427441, -7.049477993499345 ] } },
{ "type": "Feature", "properties": { "KODE": 1101538, "KATEGORI": "Sungai \/ Rawa", "KETERANGAN": "Potensi Banjir", "X": "6.34300500000e+05", "Y": "9.22060659000e+06" }, "geometry": { "type": "Point", "coordinates": [ 112.215967434427441, -7.049477993499345 ] } },
{ "type": "Feature", "properties": { "KODE": 1101538, "KATEGORI": "Potensi banjir", "KETERANGAN": "Potensi Banjir", "X": "6.34300500000e+05", "Y": "9.22060659000e+06" }, "geometry": { "type": "Point", "coordinates": [ 112.215967434427441, -7.049477993499345 ] } },
{ "type": "Feature", "properties": { "KODE": 1101539, "KATEGORI": "Sungai \/ Rawa", "KETERANGAN": "Potensi Banjir", "X": "6.34300500000e+05", "Y": "9.22059400000e+06" }, "geometry": { "type": "Point", "coordinates": [ 112.215967731327908, -7.049591856136966 ] } },
{ "type": "Feature", "properties": { "KODE": 1101539, "KATEGORI": "Sungai \/ Rawa", "KETERANGAN": "Potensi Banjir", "X": "6.34300500000e+05", "Y": "9.22059400000e+06" }, "geometry": { "type": "Point", "coordinates": [ 112.215967731327908, -7.049591856136966 ] } },
{ "type": "Feature", "properties": { "KODE": 1101539, "KATEGORI": "Potensi banjir", "KETERANGAN": "Potensi Banjir", "X": "6.34300500000e+05", "Y": "9.22059400000e+06" }, "geometry": { "type": "Point", "coordinates": [ 112.215967731327908, -7.049591856136966 ] } },
{ "type": "Feature", "properties": { "KODE": 1101540, "KATEGORI": "Sungai \/ Rawa", "KETERANGAN": "Potensi Banjir", "X": "6.34300500000e+05", "Y": "9.22058159000e+06" }, "geometry": { "type": "Point", "coordinates": [ 112.215968023988381, -7.049704090872941 ] } },
{ "type": "Feature", "properties": { "KODE": 1101540, "KATEGORI": "Sungai \/ Rawa", "KETERANGAN": "Potensi Banjir", "X": "6.34300500000e+05", "Y": "9.22058159000e+06" }, "geometry": { "type": "Point", "coordinates": [ 112.215968023988381, -7.049704090872941 ] } },
{ "type": "Feature", "properties": { "KODE": 1101540, "KATEGORI": "Potensi banjir", "KETERANGAN": "Potensi Banjir", "X": "6.34300500000e+05", "Y": "9.22058159000e+06" }, "geometry": { "type": "Point", "coordinates": [ 112.215968023988381, -7.049704090872941 ] } },
{ "type": "Feature", "properties": { "KODE": 1101541, "KATEGORI": "Sungai \/ Rawa", "KETERANGAN": "Potensi Banjir", "X": "6.34300500000e+05", "Y": "9.22056900000e+06" }, "geometry": { "type": "Point", "coordinates": [ 112.215968320898611, -7.049817953509439 ] } },
{ "type": "Feature", "properties": { "KODE": 1101541, "KATEGORI": "Sungai \/ Rawa", "KETERANGAN": "Potensi Banjir", "X": "6.34300500000e+05", "Y": "9.22056900000e+06" }, "geometry": { "type": "Point", "coordinates": [ 112.215968320898611, -7.049817953509439 ] } },
{ "type": "Feature", "properties": { "KODE": 1101541, "KATEGORI": "Potensi banjir", "KETERANGAN": "Potensi Banjir", "X": "6.34300500000e+05", "Y": "9.22056900000e+06" }, "geometry": { "type": "Point", "coordinates": [ 112.215968320898611, -7.049817953509439 ] } },
{ "type": "Feature", "properties": { "KODE": 1101542, "KATEGORI": "Sungai \/ Rawa", "KETERANGAN": "Potensi Banjir", "X": "6.34300500000e+05", "Y": "9.22055659000e+06" }, "geometry": { "type": "Point", "coordinates": [ 112.215968613568705, -7.049930188244308 ] } },
{ "type": "Feature", "properties": { "KODE": 1101542, "KATEGORI": "Sungai \/ Rawa", "KETERANGAN": "Potensi Banjir", "X": "6.34300500000e+05", "Y": "9.22055659000e+06" }, "geometry": { "type": "Point", "coordinates": [ 112.215968613568705, -7.049930188244308 ] } },
{ "type": "Feature", "properties": { "KODE": 1101542, "KATEGORI": "Potensi banjir", "KETERANGAN": "Potensi Banjir", "X": "6.34300500000e+05", "Y": "9.22055659000e+06" }, "geometry": { "type": "Point", "coordinates": [ 112.215968613568705, -7.049930188244308 ] } },
{ "type": "Feature", "properties": { "KODE": 1101543, "KATEGORI": "Sungai \/ Rawa", "KETERANGAN": "Potensi Banjir", "X": "6.34300500000e+05", "Y": "9.22054400000e+06" }, "geometry": { "type": "Point", "coordinates": [ 112.215968910488698, -7.050044050879681 ] } },
{ "type": "Feature", "properties": { "KODE": 1101543, "KATEGORI": "Sungai \/ Rawa", "KETERANGAN": "Potensi Banjir", "X": "6.34300500000e+05", "Y": "9.22054400000e+06" }, "geometry": { "type": "Point", "coordinates": [ 112.215968910488698, -7.050044050879681 ] } },
{ "type": "Feature", "properties": { "KODE": 1101543, "KATEGORI": "Potensi banjir", "KETERANGAN": "Potensi Banjir", "X": "6.34300500000e+05", "Y": "9.22054400000e+06" }, "geometry": { "type": "Point", "coordinates": [ 112.215968910488698, -7.050044050879681 ] } },
{ "type": "Feature", "properties": { "KODE": 1101544, "KATEGORI": "Sungai \/ Rawa", "KETERANGAN": "Potensi Banjir", "X": "6.34300500000e+05", "Y": "9.22053159000e+06" }, "geometry": { "type": "Point", "coordinates": [ 112.215969203168413, -7.050156285613441 ] } },
{ "type": "Feature", "properties": { "KODE": 1101544, "KATEGORI": "Sungai \/ Rawa", "KETERANGAN": "Potensi Banjir", "X": "6.34300500000e+05", "Y": "9.22053159000e+06" }, "geometry": { "type": "Point", "coordinates": [ 112.215969203168413, -7.050156285613441 ] } },
{ "type": "Feature", "properties": { "KODE": 1101544, "KATEGORI": "Potensi banjir", "KETERANGAN": "Potensi Banjir", "X": "6.34300500000e+05", "Y": "9.22053159000e+06" }, "geometry": { "type": "Point", "coordinates": [ 112.215969203168413, -7.050156285613441 ] } },
{ "type": "Feature", "properties": { "KODE": 1101545, "KATEGORI": "Sungai \/ Rawa", "KETERANGAN": "Potensi Banjir", "X": "6.34300500000e+05", "Y": "9.22051900000e+06" }, "geometry": { "type": "Point", "coordinates": [ 112.215969500098154, -7.05027014824769 ] } },
{ "type": "Feature", "properties": { "KODE": 1101545, "KATEGORI": "Sungai \/ Rawa", "KETERANGAN": "Potensi Banjir", "X": "6.34300500000e+05", "Y": "9.22051900000e+06" }, "geometry": { "type": "Point", "coordinates": [ 112.215969500098154, -7.05027014824769 ] } },
{ "type": "Feature", "properties": { "KODE": 1101545, "KATEGORI": "Potensi banjir", "KETERANGAN": "Potensi Banjir", "X": "6.34300500000e+05", "Y": "9.22051900000e+06" }, "geometry": { "type": "Point", "coordinates": [ 112.215969500098154, -7.05027014824769 ] } },
{ "type": "Feature", "properties": { "KODE": 1101546, "KATEGORI": "Sungai \/ Rawa", "KETERANGAN": "Potensi Banjir", "X": "6.34300500000e+05", "Y": "9.22050659000e+06" }, "geometry": { "type": "Point", "coordinates": [ 112.215969792787504, -7.050382382980342 ] } },
{ "type": "Feature", "properties": { "KODE": 1101546, "KATEGORI": "Sungai \/ Rawa", "KETERANGAN": "Potensi Banjir", "X": "6.34300500000e+05", "Y": "9.22050659000e+06" }, "geometry": { "type": "Point", "coordinates": [ 112.215969792787504, -7.050382382980342 ] } },
{ "type": "Feature", "properties": { "KODE": 1101546, "KATEGORI": "Potensi banjir", "KETERANGAN": "Potensi Banjir", "X": "6.34300500000e+05", "Y": "9.22050659000e+06" }, "geometry": { "type": "Point", "coordinates": [ 112.215969792787504, -7.050382382980342 ] } },
{ "type": "Feature", "properties": { "KODE": 1101547, "KATEGORI": "Sungai \/ Rawa", "KETERANGAN": "Potensi Banjir", "X": "6.34300500000e+05", "Y": "9.22049400000e+06" }, "geometry": { "type": "Point", "coordinates": [ 112.215970089727023, -7.050496245613467 ] } },
{ "type": "Feature", "properties": { "KODE": 1101547, "KATEGORI": "Sungai \/ Rawa", "KETERANGAN": "Potensi Banjir", "X": "6.34300500000e+05", "Y": "9.22049400000e+06" }, "geometry": { "type": "Point", "coordinates": [ 112.215970089727023, -7.050496245613467 ] } },
{ "type": "Feature", "properties": { "KODE": 1101547, "KATEGORI": "Potensi banjir", "KETERANGAN": "Potensi Banjir", "X": "6.34300500000e+05", "Y": "9.22049400000e+06" }, "geometry": { "type": "Point", "coordinates": [ 112.215970089727023, -7.050496245613467 ] } },
{ "type": "Feature", "properties": { "KODE": 1101548, "KATEGORI": "Sungai \/ Rawa", "KETERANGAN": "Potensi Banjir", "X": "6.34300500000e+05", "Y": "9.22048159000e+06" }, "geometry": { "type": "Point", "coordinates": [ 112.215970382425979, -7.050608480345012 ] } },
{ "type": "Feature", "properties": { "KODE": 1101548, "KATEGORI": "Sungai \/ Rawa", "KETERANGAN": "Potensi Banjir", "X": "6.34300500000e+05", "Y": "9.22048159000e+06" }, "geometry": { "type": "Point", "coordinates": [ 112.215970382425979, -7.050608480345012 ] } },
{ "type": "Feature", "properties": { "KODE": 1101548, "KATEGORI": "Potensi banjir", "KETERANGAN": "Potensi Banjir", "X": "6.34300500000e+05", "Y": "9.22048159000e+06" }, "geometry": { "type": "Point", "coordinates": [ 112.215970382425979, -7.050608480345012 ] } },
{ "type": "Feature", "properties": { "KODE": 1101549, "KATEGORI": "Sungai \/ Rawa", "KETERANGAN": "Potensi Banjir", "X": "6.34300500000e+05", "Y": "9.22046900000e+06" }, "geometry": { "type": "Point", "coordinates": [ 112.21597067937526, -7.050722342977014 ] } },
{ "type": "Feature", "properties": { "KODE": 1101549, "KATEGORI": "Sungai \/ Rawa", "KETERANGAN": "Potensi Banjir", "X": "6.34300500000e+05", "Y": "9.22046900000e+06" }, "geometry": { "type": "Point", "coordinates": [ 112.21597067937526, -7.050722342977014 ] } },
{ "type": "Feature", "properties": { "KODE": 1101549, "KATEGORI": "Potensi banjir", "KETERANGAN": "Potensi Banjir", "X": "6.34300500000e+05", "Y": "9.22046900000e+06" }, "geometry": { "type": "Point", "coordinates": [ 112.21597067937526, -7.050722342977014 ] } },
{ "type": "Feature", "properties": { "KODE": 1101550, "KATEGORI": "Sungai \/ Rawa", "KETERANGAN": "Potensi Banjir", "X": "6.34300500000e+05", "Y": "9.22045659000e+06" }, "geometry": { "type": "Point", "coordinates": [ 112.215970972083838, -7.05083457770745 ] } },
{ "type": "Feature", "properties": { "KODE": 1101550, "KATEGORI": "Sungai \/ Rawa", "KETERANGAN": "Potensi Banjir", "X": "6.34300500000e+05", "Y": "9.22045659000e+06" }, "geometry": { "type": "Point", "coordinates": [ 112.215970972083838, -7.05083457770745 ] } },
{ "type": "Feature", "properties": { "KODE": 1101550, "KATEGORI": "Potensi banjir", "KETERANGAN": "Potensi Banjir", "X": "6.34300500000e+05", "Y": "9.22045659000e+06" }, "geometry": { "type": "Point", "coordinates": [ 112.215970972083838, -7.05083457770745 ] } },
{ "type": "Feature", "properties": { "KODE": 1101551, "KATEGORI": "Sungai \/ Rawa", "KETERANGAN": "Potensi Banjir", "X": "6.34300500000e+05", "Y": "9.22044400000e+06" }, "geometry": { "type": "Point", "coordinates": [ 112.215971269042882, -7.050948440338328 ] } },
{ "type": "Feature", "properties": { "KODE": 1101551, "KATEGORI": "Sungai \/ Rawa", "KETERANGAN": "Potensi Banjir", "X": "6.34300500000e+05", "Y": "9.22044400000e+06" }, "geometry": { "type": "Point", "coordinates": [ 112.215971269042882, -7.050948440338328 ] } },
{ "type": "Feature", "properties": { "KODE": 1101551, "KATEGORI": "Potensi banjir", "KETERANGAN": "Potensi Banjir", "X": "6.34300500000e+05", "Y": "9.22044400000e+06" }, "geometry": { "type": "Point", "coordinates": [ 112.215971269042882, -7.050948440338328 ] } },
{ "type": "Feature", "properties": { "KODE": 1101552, "KATEGORI": "Sungai \/ Rawa", "KETERANGAN": "Potensi Banjir", "X": "6.34300500000e+05", "Y": "9.22043159000e+06" }, "geometry": { "type": "Point", "coordinates": [ 112.215971561761094, -7.051060675067656 ] } },
{ "type": "Feature", "properties": { "KODE": 1101552, "KATEGORI": "Sungai \/ Rawa", "KETERANGAN": "Potensi Banjir", "X": "6.34300500000e+05", "Y": "9.22043159000e+06" }, "geometry": { "type": "Point", "coordinates": [ 112.215971561761094, -7.051060675067656 ] } },
{ "type": "Feature", "properties": { "KODE": 1101552, "KATEGORI": "Potensi banjir", "KETERANGAN": "Potensi Banjir", "X": "6.34300500000e+05", "Y": "9.22043159000e+06" }, "geometry": { "type": "Point", "coordinates": [ 112.215971561761094, -7.051060675067656 ] } },
{ "type": "Feature", "properties": { "KODE": 1101553, "KATEGORI": "Sungai \/ Rawa", "KETERANGAN": "Potensi Banjir", "X": "6.34300500000e+05", "Y": "9.22041900000e+06" }, "geometry": { "type": "Point", "coordinates": [ 112.215971858729887, -7.051174537697411 ] } },
{ "type": "Feature", "properties": { "KODE": 1101553, "KATEGORI": "Sungai \/ Rawa", "KETERANGAN": "Potensi Banjir", "X": "6.34300500000e+05", "Y": "9.22041900000e+06" }, "geometry": { "type": "Point", "coordinates": [ 112.215971858729887, -7.051174537697411 ] } },
{ "type": "Feature", "properties": { "KODE": 1101553, "KATEGORI": "Potensi banjir", "KETERANGAN": "Potensi Banjir", "X": "6.34300500000e+05", "Y": "9.22041900000e+06" }, "geometry": { "type": "Point", "coordinates": [ 112.215971858729887, -7.051174537697411 ] } },
{ "type": "Feature", "properties": { "KODE": 1101554, "KATEGORI": "Sungai \/ Rawa", "KETERANGAN": "Potensi Banjir", "X": "6.34300500000e+05", "Y": "9.22040659000e+06" }, "geometry": { "type": "Point", "coordinates": [ 112.21597215145772, -7.051286772425629 ] } },
{ "type": "Feature", "properties": { "KODE": 1101554, "KATEGORI": "Sungai \/ Rawa", "KETERANGAN": "Potensi Banjir", "X": "6.34300500000e+05", "Y": "9.22040659000e+06" }, "geometry": { "type": "Point", "coordinates": [ 112.21597215145772, -7.051286772425629 ] } },
{ "type": "Feature", "properties": { "KODE": 1101554, "KATEGORI": "Potensi banjir", "KETERANGAN": "Potensi Banjir", "X": "6.34300500000e+05", "Y": "9.22040659000e+06" }, "geometry": { "type": "Point", "coordinates": [ 112.21597215145772, -7.051286772425629 ] } },
{ "type": "Feature", "properties": { "KODE": 1101555, "KATEGORI": "Sungai \/ Rawa", "KETERANGAN": "Potensi Banjir", "X": "6.34300500000e+05", "Y": "9.22039400000e+06" }, "geometry": { "type": "Point", "coordinates": [ 112.215972448436275, -7.051400635054258 ] } },
{ "type": "Feature", "properties": { "KODE": 1101555, "KATEGORI": "Sungai \/ Rawa", "KETERANGAN": "Potensi Banjir", "X": "6.34300500000e+05", "Y": "9.22039400000e+06" }, "geometry": { "type": "Point", "coordinates": [ 112.215972448436275, -7.051400635054258 ] } },
{ "type": "Feature", "properties": { "KODE": 1101555, "KATEGORI": "Potensi banjir", "KETERANGAN": "Potensi Banjir", "X": "6.34300500000e+05", "Y": "9.22039400000e+06" }, "geometry": { "type": "Point", "coordinates": [ 112.215972448436275, -7.051400635054258 ] } },
{ "type": "Feature", "properties": { "KODE": 1101556, "KATEGORI": "Sungai \/ Rawa", "KETERANGAN": "Potensi Banjir", "X": "6.34300500000e+05", "Y": "9.22038159000e+06" }, "geometry": { "type": "Point", "coordinates": [ 112.215972741173729, -7.051512869781371 ] } },
{ "type": "Feature", "properties": { "KODE": 1101556, "KATEGORI": "Sungai \/ Rawa", "KETERANGAN": "Potensi Banjir", "X": "6.34300500000e+05", "Y": "9.22038159000e+06" }, "geometry": { "type": "Point", "coordinates": [ 112.215972741173729, -7.051512869781371 ] } },
{ "type": "Feature", "properties": { "KODE": 1101556, "KATEGORI": "Potensi banjir", "KETERANGAN": "Potensi Banjir", "X": "6.34300500000e+05", "Y": "9.22038159000e+06" }, "geometry": { "type": "Point", "coordinates": [ 112.215972741173729, -7.051512869781371 ] } },
{ "type": "Feature", "properties": { "KODE": 1101557, "KATEGORI": "Sungai \/ Rawa", "KETERANGAN": "Potensi Banjir", "X": "6.34300500000e+05", "Y": "9.22036900000e+06" }, "geometry": { "type": "Point", "coordinates": [ 112.215973038162062, -7.051626732408875 ] } },
{ "type": "Feature", "properties": { "KODE": 1101557, "KATEGORI": "Sungai \/ Rawa", "KETERANGAN": "Potensi Banjir", "X": "6.34300500000e+05", "Y": "9.22036900000e+06" }, "geometry": { "type": "Point", "coordinates": [ 112.215973038162062, -7.051626732408875 ] } },
{ "type": "Feature", "properties": { "KODE": 1101557, "KATEGORI": "Potensi banjir", "KETERANGAN": "Potensi Banjir", "X": "6.34300500000e+05", "Y": "9.22036900000e+06" }, "geometry": { "type": "Point", "coordinates": [ 112.215973038162062, -7.051626732408875 ] } },
{ "type": "Feature", "properties": { "KODE": 1101558, "KATEGORI": "Sungai \/ Rawa", "KETERANGAN": "Potensi Banjir", "X": "6.34300500000e+05", "Y": "9.22035659000e+06" }, "geometry": { "type": "Point", "coordinates": [ 112.215973330909137, -7.05173896713488 ] } },
{ "type": "Feature", "properties": { "KODE": 1101558, "KATEGORI": "Sungai \/ Rawa", "KETERANGAN": "Potensi Banjir", "X": "6.34300500000e+05", "Y": "9.22035659000e+06" }, "geometry": { "type": "Point", "coordinates": [ 112.215973330909137, -7.05173896713488 ] } },
{ "type": "Feature", "properties": { "KODE": 1101558, "KATEGORI": "Potensi banjir", "KETERANGAN": "Potensi Banjir", "X": "6.34300500000e+05", "Y": "9.22035659000e+06" }, "geometry": { "type": "Point", "coordinates": [ 112.215973330909137, -7.05173896713488 ] } },
{ "type": "Feature", "properties": { "KODE": 1101559, "KATEGORI": "Sungai \/ Rawa", "KETERANGAN": "Potensi Banjir", "X": "6.34300500000e+05", "Y": "9.22034400000e+06" }, "geometry": { "type": "Point", "coordinates": [ 112.215973627907218, -7.051852829761259 ] } },
{ "type": "Feature", "properties": { "KODE": 1101559, "KATEGORI": "Sungai \/ Rawa", "KETERANGAN": "Potensi Banjir", "X": "6.34300500000e+05", "Y": "9.22034400000e+06" }, "geometry": { "type": "Point", "coordinates": [ 112.215973627907218, -7.051852829761259 ] } },
{ "type": "Feature", "properties": { "KODE": 1101559, "KATEGORI": "Potensi banjir", "KETERANGAN": "Potensi Banjir", "X": "6.34300500000e+05", "Y": "9.22034400000e+06" }, "geometry": { "type": "Point", "coordinates": [ 112.215973627907218, -7.051852829761259 ] } },
{ "type": "Feature", "properties": { "KODE": 1101560, "KATEGORI": "Sungai \/ Rawa", "KETERANGAN": "Potensi Banjir", "X": "6.34300500000e+05", "Y": "9.22033159000e+06" }, "geometry": { "type": "Point", "coordinates": [ 112.215973920663927, -7.051965064486154 ] } },
{ "type": "Feature", "properties": { "KODE": 1101560, "KATEGORI": "Sungai \/ Rawa", "KETERANGAN": "Potensi Banjir", "X": "6.34300500000e+05", "Y": "9.22033159000e+06" }, "geometry": { "type": "Point", "coordinates": [ 112.215973920663927, -7.051965064486154 ] } },
{ "type": "Feature", "properties": { "KODE": 1101560, "KATEGORI": "Potensi banjir", "KETERANGAN": "Potensi Banjir", "X": "6.34300500000e+05", "Y": "9.22033159000e+06" }, "geometry": { "type": "Point", "coordinates": [ 112.215973920663927, -7.051965064486154 ] } },
{ "type": "Feature", "properties": { "KODE": 1101561, "KATEGORI": "Sungai \/ Rawa", "KETERANGAN": "Potensi Banjir", "X": "6.34300500000e+05", "Y": "9.22031900000e+06" }, "geometry": { "type": "Point", "coordinates": [ 112.215974217671786, -7.052078927111411 ] } },
{ "type": "Feature", "properties": { "KODE": 1101561, "KATEGORI": "Sungai \/ Rawa", "KETERANGAN": "Potensi Banjir", "X": "6.34300500000e+05", "Y": "9.22031900000e+06" }, "geometry": { "type": "Point", "coordinates": [ 112.215974217671786, -7.052078927111411 ] } },
{ "type": "Feature", "properties": { "KODE": 1101561, "KATEGORI": "Potensi banjir", "KETERANGAN": "Potensi Banjir", "X": "6.34300500000e+05", "Y": "9.22031900000e+06" }, "geometry": { "type": "Point", "coordinates": [ 112.215974217671786, -7.052078927111411 ] } },
{ "type": "Feature", "properties": { "KODE": 1101562, "KATEGORI": "Sungai \/ Rawa", "KETERANGAN": "Potensi Banjir", "X": "6.34300500000e+05", "Y": "9.22030659000e+06" }, "geometry": { "type": "Point", "coordinates": [ 112.215974510438102, -7.0521911618352 ] } },
{ "type": "Feature", "properties": { "KODE": 1101562, "KATEGORI": "Sungai \/ Rawa", "KETERANGAN": "Potensi Banjir", "X": "6.34300500000e+05", "Y": "9.22030659000e+06" }, "geometry": { "type": "Point", "coordinates": [ 112.215974510438102, -7.0521911618352 ] } },
{ "type": "Feature", "properties": { "KODE": 1101562, "KATEGORI": "Potensi banjir", "KETERANGAN": "Potensi Banjir", "X": "6.34300500000e+05", "Y": "9.22030659000e+06" }, "geometry": { "type": "Point", "coordinates": [ 112.215974510438102, -7.0521911618352 ] } },
{ "type": "Feature", "properties": { "KODE": 1101563, "KATEGORI": "Sungai \/ Rawa", "KETERANGAN": "Potensi Banjir", "X": "6.34300500000e+05", "Y": "9.22029400000e+06" }, "geometry": { "type": "Point", "coordinates": [ 112.215974807455709, -7.052305024459332 ] } },
{ "type": "Feature", "properties": { "KODE": 1101563, "KATEGORI": "Sungai \/ Rawa", "KETERANGAN": "Potensi Banjir", "X": "6.34300500000e+05", "Y": "9.22029400000e+06" }, "geometry": { "type": "Point", "coordinates": [ 112.215974807455709, -7.052305024459332 ] } },
{ "type": "Feature", "properties": { "KODE": 1101563, "KATEGORI": "Potensi banjir", "KETERANGAN": "Potensi Banjir", "X": "6.34300500000e+05", "Y": "9.22029400000e+06" }, "geometry": { "type": "Point", "coordinates": [ 112.215974807455709, -7.052305024459332 ] } },
{ "type": "Feature", "properties": { "KODE": 1101564, "KATEGORI": "Sungai \/ Rawa", "KETERANGAN": "Potensi Banjir", "X": "6.34300500000e+05", "Y": "9.22028159000e+06" }, "geometry": { "type": "Point", "coordinates": [ 112.21597510023166, -7.05241725918201 ] } },
{ "type": "Feature", "properties": { "KODE": 1101564, "KATEGORI": "Sungai \/ Rawa", "KETERANGAN": "Potensi Banjir", "X": "6.34300500000e+05", "Y": "9.22028159000e+06" }, "geometry": { "type": "Point", "coordinates": [ 112.21597510023166, -7.05241725918201 ] } },
{ "type": "Feature", "properties": { "KODE": 1101564, "KATEGORI": "Potensi banjir", "KETERANGAN": "Potensi Banjir", "X": "6.34300500000e+05", "Y": "9.22028159000e+06" }, "geometry": { "type": "Point", "coordinates": [ 112.21597510023166, -7.05241725918201 ] } },
{ "type": "Feature", "properties": { "KODE": 1101565, "KATEGORI": "Sungai \/ Rawa", "KETERANGAN": "Potensi Banjir", "X": "6.34300500000e+05", "Y": "9.22026900000e+06" }, "geometry": { "type": "Point", "coordinates": [ 112.215975397259029, -7.052531121805018 ] } },
{ "type": "Feature", "properties": { "KODE": 1101565, "KATEGORI": "Sungai \/ Rawa", "KETERANGAN": "Potensi Banjir", "X": "6.34300500000e+05", "Y": "9.22026900000e+06" }, "geometry": { "type": "Point", "coordinates": [ 112.215975397259029, -7.052531121805018 ] } },
{ "type": "Feature", "properties": { "KODE": 1101565, "KATEGORI": "Potensi banjir", "KETERANGAN": "Potensi Banjir", "X": "6.34300500000e+05", "Y": "9.22026900000e+06" }, "geometry": { "type": "Point", "coordinates": [ 112.215975397259029, -7.052531121805018 ] } },
{ "type": "Feature", "properties": { "KODE": 1101566, "KATEGORI": "Sungai \/ Rawa", "KETERANGAN": "Potensi Banjir", "X": "6.34300500000e+05", "Y": "9.22025659000e+06" }, "geometry": { "type": "Point", "coordinates": [ 112.215975690044601, -7.052643356526588 ] } },
{ "type": "Feature", "properties": { "KODE": 1101566, "KATEGORI": "Sungai \/ Rawa", "KETERANGAN": "Potensi Banjir", "X": "6.34300500000e+05", "Y": "9.22025659000e+06" }, "geometry": { "type": "Point", "coordinates": [ 112.215975690044601, -7.052643356526588 ] } },
{ "type": "Feature", "properties": { "KODE": 1101566, "KATEGORI": "Potensi banjir", "KETERANGAN": "Potensi Banjir", "X": "6.34300500000e+05", "Y": "9.22025659000e+06" }, "geometry": { "type": "Point", "coordinates": [ 112.215975690044601, -7.052643356526588 ] } },
{ "type": "Feature", "properties": { "KODE": 1101567, "KATEGORI": "Sungai \/ Rawa", "KETERANGAN": "Potensi Banjir", "X": "6.34300500000e+05", "Y": "9.22024400000e+06" }, "geometry": { "type": "Point", "coordinates": [ 112.215975987081734, -7.052757219148472 ] } },
{ "type": "Feature", "properties": { "KODE": 1101567, "KATEGORI": "Sungai \/ Rawa", "KETERANGAN": "Potensi Banjir", "X": "6.34300500000e+05", "Y": "9.22024400000e+06" }, "geometry": { "type": "Point", "coordinates": [ 112.215975987081734, -7.052757219148472 ] } },
{ "type": "Feature", "properties": { "KODE": 1101567, "KATEGORI": "Potensi banjir", "KETERANGAN": "Potensi Banjir", "X": "6.34300500000e+05", "Y": "9.22024400000e+06" }, "geometry": { "type": "Point", "coordinates": [ 112.215975987081734, -7.052757219148472 ] } },
{ "type": "Feature", "properties": { "KODE": 1101568, "KATEGORI": "Sungai \/ Rawa", "KETERANGAN": "Potensi Banjir", "X": "6.34300500000e+05", "Y": "9.22023159000e+06" }, "geometry": { "type": "Point", "coordinates": [ 112.215976279876926, -7.052869453868935 ] } },
{ "type": "Feature", "properties": { "KODE": 1101568, "KATEGORI": "Sungai \/ Rawa", "KETERANGAN": "Potensi Banjir", "X": "6.34300500000e+05", "Y": "9.22023159000e+06" }, "geometry": { "type": "Point", "coordinates": [ 112.215976279876926, -7.052869453868935 ] } },
{ "type": "Feature", "properties": { "KODE": 1101568, "KATEGORI": "Potensi banjir", "KETERANGAN": "Potensi Banjir", "X": "6.34300500000e+05", "Y": "9.22023159000e+06" }, "geometry": { "type": "Point", "coordinates": [ 112.215976279876926, -7.052869453868935 ] } },
{ "type": "Feature", "properties": { "KODE": 1101569, "KATEGORI": "Sungai \/ Rawa", "KETERANGAN": "Potensi Banjir", "X": "6.34300500000e+05", "Y": "9.22021900000e+06" }, "geometry": { "type": "Point", "coordinates": [ 112.215976576923822, -7.052983316489694 ] } },
{ "type": "Feature", "properties": { "KODE": 1101569, "KATEGORI": "Sungai \/ Rawa", "KETERANGAN": "Potensi Banjir", "X": "6.34300500000e+05", "Y": "9.22021900000e+06" }, "geometry": { "type": "Point", "coordinates": [ 112.215976576923822, -7.052983316489694 ] } },
{ "type": "Feature", "properties": { "KODE": 1101569, "KATEGORI": "Potensi banjir", "KETERANGAN": "Potensi Banjir", "X": "6.34300500000e+05", "Y": "9.22021900000e+06" }, "geometry": { "type": "Point", "coordinates": [ 112.215976576923822, -7.052983316489694 ] } },
{ "type": "Feature", "properties": { "KODE": 1101570, "KATEGORI": "Sungai \/ Rawa", "KETERANGAN": "Potensi Banjir", "X": "6.34300500000e+05", "Y": "9.22020659000e+06" }, "geometry": { "type": "Point", "coordinates": [ 112.215976869728635, -7.053095551209049 ] } },
{ "type": "Feature", "properties": { "KODE": 1101570, "KATEGORI": "Sungai \/ Rawa", "KETERANGAN": "Potensi Banjir", "X": "6.34300500000e+05", "Y": "9.22020659000e+06" }, "geometry": { "type": "Point", "coordinates": [ 112.215976869728635, -7.053095551209049 ] } },
{ "type": "Feature", "properties": { "KODE": 1101570, "KATEGORI": "Potensi banjir", "KETERANGAN": "Potensi Banjir", "X": "6.34300500000e+05", "Y": "9.22020659000e+06" }, "geometry": { "type": "Point", "coordinates": [ 112.215976869728635, -7.053095551209049 ] } },
{ "type": "Feature", "properties": { "KODE": 1101571, "KATEGORI": "Sungai \/ Rawa", "KETERANGAN": "Potensi Banjir", "X": "6.34300500000e+05", "Y": "9.22019400000e+06" }, "geometry": { "type": "Point", "coordinates": [ 112.215977166785294, -7.053209413828682 ] } },
{ "type": "Feature", "properties": { "KODE": 1101571, "KATEGORI": "Sungai \/ Rawa", "KETERANGAN": "Potensi Banjir", "X": "6.34300500000e+05", "Y": "9.22019400000e+06" }, "geometry": { "type": "Point", "coordinates": [ 112.215977166785294, -7.053209413828682 ] } },
{ "type": "Feature", "properties": { "KODE": 1101571, "KATEGORI": "Potensi banjir", "KETERANGAN": "Potensi Banjir", "X": "6.34300500000e+05", "Y": "9.22019400000e+06" }, "geometry": { "type": "Point", "coordinates": [ 112.215977166785294, -7.053209413828682 ] } },
{ "type": "Feature", "properties": { "KODE": 1101572, "KATEGORI": "Sungai \/ Rawa", "KETERANGAN": "Potensi Banjir", "X": "6.34300500000e+05", "Y": "9.22018159000e+06" }, "geometry": { "type": "Point", "coordinates": [ 112.215977459599742, -7.053321648546929 ] } },
{ "type": "Feature", "properties": { "KODE": 1101572, "KATEGORI": "Sungai \/ Rawa", "KETERANGAN": "Potensi Banjir", "X": "6.34300500000e+05", "Y": "9.22018159000e+06" }, "geometry": { "type": "Point", "coordinates": [ 112.215977459599742, -7.053321648546929 ] } },
{ "type": "Feature", "properties": { "KODE": 1101572, "KATEGORI": "Potensi banjir", "KETERANGAN": "Potensi Banjir", "X": "6.34300500000e+05", "Y": "9.22018159000e+06" }, "geometry": { "type": "Point", "coordinates": [ 112.215977459599742, -7.053321648546929 ] } },
{ "type": "Feature", "properties": { "KODE": 1101573, "KATEGORI": "Sungai \/ Rawa", "KETERANGAN": "Potensi Banjir", "X": "6.34300500000e+05", "Y": "9.22016900000e+06" }, "geometry": { "type": "Point", "coordinates": [ 112.215977756666163, -7.053435511165439 ] } },
{ "type": "Feature", "properties": { "KODE": 1101573, "KATEGORI": "Sungai \/ Rawa", "KETERANGAN": "Potensi Banjir", "X": "6.34300500000e+05", "Y": "9.22016900000e+06" }, "geometry": { "type": "Point", "coordinates": [ 112.215977756666163, -7.053435511165439 ] } },
{ "type": "Feature", "properties": { "KODE": 1101573, "KATEGORI": "Potensi banjir", "KETERANGAN": "Potensi Banjir", "X": "6.34300500000e+05", "Y": "9.22016900000e+06" }, "geometry": { "type": "Point", "coordinates": [ 112.215977756666163, -7.053435511165439 ] } },
{ "type": "Feature", "properties": { "KODE": 1101574, "KATEGORI": "Sungai \/ Rawa", "KETERANGAN": "Potensi Banjir", "X": "6.34300500000e+05", "Y": "9.22015659000e+06" }, "geometry": { "type": "Point", "coordinates": [ 112.215978049490218, -7.053547745882576 ] } },
{ "type": "Feature", "properties": { "KODE": 1101574, "KATEGORI": "Sungai \/ Rawa", "KETERANGAN": "Potensi Banjir", "X": "6.34300500000e+05", "Y": "9.22015659000e+06" }, "geometry": { "type": "Point", "coordinates": [ 112.215978049490218, -7.053547745882576 ] } },
{ "type": "Feature", "properties": { "KODE": 1101574, "KATEGORI": "Potensi banjir", "KETERANGAN": "Potensi Banjir", "X": "6.34300500000e+05", "Y": "9.22015659000e+06" }, "geometry": { "type": "Point", "coordinates": [ 112.215978049490218, -7.053547745882576 ] } },
{ "type": "Feature", "properties": { "KODE": 1101575, "KATEGORI": "Sungai \/ Rawa", "KETERANGAN": "Potensi Banjir", "X": "6.34300500000e+05", "Y": "9.22014400000e+06" }, "geometry": { "type": "Point", "coordinates": [ 112.215978346566402, -7.053661608499961 ] } },
{ "type": "Feature", "properties": { "KODE": 1101575, "KATEGORI": "Sungai \/ Rawa", "KETERANGAN": "Potensi Banjir", "X": "6.34300500000e+05", "Y": "9.22014400000e+06" }, "geometry": { "type": "Point", "coordinates": [ 112.215978346566402, -7.053661608499961 ] } },
{ "type": "Feature", "properties": { "KODE": 1101575, "KATEGORI": "Potensi banjir", "KETERANGAN": "Potensi Banjir", "X": "6.34300500000e+05", "Y": "9.22014400000e+06" }, "geometry": { "type": "Point", "coordinates": [ 112.215978346566402, -7.053661608499961 ] } },
{ "type": "Feature", "properties": { "KODE": 1101576, "KATEGORI": "Sungai \/ Rawa", "KETERANGAN": "Potensi Banjir", "X": "6.34300500000e+05", "Y": "9.22013159000e+06" }, "geometry": { "type": "Point", "coordinates": [ 112.215978639400092, -7.05377384321599 ] } },
{ "type": "Feature", "properties": { "KODE": 1101576, "KATEGORI": "Sungai \/ Rawa", "KETERANGAN": "Potensi Banjir", "X": "6.34300500000e+05", "Y": "9.22013159000e+06" }, "geometry": { "type": "Point", "coordinates": [ 112.215978639400092, -7.05377384321599 ] } },
{ "type": "Feature", "properties": { "KODE": 1101576, "KATEGORI": "Potensi banjir", "KETERANGAN": "Potensi Banjir", "X": "6.34300500000e+05", "Y": "9.22013159000e+06" }, "geometry": { "type": "Point", "coordinates": [ 112.215978639400092, -7.05377384321599 ] } },
{ "type": "Feature", "properties": { "KODE": 1101577, "KATEGORI": "Sungai \/ Rawa", "KETERANGAN": "Potensi Banjir", "X": "6.34300500000e+05", "Y": "9.22011900000e+06" }, "geometry": { "type": "Point", "coordinates": [ 112.215978936486053, -7.053887705832252 ] } },
{ "type": "Feature", "properties": { "KODE": 1101577, "KATEGORI": "Sungai \/ Rawa", "KETERANGAN": "Potensi Banjir", "X": "6.34300500000e+05", "Y": "9.22011900000e+06" }, "geometry": { "type": "Point", "coordinates": [ 112.215978936486053, -7.053887705832252 ] } },
{ "type": "Feature", "properties": { "KODE": 1101577, "KATEGORI": "Potensi banjir", "KETERANGAN": "Potensi Banjir", "X": "6.34300500000e+05", "Y": "9.22011900000e+06" }, "geometry": { "type": "Point", "coordinates": [ 112.215978936486053, -7.053887705832252 ] } },
{ "type": "Feature", "properties": { "KODE": 1101578, "KATEGORI": "Sungai \/ Rawa", "KETERANGAN": "Potensi Banjir", "X": "6.34300500000e+05", "Y": "9.22010659000e+06" }, "geometry": { "type": "Point", "coordinates": [ 112.215979229329349, -7.053999940547173 ] } },
{ "type": "Feature", "properties": { "KODE": 1101578, "KATEGORI": "Sungai \/ Rawa", "KETERANGAN": "Potensi Banjir", "X": "6.34300500000e+05", "Y": "9.22010659000e+06" }, "geometry": { "type": "Point", "coordinates": [ 112.215979229329349, -7.053999940547173 ] } },
{ "type": "Feature", "properties": { "KODE": 1101578, "KATEGORI": "Potensi banjir", "KETERANGAN": "Potensi Banjir", "X": "6.34300500000e+05", "Y": "9.22010659000e+06" }, "geometry": { "type": "Point", "coordinates": [ 112.215979229329349, -7.053999940547173 ] } },
{ "type": "Feature", "properties": { "KODE": 1101579, "KATEGORI": "Sungai \/ Rawa", "KETERANGAN": "Potensi Banjir", "X": "6.34300500000e+05", "Y": "9.22009400000e+06" }, "geometry": { "type": "Point", "coordinates": [ 112.215979526425059, -7.054113803162307 ] } },
{ "type": "Feature", "properties": { "KODE": 1101579, "KATEGORI": "Sungai \/ Rawa", "KETERANGAN": "Potensi Banjir", "X": "6.34300500000e+05", "Y": "9.22009400000e+06" }, "geometry": { "type": "Point", "coordinates": [ 112.215979526425059, -7.054113803162307 ] } },
{ "type": "Feature", "properties": { "KODE": 1101579, "KATEGORI": "Potensi banjir", "KETERANGAN": "Potensi Banjir", "X": "6.34300500000e+05", "Y": "9.22009400000e+06" }, "geometry": { "type": "Point", "coordinates": [ 112.215979526425059, -7.054113803162307 ] } },
{ "type": "Feature", "properties": { "KODE": 1101580, "KATEGORI": "Sungai \/ Rawa", "KETERANGAN": "Potensi Banjir", "X": "6.34300500000e+05", "Y": "9.22008159000e+06" }, "geometry": { "type": "Point", "coordinates": [ 112.21597981927799, -7.054226037876121 ] } },
{ "type": "Feature", "properties": { "KODE": 1101580, "KATEGORI": "Sungai \/ Rawa", "KETERANGAN": "Potensi Banjir", "X": "6.34300500000e+05", "Y": "9.22008159000e+06" }, "geometry": { "type": "Point", "coordinates": [ 112.21597981927799, -7.054226037876121 ] } },
{ "type": "Feature", "properties": { "KODE": 1101580, "KATEGORI": "Potensi banjir", "KETERANGAN": "Potensi Banjir", "X": "6.34300500000e+05", "Y": "9.22008159000e+06" }, "geometry": { "type": "Point", "coordinates": [ 112.21597981927799, -7.054226037876121 ] } },
{ "type": "Feature", "properties": { "KODE": 1201501, "KATEGORI": "Sungai\/ Rawa", "KETERANGAN": "Potensi Banjir", "X": "6.39300500000e+05", "Y": "9.22156900000e+06" }, "geometry": { "type": "Point", "coordinates": [ 112.261206972155705, -7.040654219715418 ] } },
{ "type": "Feature", "properties": { "KODE": 1201502, "KATEGORI": "Sungai\/ Rawa", "KETERANGAN": "Potensi Banjir", "X": "6.39300500000e+05", "Y": "9.22155650000e+06" }, "geometry": { "type": "Point", "coordinates": [ 112.261207277512597, -7.040767266502548 ] } },
{ "type": "Feature", "properties": { "KODE": 1201503, "KATEGORI": "Sungai\/ Rawa", "KETERANGAN": "Potensi Banjir", "X": "6.39300500000e+05", "Y": "9.22154400000e+06" }, "geometry": { "type": "Point", "coordinates": [ 112.261207582874505, -7.040880313289119 ] } },
{ "type": "Feature", "properties": { "KODE": 1201504, "KATEGORI": "Sungai\/ Rawa", "KETERANGAN": "Potensi Banjir", "X": "6.39300500000e+05", "Y": "9.22153150000e+06" }, "geometry": { "type": "Point", "coordinates": [ 112.261207888241458, -7.040993360075134 ] } },
{ "type": "Feature", "properties": { "KODE": 1201505, "KATEGORI": "Sungai\/ Rawa", "KETERANGAN": "Potensi Banjir", "X": "6.39300500000e+05", "Y": "9.22151900000e+06" }, "geometry": { "type": "Point", "coordinates": [ 112.261208193613427, -7.04110640686059 ] } },
{ "type": "Feature", "properties": { "KODE": 1201506, "KATEGORI": "Sungai\/ Rawa", "KETERANGAN": "Potensi Banjir", "X": "6.39300500000e+05", "Y": "9.22150650000e+06" }, "geometry": { "type": "Point", "coordinates": [ 112.261208498990428, -7.041219453645487 ] } },
{ "type": "Feature", "properties": { "KODE": 1201507, "KATEGORI": "Sungai\/ Rawa", "KETERANGAN": "Potensi Banjir", "X": "6.39300500000e+05", "Y": "9.22149400000e+06" }, "geometry": { "type": "Point", "coordinates": [ 112.261208804372444, -7.041332500429827 ] } },
{ "type": "Feature", "properties": { "KODE": 1201508, "KATEGORI": "Sungai\/ Rawa", "KETERANGAN": "Potensi Banjir", "X": "6.39300500000e+05", "Y": "9.22148150000e+06" }, "geometry": { "type": "Point", "coordinates": [ 112.261209109759491, -7.04144554721361 ] } },
{ "type": "Feature", "properties": { "KODE": 1201509, "KATEGORI": "Sungai\/ Rawa", "KETERANGAN": "Potensi Banjir", "X": "6.39300500000e+05", "Y": "9.22146900000e+06" }, "geometry": { "type": "Point", "coordinates": [ 112.261209415151569, -7.041558593996832 ] } },
{ "type": "Feature", "properties": { "KODE": 1201510, "KATEGORI": "Sungai\/ Rawa", "KETERANGAN": "Potensi Banjir", "X": "6.39300500000e+05", "Y": "9.22145650000e+06" }, "geometry": { "type": "Point", "coordinates": [ 112.261209720548663, -7.041671640779496 ] } },
{ "type": "Feature", "properties": { "KODE": 1201511, "KATEGORI": "Sungai\/ Rawa", "KETERANGAN": "Potensi Banjir", "X": "6.39300500000e+05", "Y": "9.22144400000e+06" }, "geometry": { "type": "Point", "coordinates": [ 112.261210025950788, -7.041784687561604 ] } },
{ "type": "Feature", "properties": { "KODE": 1201512, "KATEGORI": "Sungai\/ Rawa", "KETERANGAN": "Potensi Banjir", "X": "6.39300500000e+05", "Y": "9.22143150000e+06" }, "geometry": { "type": "Point", "coordinates": [ 112.261210331357944, -7.041897734343153 ] } },
{ "type": "Feature", "properties": { "KODE": 1201513, "KATEGORI": "Sungai\/ Rawa", "KETERANGAN": "Potensi Banjir", "X": "6.39300500000e+05", "Y": "9.22141900000e+06" }, "geometry": { "type": "Point", "coordinates": [ 112.261210636770116, -7.042010781124141 ] } },
{ "type": "Feature", "properties": { "KODE": 1201514, "KATEGORI": "Sungai\/ Rawa", "KETERANGAN": "Potensi Banjir", "X": "6.39300500000e+05", "Y": "9.22140650000e+06" }, "geometry": { "type": "Point", "coordinates": [ 112.261210942187333, -7.042123827904574 ] } },
{ "type": "Feature", "properties": { "KODE": 1201515, "KATEGORI": "Sungai\/ Rawa", "KETERANGAN": "Potensi Banjir", "X": "6.39300500000e+05", "Y": "9.22139400000e+06" }, "geometry": { "type": "Point", "coordinates": [ 112.261211247609552, -7.042236874684448 ] } },
{ "type": "Feature", "properties": { "KODE": 1201516, "KATEGORI": "Sungai\/ Rawa", "KETERANGAN": "Potensi Banjir", "X": "6.39300500000e+05", "Y": "9.22138150000e+06" }, "geometry": { "type": "Point", "coordinates": [ 112.261211553036816, -7.042349921463762 ] } },
{ "type": "Feature", "properties": { "KODE": 1201517, "KATEGORI": "Sungai\/ Rawa", "KETERANGAN": "Potensi Banjir", "X": "6.39300500000e+05", "Y": "9.22136900000e+06" }, "geometry": { "type": "Point", "coordinates": [ 112.261211858469096, -7.042462968242519 ] } },
{ "type": "Feature", "properties": { "KODE": 1201518, "KATEGORI": "Sungai\/ Rawa", "KETERANGAN": "Potensi Banjir", "X": "6.39300500000e+05", "Y": "9.22135650000e+06" }, "geometry": { "type": "Point", "coordinates": [ 112.261212163906393, -7.042576015020718 ] } },
{ "type": "Feature", "properties": { "KODE": 1201519, "KATEGORI": "Sungai\/ Rawa", "KETERANGAN": "Potensi Banjir", "X": "6.39300500000e+05", "Y": "9.22134400000e+06" }, "geometry": { "type": "Point", "coordinates": [ 112.261212469348735, -7.042689061798359 ] } },
{ "type": "Feature", "properties": { "KODE": 1201520, "KATEGORI": "Sungai\/ Rawa", "KETERANGAN": "Potensi Banjir", "X": "6.39300500000e+05", "Y": "9.22133150000e+06" }, "geometry": { "type": "Point", "coordinates": [ 112.261212774796093, -7.042802108575442 ] } },
{ "type": "Feature", "properties": { "KODE": 1201521, "KATEGORI": "Sungai\/ Rawa", "KETERANGAN": "Potensi Banjir", "X": "6.39300500000e+05", "Y": "9.22131900000e+06" }, "geometry": { "type": "Point", "coordinates": [ 112.261213080248481, -7.042915155351966 ] } },
{ "type": "Feature", "properties": { "KODE": 1201522, "KATEGORI": "Sungai\/ Rawa", "KETERANGAN": "Potensi Banjir", "X": "6.39300500000e+05", "Y": "9.22130650000e+06" }, "geometry": { "type": "Point", "coordinates": [ 112.261213385705886, -7.043028202127932 ] } },
{ "type": "Feature", "properties": { "KODE": 1201523, "KATEGORI": "Sungai\/ Rawa", "KETERANGAN": "Potensi Banjir", "X": "6.39300500000e+05", "Y": "9.22129400000e+06" }, "geometry": { "type": "Point", "coordinates": [ 112.261213691168336, -7.043141248903338 ] } },
{ "type": "Feature", "properties": { "KODE": 1201524, "KATEGORI": "Sungai\/ Rawa", "KETERANGAN": "Potensi Banjir", "X": "6.39300500000e+05", "Y": "9.22128150000e+06" }, "geometry": { "type": "Point", "coordinates": [ 112.261213996635789, -7.043254295678187 ] } },
{ "type": "Feature", "properties": { "KODE": 1201525, "KATEGORI": "Sungai\/ Rawa", "KETERANGAN": "Potensi Banjir", "X": "6.39300500000e+05", "Y": "9.22126900000e+06" }, "geometry": { "type": "Point", "coordinates": [ 112.261214302108286, -7.043367342452478 ] } },
{ "type": "Feature", "properties": { "KODE": 1201526, "KATEGORI": "Sungai\/ Rawa", "KETERANGAN": "Potensi Banjir", "X": "6.39300500000e+05", "Y": "9.22125650000e+06" }, "geometry": { "type": "Point", "coordinates": [ 112.261214607585799, -7.043480389226209 ] } },
{ "type": "Feature", "properties": { "KODE": 1201527, "KATEGORI": "Sungai\/ Rawa", "KETERANGAN": "Potensi Banjir", "X": "6.39300500000e+05", "Y": "9.22124400000e+06" }, "geometry": { "type": "Point", "coordinates": [ 112.261214913068343, -7.043593435999384 ] } },
{ "type": "Feature", "properties": { "KODE": 1201528, "KATEGORI": "Sungai\/ Rawa", "KETERANGAN": "Potensi Banjir", "X": "6.39300500000e+05", "Y": "9.22123150000e+06" }, "geometry": { "type": "Point", "coordinates": [ 112.261215218555918, -7.043706482771999 ] } },
{ "type": "Feature", "properties": { "KODE": 1201529, "KATEGORI": "Sungai\/ Rawa", "KETERANGAN": "Potensi Banjir", "X": "6.39300500000e+05", "Y": "9.22121900000e+06" }, "geometry": { "type": "Point", "coordinates": [ 112.261215524048509, -7.043819529544057 ] } }
]
}
