{
"type": "FeatureCollection",
"name": "D:\\Lamturo_GIS\\Potensi_Terjatuh.geojson",
"crs": { "type": "name", "properties": { "name": "urn:ogc:def:crs:OGC:1.3:CRS84" } },
"features": [
{ "type": "Feature", "properties": { "KODE": 1082270, "KATEGORI": "Lainya", "KETERANGAN": "Potensi Terjatuh", "X": "6.33300500000e+05", "Y": "9.21115659000e+06" }, "geometry": { "type": "Point", "coordinates": [ 112.207137295174022, -7.134966399948555 ] } },
{ "type": "Feature", "properties": { "KODE": 1082424, "KATEGORI": "Lainya", "KETERANGAN": "Potensi Terjatuh", "X": "6.33300500000e+05", "Y": "9.20923159000e+06" }, "geometry": { "type": "Point", "coordinates": [ 112.207182970218369, -7.15237588431347 ] } },
{ "type": "Feature", "properties": { "KODE": 1082425, "KATEGORI": "Lainya", "KETERANGAN": "Potensi Terjatuh", "X": "6.33300500000e+05", "Y": "9.20921900000e+06" }, "geometry": { "type": "Point", "coordinates": [ 112.207183269320907, -7.152489746819032 ] } },
{ "type": "Feature", "properties": { "KODE": 1082426, "KATEGORI": "Lainya", "KETERANGAN": "Potensi Terjatuh", "X": "6.33300500000e+05", "Y": "9.20920659000e+06" }, "geometry": { "type": "Point", "coordinates": [ 112.207183564151933, -7.152601981424829 ] } },
{ "type": "Feature", "properties": { "KODE": 1082427, "KATEGORI": "Lainya", "KETERANGAN": "Potensi Terjatuh", "X": "6.33300500000e+05", "Y": "9.20919400000e+06" }, "geometry": { "type": "Point", "coordinates": [ 112.207183863264149, -7.152715843929251 ] } },
{ "type": "Feature", "properties": { "KODE": 1082428, "KATEGORI": "Lainya", "KETERANGAN": "Potensi Terjatuh", "X": "6.33300500000e+05", "Y": "9.20918159000e+06" }, "geometry": { "type": "Point", "coordinates": [ 112.207184158104738, -7.152828078533926 ] } },
{ "type": "Feature", "properties": { "KODE": 1082429, "KATEGORI": "Lainya", "KETERANGAN": "Potensi Terjatuh", "X": "6.33300500000e+05", "Y": "9.20916900000e+06" }, "geometry": { "type": "Point", "coordinates": [ 112.207184457226674, -7.152941941037207 ] } },
{ "type": "Feature", "properties": { "KODE": 1082430, "KATEGORI": "Lainya", "KETERANGAN": "Potensi Terjatuh", "X": "6.33300500000e+05", "Y": "9.20915659000e+06" }, "geometry": { "type": "Point", "coordinates": [ 112.207184752076813, -7.153054175640759 ] } },
{ "type": "Feature", "properties": { "KODE": 1082431, "KATEGORI": "Lainya", "KETERANGAN": "Potensi Terjatuh", "X": "6.33300500000e+05", "Y": "9.20914400000e+06" }, "geometry": { "type": "Point", "coordinates": [ 112.207185051208441, -7.153168038142902 ] } },
{ "type": "Feature", "properties": { "KODE": 1082432, "KATEGORI": "Lainya", "KETERANGAN": "Potensi Terjatuh", "X": "6.33300500000e+05", "Y": "9.20913159000e+06" }, "geometry": { "type": "Point", "coordinates": [ 112.207185346068144, -7.15328027274533 ] } },
{ "type": "Feature", "properties": { "KODE": 1082433, "KATEGORI": "Lainya", "KETERANGAN": "Potensi Terjatuh", "X": "6.33300500000e+05", "Y": "9.20911900000e+06" }, "geometry": { "type": "Point", "coordinates": [ 112.207185645209464, -7.153394135246334 ] } },
{ "type": "Feature", "properties": { "KODE": 1082434, "KATEGORI": "Lainya", "KETERANGAN": "Potensi Terjatuh", "X": "6.33300500000e+05", "Y": "9.20910659000e+06" }, "geometry": { "type": "Point", "coordinates": [ 112.20718594007873, -7.153506369847637 ] } },
{ "type": "Feature", "properties": { "KODE": 1082435, "KATEGORI": "Lainya", "KETERANGAN": "Potensi Terjatuh", "X": "6.33300500000e+05", "Y": "9.20909400000e+06" }, "geometry": { "type": "Point", "coordinates": [ 112.207186239229756, -7.1536202323475 ] } },
{ "type": "Feature", "properties": { "KODE": 1082436, "KATEGORI": "Lainya", "KETERANGAN": "Potensi Terjatuh", "X": "6.33300500000e+05", "Y": "9.20908159000e+06" }, "geometry": { "type": "Point", "coordinates": [ 112.207186534108587, -7.153732466947679 ] } },
{ "type": "Feature", "properties": { "KODE": 1082437, "KATEGORI": "Lainya", "KETERANGAN": "Potensi Terjatuh", "X": "6.33300500000e+05", "Y": "9.20906900000e+06" }, "geometry": { "type": "Point", "coordinates": [ 112.207186833269319, -7.153846329446405 ] } },
{ "type": "Feature", "properties": { "KODE": 1082438, "KATEGORI": "Lainya", "KETERANGAN": "Potensi Terjatuh", "X": "6.33300500000e+05", "Y": "9.20905659000e+06" }, "geometry": { "type": "Point", "coordinates": [ 112.207187128157699, -7.15395856404546 ] } },
{ "type": "Feature", "properties": { "KODE": 1082439, "KATEGORI": "Lainya", "KETERANGAN": "Potensi Terjatuh", "X": "6.33300500000e+05", "Y": "9.20904400000e+06" }, "geometry": { "type": "Point", "coordinates": [ 112.207187427328137, -7.154072426543045 ] } },
{ "type": "Feature", "properties": { "KODE": 1082440, "KATEGORI": "Lainya", "KETERANGAN": "Potensi Terjatuh", "X": "6.33300500000e+05", "Y": "9.20903159000e+06" }, "geometry": { "type": "Point", "coordinates": [ 112.207187722226081, -7.154184661140978 ] } },
{ "type": "Feature", "properties": { "KODE": 1082441, "KATEGORI": "Lainya", "KETERANGAN": "Potensi Terjatuh", "X": "6.33300500000e+05", "Y": "9.20901900000e+06" }, "geometry": { "type": "Point", "coordinates": [ 112.207188021406211, -7.154298523637422 ] } },
{ "type": "Feature", "properties": { "KODE": 1082442, "KATEGORI": "Lainya", "KETERANGAN": "Potensi Terjatuh", "X": "6.33300500000e+05", "Y": "9.20900659000e+06" }, "geometry": { "type": "Point", "coordinates": [ 112.207188316313719, -7.154410758234231 ] } },
{ "type": "Feature", "properties": { "KODE": 1082443, "KATEGORI": "Lainya", "KETERANGAN": "Potensi Terjatuh", "X": "6.33300500000e+05", "Y": "9.20899400000e+06" }, "geometry": { "type": "Point", "coordinates": [ 112.207188615503554, -7.154524620729537 ] } },
{ "type": "Feature", "properties": { "KODE": 1082444, "KATEGORI": "Lainya", "KETERANGAN": "Potensi Terjatuh", "X": "6.33300500000e+05", "Y": "9.20898159000e+06" }, "geometry": { "type": "Point", "coordinates": [ 112.207188910420626, -7.154636855325222 ] } },
{ "type": "Feature", "properties": { "KODE": 1082445, "KATEGORI": "Lainya", "KETERANGAN": "Potensi Terjatuh", "X": "6.33300500000e+05", "Y": "9.20896900000e+06" }, "geometry": { "type": "Point", "coordinates": [ 112.207189209620154, -7.154750717819386 ] } },
{ "type": "Feature", "properties": { "KODE": 1082446, "KATEGORI": "Lainya", "KETERANGAN": "Potensi Terjatuh", "X": "6.33300500000e+05", "Y": "9.20895659000e+06" }, "geometry": { "type": "Point", "coordinates": [ 112.20718950454679, -7.154862952413949 ] } },
{ "type": "Feature", "properties": { "KODE": 1082447, "KATEGORI": "Lainya", "KETERANGAN": "Potensi Terjatuh", "X": "6.33300500000e+05", "Y": "9.20894400000e+06" }, "geometry": { "type": "Point", "coordinates": [ 112.207189803756023, -7.154976814906973 ] } },
{ "type": "Feature", "properties": { "KODE": 1082448, "KATEGORI": "Lainya", "KETERANGAN": "Potensi Terjatuh", "X": "6.33300500000e+05", "Y": "9.20893159000e+06" }, "geometry": { "type": "Point", "coordinates": [ 112.207190098692209, -7.155089049500411 ] } },
{ "type": "Feature", "properties": { "KODE": 1082449, "KATEGORI": "Lainya", "KETERANGAN": "Potensi Terjatuh", "X": "6.33300500000e+05", "Y": "9.20891900000e+06" }, "geometry": { "type": "Point", "coordinates": [ 112.207190397911148, -7.155202911992295 ] } },
{ "type": "Feature", "properties": { "KODE": 1082450, "KATEGORI": "Lainya", "KETERANGAN": "Potensi Terjatuh", "X": "6.33300500000e+05", "Y": "9.20890659000e+06" }, "geometry": { "type": "Point", "coordinates": [ 112.207190692856898, -7.155315146584611 ] } },
{ "type": "Feature", "properties": { "KODE": 1082451, "KATEGORI": "Lainya", "KETERANGAN": "Potensi Terjatuh", "X": "6.33300500000e+05", "Y": "9.20889400000e+06" }, "geometry": { "type": "Point", "coordinates": [ 112.207190992085529, -7.155429009075355 ] } },
{ "type": "Feature", "properties": { "KODE": 1082452, "KATEGORI": "Lainya", "KETERANGAN": "Potensi Terjatuh", "X": "6.33300500000e+05", "Y": "9.20888159000e+06" }, "geometry": { "type": "Point", "coordinates": [ 112.207191287040857, -7.155541243666545 ] } },
{ "type": "Feature", "properties": { "KODE": 1082453, "KATEGORI": "Lainya", "KETERANGAN": "Potensi Terjatuh", "X": "6.33300500000e+05", "Y": "9.20886900000e+06" }, "geometry": { "type": "Point", "coordinates": [ 112.207191586279194, -7.155655106156149 ] } },
{ "type": "Feature", "properties": { "KODE": 1082454, "KATEGORI": "Lainya", "KETERANGAN": "Potensi Terjatuh", "X": "6.33300500000e+05", "Y": "9.20885659000e+06" }, "geometry": { "type": "Point", "coordinates": [ 112.207191881244071, -7.155767340746217 ] } },
{ "type": "Feature", "properties": { "KODE": 1082455, "KATEGORI": "Lainya", "KETERANGAN": "Potensi Terjatuh", "X": "6.33300500000e+05", "Y": "9.20884400000e+06" }, "geometry": { "type": "Point", "coordinates": [ 112.207192180492115, -7.155881203234681 ] } },
{ "type": "Feature", "properties": { "KODE": 1082456, "KATEGORI": "Lainya", "KETERANGAN": "Potensi Terjatuh", "X": "6.33300500000e+05", "Y": "9.20883159000e+06" }, "geometry": { "type": "Point", "coordinates": [ 112.207192475466542, -7.155993437823624 ] } },
{ "type": "Feature", "properties": { "KODE": 1082457, "KATEGORI": "Lainya", "KETERANGAN": "Potensi Terjatuh", "X": "6.33300500000e+05", "Y": "9.20881900000e+06" }, "geometry": { "type": "Point", "coordinates": [ 112.207192774724277, -7.156107300310948 ] } },
{ "type": "Feature", "properties": { "KODE": 1082458, "KATEGORI": "Lainya", "KETERANGAN": "Potensi Terjatuh", "X": "6.33300500000e+05", "Y": "9.20880659000e+06" }, "geometry": { "type": "Point", "coordinates": [ 112.207193069708282, -7.156219534898768 ] } },
{ "type": "Feature", "properties": { "KODE": 1082459, "KATEGORI": "Lainya", "KETERANGAN": "Potensi Terjatuh", "X": "6.33300500000e+05", "Y": "9.20879400000e+06" }, "geometry": { "type": "Point", "coordinates": [ 112.207193368975709, -7.156333397384951 ] } },
{ "type": "Feature", "properties": { "KODE": 1082460, "KATEGORI": "Lainya", "KETERANGAN": "Potensi Terjatuh", "X": "6.33300500000e+05", "Y": "9.20878150000e+06" }, "geometry": { "type": "Point", "coordinates": [ 112.207193666108651, -7.156446445921104 ] } },
{ "type": "Feature", "properties": { "KODE": 1101464, "KATEGORI": "Sungai \/ Rawa", "KETERANGAN": "Potensi Terjatuh", "X": "6.34300500000e+05", "Y": "9.22153150000e+06" }, "geometry": { "type": "Point", "coordinates": [ 112.215945636419633, -7.041113203058782 ] } },
{ "type": "Feature", "properties": { "KODE": 1101465, "KATEGORI": "Sungai \/ Rawa", "KETERANGAN": "Potensi Terjatuh", "X": "6.34300500000e+05", "Y": "9.22151900000e+06" }, "geometry": { "type": "Point", "coordinates": [ 112.215945930839112, -7.04122625178712 ] } },
{ "type": "Feature", "properties": { "KODE": 1102746, "KATEGORI": "Lainya", "KETERANGAN": "Potensi Terjatuh", "X": "6.34300500000e+05", "Y": "9.20550650000e+06" }, "geometry": { "type": "Point", "coordinates": [ 112.216327063175527, -7.186041212111993 ] } }
]
}
