{
"type": "FeatureCollection",
"name": "D:\\Lamturo_GIS\\Potensi_Kebakaran.geojson",
"crs": { "type": "name", "properties": { "name": "urn:ogc:def:crs:OGC:1.3:CRS84" } },
"features": [
{ "type": "Feature", "properties": { "KODE": 1242089, "KATEGORI": "Lainya", "KETERANGAN": "Potensi Kebakaran", "X": "6.41300500000e+05", "Y": "9.21531900000e+06" }, "geometry": { "type": "Point", "coordinates": [ 112.279467141008638, -7.097127984633285 ] } },
{ "type": "Feature", "properties": { "KODE": 1242090, "KATEGORI": "Lainya", "KETERANGAN": "Potensi Kebakaran", "X": "6.41300500000e+05", "Y": "9.21530659000e+06" }, "geometry": { "type": "Point", "coordinates": [ 112.279467451047367, -7.097240216413926 ] } },
{ "type": "Feature", "properties": { "KODE": 1242091, "KATEGORI": "Lainya", "KETERANGAN": "Potensi Kebakaran", "X": "6.41300500000e+05", "Y": "9.21529400000e+06" }, "geometry": { "type": "Point", "coordinates": [ 112.279467765588166, -7.097354076052219 ] } },
{ "type": "Feature", "properties": { "KODE": 1242092, "KATEGORI": "Lainya", "KETERANGAN": "Potensi Kebakaran", "X": "6.41300500000e+05", "Y": "9.21528159000e+06" }, "geometry": { "type": "Point", "coordinates": [ 112.279468075637013, -7.097466307831744 ] } },
{ "type": "Feature", "properties": { "KODE": 1242093, "KATEGORI": "Lainya", "KETERANGAN": "Potensi Kebakaran", "X": "6.41300500000e+05", "Y": "9.21526900000e+06" }, "geometry": { "type": "Point", "coordinates": [ 112.2794683901881, -7.097580167468903 ] } },
{ "type": "Feature", "properties": { "KODE": 1242094, "KATEGORI": "Lainya", "KETERANGAN": "Potensi Kebakaran", "X": "6.41300500000e+05", "Y": "9.21525659000e+06" }, "geometry": { "type": "Point", "coordinates": [ 112.279468700247079, -7.09769239924731 ] } },
{ "type": "Feature", "properties": { "KODE": 1242095, "KATEGORI": "Lainya", "KETERANGAN": "Potensi Kebakaran", "X": "6.41300500000e+05", "Y": "9.21524400000e+06" }, "geometry": { "type": "Point", "coordinates": [ 112.279469014808427, -7.097806258883335 ] } },
{ "type": "Feature", "properties": { "KODE": 1242096, "KATEGORI": "Lainya", "KETERANGAN": "Potensi Kebakaran", "X": "6.41300500000e+05", "Y": "9.21523159000e+06" }, "geometry": { "type": "Point", "coordinates": [ 112.279469324877539, -7.097918490660623 ] } },
{ "type": "Feature", "properties": { "KODE": 1242097, "KATEGORI": "Lainya", "KETERANGAN": "Potensi Kebakaran", "X": "6.41300500000e+05", "Y": "9.21521900000e+06" }, "geometry": { "type": "Point", "coordinates": [ 112.279469639449161, -7.098032350295513 ] } },
{ "type": "Feature", "properties": { "KODE": 1242098, "KATEGORI": "Lainya", "KETERANGAN": "Potensi Kebakaran", "X": "6.41300500000e+05", "Y": "9.21520659000e+06" }, "geometry": { "type": "Point", "coordinates": [ 112.279469949528419, -7.098144582071687 ] } },
{ "type": "Feature", "properties": { "KODE": 1242099, "KATEGORI": "Lainya", "KETERANGAN": "Potensi Kebakaran", "X": "6.41300500000e+05", "Y": "9.21519400000e+06" }, "geometry": { "type": "Point", "coordinates": [ 112.279470264110316, -7.098258441705442 ] } },
{ "type": "Feature", "properties": { "KODE": 1242100, "KATEGORI": "Lainya", "KETERANGAN": "Potensi Kebakaran", "X": "6.41300500000e+05", "Y": "9.21518159000e+06" }, "geometry": { "type": "Point", "coordinates": [ 112.279470574199692, -7.098370673480495 ] } },
{ "type": "Feature", "properties": { "KODE": 1242101, "KATEGORI": "Lainya", "KETERANGAN": "Potensi Kebakaran", "X": "6.41300500000e+05", "Y": "9.21516900000e+06" }, "geometry": { "type": "Point", "coordinates": [ 112.279470888791863, -7.098484533113118 ] } },
{ "type": "Feature", "properties": { "KODE": 1242102, "KATEGORI": "Lainya", "KETERANGAN": "Potensi Kebakaran", "X": "6.41300500000e+05", "Y": "9.21515659000e+06" }, "geometry": { "type": "Point", "coordinates": [ 112.279471198891358, -7.098596764887055 ] } },
{ "type": "Feature", "properties": { "KODE": 1242103, "KATEGORI": "Lainya", "KETERANGAN": "Potensi Kebakaran", "X": "6.41300500000e+05", "Y": "9.21514400000e+06" }, "geometry": { "type": "Point", "coordinates": [ 112.279471513493817, -7.098710624518542 ] } },
{ "type": "Feature", "properties": { "KODE": 1242104, "KATEGORI": "Lainya", "KETERANGAN": "Potensi Kebakaran", "X": "6.41300500000e+05", "Y": "9.21513159000e+06" }, "geometry": { "type": "Point", "coordinates": [ 112.279471823603444, -7.09882285629136 ] } },
{ "type": "Feature", "properties": { "KODE": 1242105, "KATEGORI": "Lainya", "KETERANGAN": "Potensi Kebakaran", "X": "6.41300500000e+05", "Y": "9.21511900000e+06" }, "geometry": { "type": "Point", "coordinates": [ 112.279472138216178, -7.098936715921714 ] } },
{ "type": "Feature", "properties": { "KODE": 1242106, "KATEGORI": "Lainya", "KETERANGAN": "Potensi Kebakaran", "X": "6.41300500000e+05", "Y": "9.21510659000e+06" }, "geometry": { "type": "Point", "coordinates": [ 112.279472448335937, -7.099048947693412 ] } },
{ "type": "Feature", "properties": { "KODE": 1242107, "KATEGORI": "Lainya", "KETERANGAN": "Potensi Kebakaran", "X": "6.41300500000e+05", "Y": "9.21509400000e+06" }, "geometry": { "type": "Point", "coordinates": [ 112.279472762958946, -7.099162807322632 ] } },
{ "type": "Feature", "properties": { "KODE": 1242108, "KATEGORI": "Lainya", "KETERANGAN": "Potensi Kebakaran", "X": "6.41300500000e+05", "Y": "9.21508159000e+06" }, "geometry": { "type": "Point", "coordinates": [ 112.279473073088823, -7.099275039093215 ] } },
{ "type": "Feature", "properties": { "KODE": 1242109, "KATEGORI": "Lainya", "KETERANGAN": "Potensi Kebakaran", "X": "6.41300500000e+05", "Y": "9.21506900000e+06" }, "geometry": { "type": "Point", "coordinates": [ 112.279473387722106, -7.0993888987213 ] } },
{ "type": "Feature", "properties": { "KODE": 1242110, "KATEGORI": "Lainya", "KETERANGAN": "Potensi Kebakaran", "X": "6.41300500000e+05", "Y": "9.21505659000e+06" }, "geometry": { "type": "Point", "coordinates": [ 112.27947369786213, -7.099501130490763 ] } },
{ "type": "Feature", "properties": { "KODE": 1242111, "KATEGORI": "Lainya", "KETERANGAN": "Potensi Kebakaran", "X": "6.41300500000e+05", "Y": "9.21504400000e+06" }, "geometry": { "type": "Point", "coordinates": [ 112.279474012505673, -7.099614990117714 ] } },
{ "type": "Feature", "properties": { "KODE": 1242112, "KATEGORI": "Lainya", "KETERANGAN": "Potensi Kebakaran", "X": "6.41300500000e+05", "Y": "9.21503159000e+06" }, "geometry": { "type": "Point", "coordinates": [ 112.27947432265583, -7.09972722188606 ] } },
{ "type": "Feature", "properties": { "KODE": 1242113, "KATEGORI": "Lainya", "KETERANGAN": "Potensi Kebakaran", "X": "6.41300500000e+05", "Y": "9.21501900000e+06" }, "geometry": { "type": "Point", "coordinates": [ 112.279474637309661, -7.099841081511877 ] } },
{ "type": "Feature", "properties": { "KODE": 1242114, "KATEGORI": "Lainya", "KETERANGAN": "Potensi Kebakaran", "X": "6.41300500000e+05", "Y": "9.21500659000e+06" }, "geometry": { "type": "Point", "coordinates": [ 112.279474947469936, -7.099953313279104 ] } },
{ "type": "Feature", "properties": { "KODE": 1242115, "KATEGORI": "Lainya", "KETERANGAN": "Potensi Kebakaran", "X": "6.41300500000e+05", "Y": "9.21499400000e+06" }, "geometry": { "type": "Point", "coordinates": [ 112.279475262134042, -7.100067172903787 ] } },
{ "type": "Feature", "properties": { "KODE": 1242116, "KATEGORI": "Lainya", "KETERANGAN": "Potensi Kebakaran", "X": "6.41300500000e+05", "Y": "9.21498159000e+06" }, "geometry": { "type": "Point", "coordinates": [ 112.279475572304449, -7.100179404669896 ] } },
{ "type": "Feature", "properties": { "KODE": 1242117, "KATEGORI": "Lainya", "KETERANGAN": "Potensi Kebakaran", "X": "6.41300500000e+05", "Y": "9.21496900000e+06" }, "geometry": { "type": "Point", "coordinates": [ 112.27947588697883, -7.100293264293445 ] } }
]
}
