{
"type": "FeatureCollection",
"name": "D:\\Lamturo_GIS\\Sarang_Tawon.geojson",
"crs": { "type": "name", "properties": { "name": "urn:ogc:def:crs:OGC:1.3:CRS84" } },
"features": [
{ "type": "Feature", "properties": { "KODE": 1082537, "KATEGORI": "Binatang berbahaya", "KETERANGAN": "Sarang Tawon", "X": "6.33300500000e+05", "Y": "9.20781900000e+06" }, "geometry": { "type": "Point", "coordinates": [ 112.207216559806866, -7.165151181504344 ] } },
{ "type": "Feature", "properties": { "KODE": 1082538, "KATEGORI": "Binatang berbahaya", "KETERANGAN": "Sarang Tawon", "X": "6.33300500000e+05", "Y": "9.20780650000e+06" }, "geometry": { "type": "Point", "coordinates": [ 112.207216857315444, -7.165264229996319 ] } },
{ "type": "Feature", "properties": { "KODE": 1082539, "KATEGORI": "Binatang berbahaya", "KETERANGAN": "Sarang Tawon", "X": "6.33300500000e+05", "Y": "9.20779400000e+06" }, "geometry": { "type": "Point", "coordinates": [ 112.20721715482884, -7.165377278487727 ] } },
{ "type": "Feature", "properties": { "KODE": 1082540, "KATEGORI": "Binatang berbahaya", "KETERANGAN": "Sarang Tawon", "X": "6.33300500000e+05", "Y": "9.20778150000e+06" }, "geometry": { "type": "Point", "coordinates": [ 112.207217452347038, -7.165490326978567 ] } },
{ "type": "Feature", "properties": { "KODE": 1151786, "KATEGORI": "Lainnya", "KETERANGAN": "Sarang Tawon", "X": "6.34394300000e+05", "Y": "9.21580039000e+06" }, "geometry": { "type": "Point", "coordinates": [ 112.21693035438679, -7.092942495885789 ] } },
{ "type": "Feature", "properties": { "KODE": 1151786, "KATEGORI": "Lainnya", "KETERANGAN": "Sarang Tawon", "X": "6.34394300000e+05", "Y": "9.21580039000e+06" }, "geometry": { "type": "Point", "coordinates": [ 112.21693035438679, -7.092942495885789 ] } },
{ "type": "Feature", "properties": { "KODE": 1151787, "KATEGORI": "Lainnya", "KETERANGAN": "Sarang Tawon", "X": "6.34406800000e+05", "Y": "9.21580030000e+06" }, "geometry": { "type": "Point", "coordinates": [ 112.217043525697989, -7.092943013291006 ] } },
{ "type": "Feature", "properties": { "KODE": 1151787, "KATEGORI": "Lainnya", "KETERANGAN": "Sarang Tawon", "X": "6.34406800000e+05", "Y": "9.21580030000e+06" }, "geometry": { "type": "Point", "coordinates": [ 112.217043525697989, -7.092943013291006 ] } },
{ "type": "Feature", "properties": { "KODE": 1151788, "KATEGORI": "Lainnya", "KETERANGAN": "Sarang Tawon", "X": "6.34419300000e+05", "Y": "9.21580039000e+06" }, "geometry": { "type": "Point", "coordinates": [ 112.217156692729333, -7.092941902771253 ] } },
{ "type": "Feature", "properties": { "KODE": 1151788, "KATEGORI": "Lainnya", "KETERANGAN": "Sarang Tawon", "X": "6.34419300000e+05", "Y": "9.21580039000e+06" }, "geometry": { "type": "Point", "coordinates": [ 112.217156692729333, -7.092941902771253 ] } }
]
}
