{
"type": "FeatureCollection",
"name": "D:\\Lamturo_GIS\\Sungai.geojson",
"crs": { "type": "name", "properties": { "name": "urn:ogc:def:crs:OGC:1.3:CRS84" } },
"features": [
{ "type": "Feature", "properties": { "KODE": 1041085, "KATEGORI": "Potensi banjir", "KETERANGAN": "Sungai", "X": "6.31300500000e+05", "Y": "9.22596900000e+06" }, "geometry": { "type": "Point", "coordinates": [ 112.188686024776786, -7.00105027249474 ] } },
{ "type": "Feature", "properties": { "KODE": 1041086, "KATEGORI": "Potensi banjir", "KETERANGAN": "Sungai", "X": "6.31300500000e+05", "Y": "9.22595650000e+06" }, "geometry": { "type": "Point", "coordinates": [ 112.188686310942828, -7.001163322551842 ] } },
{ "type": "Feature", "properties": { "KODE": 1041087, "KATEGORI": "Potensi banjir", "KETERANGAN": "Sungai", "X": "6.31300500000e+05", "Y": "9.22594400000e+06" }, "geometry": { "type": "Point", "coordinates": [ 112.188686597113616, -7.001276372608392 ] } },
{ "type": "Feature", "properties": { "KODE": 1041139, "KATEGORI": "Potensi banjir", "KETERANGAN": "Sungai", "X": "6.31300500000e+05", "Y": "9.22529400000e+06" }, "geometry": { "type": "Point", "coordinates": [ 112.188701484520209, -7.007154974785782 ] } },
{ "type": "Feature", "properties": { "KODE": 1041140, "KATEGORI": "Potensi banjir", "KETERANGAN": "Sungai", "X": "6.31300500000e+05", "Y": "9.22528150000e+06" }, "geometry": { "type": "Point", "coordinates": [ 112.188701770941989, -7.007268024812976 ] } },
{ "type": "Feature", "properties": { "KODE": 1041141, "KATEGORI": "Potensi banjir", "KETERANGAN": "Sungai", "X": "6.31300500000e+05", "Y": "9.22526900000e+06" }, "geometry": { "type": "Point", "coordinates": [ 112.188702057368502, -7.007381074839616 ] } },
{ "type": "Feature", "properties": { "KODE": 1041155, "KATEGORI": "Potensi banjir", "KETERANGAN": "Sungai", "X": "6.31300500000e+05", "Y": "9.22509400000e+06" }, "geometry": { "type": "Point", "coordinates": [ 112.188706067837003, -7.008963775154367 ] } },
{ "type": "Feature", "properties": { "KODE": 1041156, "KATEGORI": "Potensi banjir", "KETERANGAN": "Sungai", "X": "6.31300500000e+05", "Y": "9.22508150000e+06" }, "geometry": { "type": "Point", "coordinates": [ 112.188706354334542, -7.009076825172694 ] } },
{ "type": "Feature", "properties": { "KODE": 1041157, "KATEGORI": "Potensi banjir", "KETERANGAN": "Sungai", "X": "6.31300500000e+05", "Y": "9.22506900000e+06" }, "geometry": { "type": "Point", "coordinates": [ 112.188706640836841, -7.009189875190465 ] } },
{ "type": "Feature", "properties": { "KODE": 1041158, "KATEGORI": "Potensi banjir", "KETERANGAN": "Sungai", "X": "6.31300500000e+05", "Y": "9.22505650000e+06" }, "geometry": { "type": "Point", "coordinates": [ 112.188706927343858, -7.009302925207682 ] } },
{ "type": "Feature", "properties": { "KODE": 1041243, "KATEGORI": "Potensi banjir", "KETERANGAN": "Sungai", "X": "6.31300500000e+05", "Y": "9.22399400000e+06" }, "geometry": { "type": "Point", "coordinates": [ 112.188731297751772, -7.018912174644345 ] } },
{ "type": "Feature", "properties": { "KODE": 1041244, "KATEGORI": "Potensi banjir", "KETERANGAN": "Sungai", "X": "6.31300500000e+05", "Y": "9.22398150000e+06" }, "geometry": { "type": "Point", "coordinates": [ 112.188731584666115, -7.019025224613861 ] } },
{ "type": "Feature", "properties": { "KODE": 1041245, "KATEGORI": "Potensi banjir", "KETERANGAN": "Sungai", "X": "6.31300500000e+05", "Y": "9.22396900000e+06" }, "geometry": { "type": "Point", "coordinates": [ 112.18873187158519, -7.019138274582823 ] } },
{ "type": "Feature", "properties": { "KODE": 1041450, "KATEGORI": "Sungai\/ Rawa", "KETERANGAN": "Sungai", "X": "6.31300500000e+05", "Y": "9.22140650000e+06" }, "geometry": { "type": "Point", "coordinates": [ 112.188790790015616, -7.042313506487627 ] } },
{ "type": "Feature", "properties": { "KODE": 1041451, "KATEGORI": "Sungai\/ Rawa", "KETERANGAN": "Sungai", "X": "6.31300500000e+05", "Y": "9.22139400000e+06" }, "geometry": { "type": "Point", "coordinates": [ 112.188791077910537, -7.042426556342064 ] } },
{ "type": "Feature", "properties": { "KODE": 1041452, "KATEGORI": "Sungai\/ Rawa", "KETERANGAN": "Sungai", "X": "6.31300500000e+05", "Y": "9.22138150000e+06" }, "geometry": { "type": "Point", "coordinates": [ 112.188791365810175, -7.042539606195944 ] } },
{ "type": "Feature", "properties": { "KODE": 1041453, "KATEGORI": "Sungai\/ Rawa", "KETERANGAN": "Sungai", "X": "6.31300500000e+05", "Y": "9.22136900000e+06" }, "geometry": { "type": "Point", "coordinates": [ 112.188791653714574, -7.042652656049267 ] } },
{ "type": "Feature", "properties": { "KODE": 1041454, "KATEGORI": "Sungai\/ Rawa", "KETERANGAN": "Sungai", "X": "6.31300500000e+05", "Y": "9.22135650000e+06" }, "geometry": { "type": "Point", "coordinates": [ 112.188791941623705, -7.042765705902035 ] } },
{ "type": "Feature", "properties": { "KODE": 1041455, "KATEGORI": "Sungai\/ Rawa", "KETERANGAN": "Sungai", "X": "6.31300500000e+05", "Y": "9.22134400000e+06" }, "geometry": { "type": "Point", "coordinates": [ 112.188792229537569, -7.042878755754244 ] } },
{ "type": "Feature", "properties": { "KODE": 1041456, "KATEGORI": "Sungai\/ Rawa", "KETERANGAN": "Sungai", "X": "6.31300500000e+05", "Y": "9.22133150000e+06" }, "geometry": { "type": "Point", "coordinates": [ 112.188792517456164, -7.042991805605897 ] } },
{ "type": "Feature", "properties": { "KODE": 1041457, "KATEGORI": "Sungai\/ Rawa", "KETERANGAN": "Sungai", "X": "6.31300500000e+05", "Y": "9.22131900000e+06" }, "geometry": { "type": "Point", "coordinates": [ 112.188792805379506, -7.043104855456994 ] } },
{ "type": "Feature", "properties": { "KODE": 1041822, "KATEGORI": "Sungai \/ Rawa", "KETERANGAN": "Sungai", "X": "6.31300500000e+05", "Y": "9.21675659000e+06" }, "geometry": { "type": "Point", "coordinates": [ 112.188898211813111, -7.084367199880187 ] } },
{ "type": "Feature", "properties": { "KODE": 1041822, "KATEGORI": "Sungai\/ Rawa", "KETERANGAN": "Sungai", "X": "6.31300500000e+05", "Y": "9.21675659000e+06" }, "geometry": { "type": "Point", "coordinates": [ 112.188898211813111, -7.084367199880187 ] } },
{ "type": "Feature", "properties": { "KODE": 1041823, "KATEGORI": "Sungai \/ Rawa", "KETERANGAN": "Sungai", "X": "6.31300500000e+05", "Y": "9.21674400000e+06" }, "geometry": { "type": "Point", "coordinates": [ 112.188898503556345, -7.084481063484327 ] } },
{ "type": "Feature", "properties": { "KODE": 1041823, "KATEGORI": "Sungai\/ Rawa", "KETERANGAN": "Sungai", "X": "6.31300500000e+05", "Y": "9.21674400000e+06" }, "geometry": { "type": "Point", "coordinates": [ 112.188898503556345, -7.084481063484327 ] } },
{ "type": "Feature", "properties": { "KODE": 1041824, "KATEGORI": "Sungai \/ Rawa", "KETERANGAN": "Sungai", "X": "6.31300500000e+05", "Y": "9.21673159000e+06" }, "geometry": { "type": "Point", "coordinates": [ 112.188898791133198, -7.084593299173002 ] } },
{ "type": "Feature", "properties": { "KODE": 1041824, "KATEGORI": "Sungai\/ Rawa", "KETERANGAN": "Sungai", "X": "6.31300500000e+05", "Y": "9.21673159000e+06" }, "geometry": { "type": "Point", "coordinates": [ 112.188898791133198, -7.084593299173002 ] } },
{ "type": "Feature", "properties": { "KODE": 1041825, "KATEGORI": "Sungai \/ Rawa", "KETERANGAN": "Sungai", "X": "6.31300500000e+05", "Y": "9.21671900000e+06" }, "geometry": { "type": "Point", "coordinates": [ 112.188899082885982, -7.084707162776014 ] } },
{ "type": "Feature", "properties": { "KODE": 1041825, "KATEGORI": "Sungai\/ Rawa", "KETERANGAN": "Sungai", "X": "6.31300500000e+05", "Y": "9.21671900000e+06" }, "geometry": { "type": "Point", "coordinates": [ 112.188899082885982, -7.084707162776014 ] } },
{ "type": "Feature", "properties": { "KODE": 1041826, "KATEGORI": "Sungai \/ Rawa", "KETERANGAN": "Sungai", "X": "6.31300500000e+05", "Y": "9.21670659000e+06" }, "geometry": { "type": "Point", "coordinates": [ 112.188899370472257, -7.084819398463576 ] } },
{ "type": "Feature", "properties": { "KODE": 1041826, "KATEGORI": "Sungai\/ Rawa", "KETERANGAN": "Sungai", "X": "6.31300500000e+05", "Y": "9.21670659000e+06" }, "geometry": { "type": "Point", "coordinates": [ 112.188899370472257, -7.084819398463576 ] } },
{ "type": "Feature", "properties": { "KODE": 1041827, "KATEGORI": "Sungai \/ Rawa", "KETERANGAN": "Sungai", "X": "6.31300500000e+05", "Y": "9.21669400000e+06" }, "geometry": { "type": "Point", "coordinates": [ 112.18889966223459, -7.08493326206546 ] } },
{ "type": "Feature", "properties": { "KODE": 1041827, "KATEGORI": "Sungai\/ Rawa", "KETERANGAN": "Sungai", "X": "6.31300500000e+05", "Y": "9.21669400000e+06" }, "geometry": { "type": "Point", "coordinates": [ 112.18889966223459, -7.08493326206546 ] } },
{ "type": "Feature", "properties": { "KODE": 1041828, "KATEGORI": "Sungai \/ Rawa", "KETERANGAN": "Sungai", "X": "6.31300500000e+05", "Y": "9.21668159000e+06" }, "geometry": { "type": "Point", "coordinates": [ 112.188899949830272, -7.085045497751912 ] } },
{ "type": "Feature", "properties": { "KODE": 1041828, "KATEGORI": "Sungai\/ Rawa", "KETERANGAN": "Sungai", "X": "6.31300500000e+05", "Y": "9.21668159000e+06" }, "geometry": { "type": "Point", "coordinates": [ 112.188899949830272, -7.085045497751912 ] } },
{ "type": "Feature", "properties": { "KODE": 1041829, "KATEGORI": "Sungai \/ Rawa", "KETERANGAN": "Sungai", "X": "6.31300500000e+05", "Y": "9.21666900000e+06" }, "geometry": { "type": "Point", "coordinates": [ 112.188900241602141, -7.085159361352669 ] } },
{ "type": "Feature", "properties": { "KODE": 1041829, "KATEGORI": "Sungai\/ Rawa", "KETERANGAN": "Sungai", "X": "6.31300500000e+05", "Y": "9.21666900000e+06" }, "geometry": { "type": "Point", "coordinates": [ 112.188900241602141, -7.085159361352669 ] } },
{ "type": "Feature", "properties": { "KODE": 1041830, "KATEGORI": "Sungai \/ Rawa", "KETERANGAN": "Sungai", "X": "6.31300500000e+05", "Y": "9.21665659000e+06" }, "geometry": { "type": "Point", "coordinates": [ 112.188900529207245, -7.085271597038005 ] } },
{ "type": "Feature", "properties": { "KODE": 1041830, "KATEGORI": "Sungai\/ Rawa", "KETERANGAN": "Sungai", "X": "6.31300500000e+05", "Y": "9.21665659000e+06" }, "geometry": { "type": "Point", "coordinates": [ 112.188900529207245, -7.085271597038005 ] } },
{ "type": "Feature", "properties": { "KODE": 1041831, "KATEGORI": "Sungai \/ Rawa", "KETERANGAN": "Sungai", "X": "6.31300500000e+05", "Y": "9.21664400000e+06" }, "geometry": { "type": "Point", "coordinates": [ 112.188900820988664, -7.085385460637633 ] } },
{ "type": "Feature", "properties": { "KODE": 1041831, "KATEGORI": "Sungai\/ Rawa", "KETERANGAN": "Sungai", "X": "6.31300500000e+05", "Y": "9.21664400000e+06" }, "geometry": { "type": "Point", "coordinates": [ 112.188900820988664, -7.085385460637633 ] } },
{ "type": "Feature", "properties": { "KODE": 1041832, "KATEGORI": "Sungai \/ Rawa", "KETERANGAN": "Sungai", "X": "6.31300500000e+05", "Y": "9.21663159000e+06" }, "geometry": { "type": "Point", "coordinates": [ 112.188901108603176, -7.08549769632186 ] } },
{ "type": "Feature", "properties": { "KODE": 1041832, "KATEGORI": "Sungai\/ Rawa", "KETERANGAN": "Sungai", "X": "6.31300500000e+05", "Y": "9.21663159000e+06" }, "geometry": { "type": "Point", "coordinates": [ 112.188901108603176, -7.08549769632186 ] } },
{ "type": "Feature", "properties": { "KODE": 1041833, "KATEGORI": "Sungai \/ Rawa", "KETERANGAN": "Sungai", "X": "6.31300500000e+05", "Y": "9.21661900000e+06" }, "geometry": { "type": "Point", "coordinates": [ 112.188901400394144, -7.085611559920358 ] } },
{ "type": "Feature", "properties": { "KODE": 1041833, "KATEGORI": "Sungai\/ Rawa", "KETERANGAN": "Sungai", "X": "6.31300500000e+05", "Y": "9.21661900000e+06" }, "geometry": { "type": "Point", "coordinates": [ 112.188901400394144, -7.085611559920358 ] } },
{ "type": "Feature", "properties": { "KODE": 1041834, "KATEGORI": "Sungai \/ Rawa", "KETERANGAN": "Sungai", "X": "6.31300500000e+05", "Y": "9.21660659000e+06" }, "geometry": { "type": "Point", "coordinates": [ 112.188901688018063, -7.085723795603471 ] } },
{ "type": "Feature", "properties": { "KODE": 1041834, "KATEGORI": "Sungai\/ Rawa", "KETERANGAN": "Sungai", "X": "6.31300500000e+05", "Y": "9.21660659000e+06" }, "geometry": { "type": "Point", "coordinates": [ 112.188901688018063, -7.085723795603471 ] } },
{ "type": "Feature", "properties": { "KODE": 1041835, "KATEGORI": "Sungai \/ Rawa", "KETERANGAN": "Sungai", "X": "6.31300500000e+05", "Y": "9.21659400000e+06" }, "geometry": { "type": "Point", "coordinates": [ 112.188901979818581, -7.085837659200843 ] } },
{ "type": "Feature", "properties": { "KODE": 1041835, "KATEGORI": "Sungai\/ Rawa", "KETERANGAN": "Sungai", "X": "6.31300500000e+05", "Y": "9.21659400000e+06" }, "geometry": { "type": "Point", "coordinates": [ 112.188901979818581, -7.085837659200843 ] } },
{ "type": "Feature", "properties": { "KODE": 1041836, "KATEGORI": "Sungai \/ Rawa", "KETERANGAN": "Sungai", "X": "6.31300500000e+05", "Y": "9.21658159000e+06" }, "geometry": { "type": "Point", "coordinates": [ 112.188902267451908, -7.085949894882843 ] } },
{ "type": "Feature", "properties": { "KODE": 1041836, "KATEGORI": "Sungai\/ Rawa", "KETERANGAN": "Sungai", "X": "6.31300500000e+05", "Y": "9.21658159000e+06" }, "geometry": { "type": "Point", "coordinates": [ 112.188902267451908, -7.085949894882843 ] } },
{ "type": "Feature", "properties": { "KODE": 1081720, "KATEGORI": "Sungai\/ Rawa", "KETERANGAN": "Sungai", "X": "6.33300500000e+05", "Y": "9.21803159000e+06" }, "geometry": { "type": "Point", "coordinates": [ 112.20697510195123, -7.072789561033713 ] } },
{ "type": "Feature", "properties": { "KODE": 1081721, "KATEGORI": "Sungai\/ Rawa", "KETERANGAN": "Sungai", "X": "6.33300500000e+05", "Y": "9.21801900000e+06" }, "geometry": { "type": "Point", "coordinates": [ 112.206975397640775, -7.072903423938233 ] } },
{ "type": "Feature", "properties": { "KODE": 1081722, "KATEGORI": "Sungai\/ Rawa", "KETERANGAN": "Sungai", "X": "6.33300500000e+05", "Y": "9.21800659000e+06" }, "geometry": { "type": "Point", "coordinates": [ 112.206975689107594, -7.07301565893729 ] } },
{ "type": "Feature", "properties": { "KODE": 1081723, "KATEGORI": "Sungai\/ Rawa", "KETERANGAN": "Sungai", "X": "6.33300500000e+05", "Y": "9.21799400000e+06" }, "geometry": { "type": "Point", "coordinates": [ 112.206975984806832, -7.073129521840682 ] } },
{ "type": "Feature", "properties": { "KODE": 1081724, "KATEGORI": "Sungai\/ Rawa", "KETERANGAN": "Sungai", "X": "6.33300500000e+05", "Y": "9.21798159000e+06" }, "geometry": { "type": "Point", "coordinates": [ 112.2069762762832, -7.073241756838629 ] } },
{ "type": "Feature", "properties": { "KODE": 1081725, "KATEGORI": "Sungai\/ Rawa", "KETERANGAN": "Sungai", "X": "6.33300500000e+05", "Y": "9.21796900000e+06" }, "geometry": { "type": "Point", "coordinates": [ 112.206976571992129, -7.073355619740894 ] } },
{ "type": "Feature", "properties": { "KODE": 1081726, "KATEGORI": "Sungai\/ Rawa", "KETERANGAN": "Sungai", "X": "6.33300500000e+05", "Y": "9.21795659000e+06" }, "geometry": { "type": "Point", "coordinates": [ 112.206976863478062, -7.073467854737729 ] } },
{ "type": "Feature", "properties": { "KODE": 1081727, "KATEGORI": "Sungai\/ Rawa", "KETERANGAN": "Sungai", "X": "6.33300500000e+05", "Y": "9.21794400000e+06" }, "geometry": { "type": "Point", "coordinates": [ 112.206977159196668, -7.073581717638865 ] } },
{ "type": "Feature", "properties": { "KODE": 1081728, "KATEGORI": "Sungai\/ Rawa", "KETERANGAN": "Sungai", "X": "6.33300500000e+05", "Y": "9.21793159000e+06" }, "geometry": { "type": "Point", "coordinates": [ 112.20697745069215, -7.073693952634589 ] } },
{ "type": "Feature", "properties": { "KODE": 1081729, "KATEGORI": "Sungai\/ Rawa", "KETERANGAN": "Sungai", "X": "6.33300500000e+05", "Y": "9.21791900000e+06" }, "geometry": { "type": "Point", "coordinates": [ 112.206977746420449, -7.073807815534599 ] } },
{ "type": "Feature", "properties": { "KODE": 1081730, "KATEGORI": "Sungai\/ Rawa", "KETERANGAN": "Sungai", "X": "6.33300500000e+05", "Y": "9.21790659000e+06" }, "geometry": { "type": "Point", "coordinates": [ 112.206978037925495, -7.073920050529211 ] } },
{ "type": "Feature", "properties": { "KODE": 1081731, "KATEGORI": "Sungai\/ Rawa", "KETERANGAN": "Sungai", "X": "6.33300500000e+05", "Y": "9.21789400000e+06" }, "geometry": { "type": "Point", "coordinates": [ 112.2069783336635, -7.074033913428096 ] } },
{ "type": "Feature", "properties": { "KODE": 1081732, "KATEGORI": "Sungai\/ Rawa", "KETERANGAN": "Sungai", "X": "6.33300500000e+05", "Y": "9.21788159000e+06" }, "geometry": { "type": "Point", "coordinates": [ 112.206978625178081, -7.074146148421597 ] } },
{ "type": "Feature", "properties": { "KODE": 1081733, "KATEGORI": "Sungai\/ Rawa", "KETERANGAN": "Sungai", "X": "6.33300500000e+05", "Y": "9.21786900000e+06" }, "geometry": { "type": "Point", "coordinates": [ 112.206978920925778, -7.074260011319351 ] } },
{ "type": "Feature", "properties": { "KODE": 1081734, "KATEGORI": "Sungai\/ Rawa", "KETERANGAN": "Sungai", "X": "6.33300500000e+05", "Y": "9.21785659000e+06" }, "geometry": { "type": "Point", "coordinates": [ 112.206979212449909, -7.074372246311742 ] } },
{ "type": "Feature", "properties": { "KODE": 1101496, "KATEGORI": "Sungai \/ Rawa", "KETERANGAN": "Sungai", "X": "6.34300500000e+05", "Y": "9.22113150000e+06" }, "geometry": { "type": "Point", "coordinates": [ 112.215955060246472, -7.0447307620891 ] } },
{ "type": "Feature", "properties": { "KODE": 1101497, "KATEGORI": "Sungai \/ Rawa", "KETERANGAN": "Sungai", "X": "6.34300500000e+05", "Y": "9.22111900000e+06" }, "geometry": { "type": "Point", "coordinates": [ 112.21595535482102, -7.044843810799597 ] } },
{ "type": "Feature", "properties": { "KODE": 1101498, "KATEGORI": "Sungai \/ Rawa", "KETERANGAN": "Sungai", "X": "6.34300500000e+05", "Y": "9.22110650000e+06" }, "geometry": { "type": "Point", "coordinates": [ 112.215955649400414, -7.044956859509539 ] } },
{ "type": "Feature", "properties": { "KODE": 1101499, "KATEGORI": "Sungai \/ Rawa", "KETERANGAN": "Sungai", "X": "6.34300500000e+05", "Y": "9.22109400000e+06" }, "geometry": { "type": "Point", "coordinates": [ 112.215955943984653, -7.045069908218922 ] } },
{ "type": "Feature", "properties": { "KODE": 1101500, "KATEGORI": "Sungai \/ Rawa", "KETERANGAN": "Sungai", "X": "6.34300500000e+05", "Y": "9.22108150000e+06" }, "geometry": { "type": "Point", "coordinates": [ 112.215956238573739, -7.045182956927748 ] } },
{ "type": "Feature", "properties": { "KODE": 1101501, "KATEGORI": "Sungai \/ Rawa", "KETERANGAN": "Sungai", "X": "6.34300500000e+05", "Y": "9.22106900000e+06" }, "geometry": { "type": "Point", "coordinates": [ 112.21595653316767, -7.045296005636017 ] } },
{ "type": "Feature", "properties": { "KODE": 1101502, "KATEGORI": "Sungai \/ Rawa", "KETERANGAN": "Sungai", "X": "6.34300500000e+05", "Y": "9.22105650000e+06" }, "geometry": { "type": "Point", "coordinates": [ 112.215956827766448, -7.04540905434373 ] } },
{ "type": "Feature", "properties": { "KODE": 1101503, "KATEGORI": "Sungai \/ Rawa", "KETERANGAN": "Sungai", "X": "6.34300500000e+05", "Y": "9.22104400000e+06" }, "geometry": { "type": "Point", "coordinates": [ 112.215957122370071, -7.045522103050883 ] } },
{ "type": "Feature", "properties": { "KODE": 1101504, "KATEGORI": "Sungai \/ Rawa", "KETERANGAN": "Sungai", "X": "6.34300500000e+05", "Y": "9.22103150000e+06" }, "geometry": { "type": "Point", "coordinates": [ 112.21595741697854, -7.045635151757478 ] } },
{ "type": "Feature", "properties": { "KODE": 1101505, "KATEGORI": "Sungai \/ Rawa", "KETERANGAN": "Sungai", "X": "6.34300500000e+05", "Y": "9.22101900000e+06" }, "geometry": { "type": "Point", "coordinates": [ 112.215957711591841, -7.045748200463517 ] } },
{ "type": "Feature", "properties": { "KODE": 1101506, "KATEGORI": "Sungai \/ Rawa", "KETERANGAN": "Sungai", "X": "6.34300500000e+05", "Y": "9.22100650000e+06" }, "geometry": { "type": "Point", "coordinates": [ 112.215958006210002, -7.045861249168998 ] } },
{ "type": "Feature", "properties": { "KODE": 1101507, "KATEGORI": "Sungai \/ Rawa", "KETERANGAN": "Sungai", "X": "6.34300500000e+05", "Y": "9.22099400000e+06" }, "geometry": { "type": "Point", "coordinates": [ 112.215958300833023, -7.04597429787392 ] } },
{ "type": "Feature", "properties": { "KODE": 1101508, "KATEGORI": "Sungai \/ Rawa", "KETERANGAN": "Sungai", "X": "6.34300500000e+05", "Y": "9.22098150000e+06" }, "geometry": { "type": "Point", "coordinates": [ 112.215958595460862, -7.046087346578286 ] } },
{ "type": "Feature", "properties": { "KODE": 1101509, "KATEGORI": "Sungai \/ Rawa", "KETERANGAN": "Sungai", "X": "6.34300500000e+05", "Y": "9.22096900000e+06" }, "geometry": { "type": "Point", "coordinates": [ 112.21595889009356, -7.046200395282093 ] } },
{ "type": "Feature", "properties": { "KODE": 1101510, "KATEGORI": "Sungai \/ Rawa", "KETERANGAN": "Sungai", "X": "6.34300500000e+05", "Y": "9.22095650000e+06" }, "geometry": { "type": "Point", "coordinates": [ 112.215959184731105, -7.046313443985341 ] } },
{ "type": "Feature", "properties": { "KODE": 1101511, "KATEGORI": "Sungai \/ Rawa", "KETERANGAN": "Sungai", "X": "6.34300500000e+05", "Y": "9.22094400000e+06" }, "geometry": { "type": "Point", "coordinates": [ 112.215959479373495, -7.046426492688036 ] } },
{ "type": "Feature", "properties": { "KODE": 1101512, "KATEGORI": "Sungai \/ Rawa", "KETERANGAN": "Sungai", "X": "6.34300500000e+05", "Y": "9.22093150000e+06" }, "geometry": { "type": "Point", "coordinates": [ 112.215959774020732, -7.04653954139017 ] } },
{ "type": "Feature", "properties": { "KODE": 1101513, "KATEGORI": "Sungai \/ Rawa", "KETERANGAN": "Sungai", "X": "6.34300500000e+05", "Y": "9.22091900000e+06" }, "geometry": { "type": "Point", "coordinates": [ 112.215960068672814, -7.046652590091747 ] } },
{ "type": "Feature", "properties": { "KODE": 1101514, "KATEGORI": "Sungai \/ Rawa", "KETERANGAN": "Sungai", "X": "6.34300500000e+05", "Y": "9.22090650000e+06" }, "geometry": { "type": "Point", "coordinates": [ 112.215960363329742, -7.046765638792766 ] } },
{ "type": "Feature", "properties": { "KODE": 1101515, "KATEGORI": "Sungai \/ Rawa", "KETERANGAN": "Sungai", "X": "6.34300500000e+05", "Y": "9.22089400000e+06" }, "geometry": { "type": "Point", "coordinates": [ 112.215960657991516, -7.046878687493228 ] } },
{ "type": "Feature", "properties": { "KODE": 1101516, "KATEGORI": "Sungai \/ Rawa", "KETERANGAN": "Sungai", "X": "6.34300500000e+05", "Y": "9.22088150000e+06" }, "geometry": { "type": "Point", "coordinates": [ 112.215960952658122, -7.046991736193132 ] } },
{ "type": "Feature", "properties": { "KODE": 1101517, "KATEGORI": "Sungai \/ Rawa", "KETERANGAN": "Sungai", "X": "6.34300500000e+05", "Y": "9.22086900000e+06" }, "geometry": { "type": "Point", "coordinates": [ 112.215961247329602, -7.047104784892477 ] } },
{ "type": "Feature", "properties": { "KODE": 1101518, "KATEGORI": "Sungai \/ Rawa", "KETERANGAN": "Sungai", "X": "6.34300500000e+05", "Y": "9.22085650000e+06" }, "geometry": { "type": "Point", "coordinates": [ 112.215961542005914, -7.047217833591266 ] } },
{ "type": "Feature", "properties": { "KODE": 1101519, "KATEGORI": "Sungai \/ Rawa", "KETERANGAN": "Sungai", "X": "6.34300500000e+05", "Y": "9.22084400000e+06" }, "geometry": { "type": "Point", "coordinates": [ 112.215961836687072, -7.047330882289496 ] } },
{ "type": "Feature", "properties": { "KODE": 1101520, "KATEGORI": "Sungai \/ Rawa", "KETERANGAN": "Sungai", "X": "6.34300500000e+05", "Y": "9.22083150000e+06" }, "geometry": { "type": "Point", "coordinates": [ 112.215962131373061, -7.047443930987169 ] } },
{ "type": "Feature", "properties": { "KODE": 1101521, "KATEGORI": "Sungai \/ Rawa", "KETERANGAN": "Sungai", "X": "6.34300500000e+05", "Y": "9.22081900000e+06" }, "geometry": { "type": "Point", "coordinates": [ 112.215962426063925, -7.047556979684286 ] } },
{ "type": "Feature", "properties": { "KODE": 1101522, "KATEGORI": "Sungai \/ Rawa", "KETERANGAN": "Sungai", "X": "6.34300500000e+05", "Y": "9.22080650000e+06" }, "geometry": { "type": "Point", "coordinates": [ 112.21596272075962, -7.047670028380843 ] } },
{ "type": "Feature", "properties": { "KODE": 1101523, "KATEGORI": "Sungai \/ Rawa", "KETERANGAN": "Sungai", "X": "6.34300500000e+05", "Y": "9.22079400000e+06" }, "geometry": { "type": "Point", "coordinates": [ 112.215963015460162, -7.047783077076841 ] } },
{ "type": "Feature", "properties": { "KODE": 1101524, "KATEGORI": "Sungai \/ Rawa", "KETERANGAN": "Sungai", "X": "6.34300500000e+05", "Y": "9.22078159000e+06" }, "geometry": { "type": "Point", "coordinates": [ 112.215963308043641, -7.047895311821678 ] } },
{ "type": "Feature", "properties": { "KODE": 1101525, "KATEGORI": "Sungai \/ Rawa", "KETERANGAN": "Sungai", "X": "6.34300500000e+05", "Y": "9.22076900000e+06" }, "geometry": { "type": "Point", "coordinates": [ 112.215963604875782, -7.048009174467166 ] } },
{ "type": "Feature", "properties": { "KODE": 1101526, "KATEGORI": "Sungai \/ Rawa", "KETERANGAN": "Sungai", "X": "6.34300500000e+05", "Y": "9.22075659000e+06" }, "geometry": { "type": "Point", "coordinates": [ 112.215963897468896, -7.048121409210896 ] } },
{ "type": "Feature", "properties": { "KODE": 1101527, "KATEGORI": "Sungai \/ Rawa", "KETERANGAN": "Sungai", "X": "6.34300500000e+05", "Y": "9.22074400000e+06" }, "geometry": { "type": "Point", "coordinates": [ 112.2159641943108, -7.048235271855261 ] } },
{ "type": "Feature", "properties": { "KODE": 1101528, "KATEGORI": "Sungai \/ Rawa", "KETERANGAN": "Sungai", "X": "6.34300500000e+05", "Y": "9.22073159000e+06" }, "geometry": { "type": "Point", "coordinates": [ 112.215964486913535, -7.048347506597883 ] } },
{ "type": "Feature", "properties": { "KODE": 1101529, "KATEGORI": "Sungai \/ Rawa", "KETERANGAN": "Sungai", "X": "6.34300500000e+05", "Y": "9.22071900000e+06" }, "geometry": { "type": "Point", "coordinates": [ 112.215964783765187, -7.048461369241124 ] } },
{ "type": "Feature", "properties": { "KODE": 1101530, "KATEGORI": "Sungai \/ Rawa", "KETERANGAN": "Sungai", "X": "6.34300500000e+05", "Y": "9.22070659000e+06" }, "geometry": { "type": "Point", "coordinates": [ 112.215965076377543, -7.048573603982638 ] } },
{ "type": "Feature", "properties": { "KODE": 1101531, "KATEGORI": "Sungai \/ Rawa", "KETERANGAN": "Sungai", "X": "6.34300500000e+05", "Y": "9.22069400000e+06" }, "geometry": { "type": "Point", "coordinates": [ 112.215965373238959, -7.048687466624755 ] } },
{ "type": "Feature", "properties": { "KODE": 1101532, "KATEGORI": "Sungai \/ Rawa", "KETERANGAN": "Sungai", "X": "6.34300500000e+05", "Y": "9.22068159000e+06" }, "geometry": { "type": "Point", "coordinates": [ 112.215965665860949, -7.04879970136516 ] } },
{ "type": "Feature", "properties": { "KODE": 1101533, "KATEGORI": "Sungai \/ Rawa", "KETERANGAN": "Sungai", "X": "6.34300500000e+05", "Y": "9.22066900000e+06" }, "geometry": { "type": "Point", "coordinates": [ 112.215965962732128, -7.048913564006155 ] } },
{ "type": "Feature", "properties": { "KODE": 1101534, "KATEGORI": "Sungai \/ Rawa", "KETERANGAN": "Sungai", "X": "6.34300500000e+05", "Y": "9.22065659000e+06" }, "geometry": { "type": "Point", "coordinates": [ 112.215966255363725, -7.049025798745453 ] } },
{ "type": "Feature", "properties": { "KODE": 1101535, "KATEGORI": "Sungai \/ Rawa", "KETERANGAN": "Sungai", "X": "6.34300500000e+05", "Y": "9.22064400000e+06" }, "geometry": { "type": "Point", "coordinates": [ 112.215966552244666, -7.049139661385324 ] } },
{ "type": "Feature", "properties": { "KODE": 1101536, "KATEGORI": "Sungai \/ Rawa", "KETERANGAN": "Sungai", "X": "6.34300500000e+05", "Y": "9.22063159000e+06" }, "geometry": { "type": "Point", "coordinates": [ 112.215966844885898, -7.049251896123515 ] } },
{ "type": "Feature", "properties": { "KODE": 1101537, "KATEGORI": "Sungai \/ Rawa", "KETERANGAN": "Sungai", "X": "6.34300500000e+05", "Y": "9.22061900000e+06" }, "geometry": { "type": "Point", "coordinates": [ 112.215967141776588, -7.049365758762261 ] } },
{ "type": "Feature", "properties": { "KODE": 1101538, "KATEGORI": "Sungai \/ Rawa", "KETERANGAN": "Sungai", "X": "6.34300500000e+05", "Y": "9.22060659000e+06" }, "geometry": { "type": "Point", "coordinates": [ 112.215967434427441, -7.049477993499345 ] } },
{ "type": "Feature", "properties": { "KODE": 1101539, "KATEGORI": "Sungai \/ Rawa", "KETERANGAN": "Sungai", "X": "6.34300500000e+05", "Y": "9.22059400000e+06" }, "geometry": { "type": "Point", "coordinates": [ 112.215967731327908, -7.049591856136966 ] } },
{ "type": "Feature", "properties": { "KODE": 1101540, "KATEGORI": "Sungai \/ Rawa", "KETERANGAN": "Sungai", "X": "6.34300500000e+05", "Y": "9.22058159000e+06" }, "geometry": { "type": "Point", "coordinates": [ 112.215968023988381, -7.049704090872941 ] } },
{ "type": "Feature", "properties": { "KODE": 1101541, "KATEGORI": "Sungai \/ Rawa", "KETERANGAN": "Sungai", "X": "6.34300500000e+05", "Y": "9.22056900000e+06" }, "geometry": { "type": "Point", "coordinates": [ 112.215968320898611, -7.049817953509439 ] } },
{ "type": "Feature", "properties": { "KODE": 1101542, "KATEGORI": "Sungai \/ Rawa", "KETERANGAN": "Sungai", "X": "6.34300500000e+05", "Y": "9.22055659000e+06" }, "geometry": { "type": "Point", "coordinates": [ 112.215968613568705, -7.049930188244308 ] } },
{ "type": "Feature", "properties": { "KODE": 1101543, "KATEGORI": "Sungai \/ Rawa", "KETERANGAN": "Sungai", "X": "6.34300500000e+05", "Y": "9.22054400000e+06" }, "geometry": { "type": "Point", "coordinates": [ 112.215968910488698, -7.050044050879681 ] } },
{ "type": "Feature", "properties": { "KODE": 1101544, "KATEGORI": "Sungai \/ Rawa", "KETERANGAN": "Sungai", "X": "6.34300500000e+05", "Y": "9.22053159000e+06" }, "geometry": { "type": "Point", "coordinates": [ 112.215969203168413, -7.050156285613441 ] } },
{ "type": "Feature", "properties": { "KODE": 1101545, "KATEGORI": "Sungai \/ Rawa", "KETERANGAN": "Sungai", "X": "6.34300500000e+05", "Y": "9.22051900000e+06" }, "geometry": { "type": "Point", "coordinates": [ 112.215969500098154, -7.05027014824769 ] } },
{ "type": "Feature", "properties": { "KODE": 1101546, "KATEGORI": "Sungai \/ Rawa", "KETERANGAN": "Sungai", "X": "6.34300500000e+05", "Y": "9.22050659000e+06" }, "geometry": { "type": "Point", "coordinates": [ 112.215969792787504, -7.050382382980342 ] } },
{ "type": "Feature", "properties": { "KODE": 1101547, "KATEGORI": "Sungai \/ Rawa", "KETERANGAN": "Sungai", "X": "6.34300500000e+05", "Y": "9.22049400000e+06" }, "geometry": { "type": "Point", "coordinates": [ 112.215970089727023, -7.050496245613467 ] } },
{ "type": "Feature", "properties": { "KODE": 1101548, "KATEGORI": "Sungai \/ Rawa", "KETERANGAN": "Sungai", "X": "6.34300500000e+05", "Y": "9.22048159000e+06" }, "geometry": { "type": "Point", "coordinates": [ 112.215970382425979, -7.050608480345012 ] } },
{ "type": "Feature", "properties": { "KODE": 1101549, "KATEGORI": "Sungai \/ Rawa", "KETERANGAN": "Sungai", "X": "6.34300500000e+05", "Y": "9.22046900000e+06" }, "geometry": { "type": "Point", "coordinates": [ 112.21597067937526, -7.050722342977014 ] } },
{ "type": "Feature", "properties": { "KODE": 1101550, "KATEGORI": "Sungai \/ Rawa", "KETERANGAN": "Sungai", "X": "6.34300500000e+05", "Y": "9.22045659000e+06" }, "geometry": { "type": "Point", "coordinates": [ 112.215970972083838, -7.05083457770745 ] } },
{ "type": "Feature", "properties": { "KODE": 1101551, "KATEGORI": "Sungai \/ Rawa", "KETERANGAN": "Sungai", "X": "6.34300500000e+05", "Y": "9.22044400000e+06" }, "geometry": { "type": "Point", "coordinates": [ 112.215971269042882, -7.050948440338328 ] } },
{ "type": "Feature", "properties": { "KODE": 1101552, "KATEGORI": "Sungai \/ Rawa", "KETERANGAN": "Sungai", "X": "6.34300500000e+05", "Y": "9.22043159000e+06" }, "geometry": { "type": "Point", "coordinates": [ 112.215971561761094, -7.051060675067656 ] } },
{ "type": "Feature", "properties": { "KODE": 1101553, "KATEGORI": "Sungai \/ Rawa", "KETERANGAN": "Sungai", "X": "6.34300500000e+05", "Y": "9.22041900000e+06" }, "geometry": { "type": "Point", "coordinates": [ 112.215971858729887, -7.051174537697411 ] } },
{ "type": "Feature", "properties": { "KODE": 1101554, "KATEGORI": "Sungai \/ Rawa", "KETERANGAN": "Sungai", "X": "6.34300500000e+05", "Y": "9.22040659000e+06" }, "geometry": { "type": "Point", "coordinates": [ 112.21597215145772, -7.051286772425629 ] } },
{ "type": "Feature", "properties": { "KODE": 1101555, "KATEGORI": "Sungai \/ Rawa", "KETERANGAN": "Sungai", "X": "6.34300500000e+05", "Y": "9.22039400000e+06" }, "geometry": { "type": "Point", "coordinates": [ 112.215972448436275, -7.051400635054258 ] } },
{ "type": "Feature", "properties": { "KODE": 1101556, "KATEGORI": "Sungai \/ Rawa", "KETERANGAN": "Sungai", "X": "6.34300500000e+05", "Y": "9.22038159000e+06" }, "geometry": { "type": "Point", "coordinates": [ 112.215972741173729, -7.051512869781371 ] } },
{ "type": "Feature", "properties": { "KODE": 1101557, "KATEGORI": "Sungai \/ Rawa", "KETERANGAN": "Sungai", "X": "6.34300500000e+05", "Y": "9.22036900000e+06" }, "geometry": { "type": "Point", "coordinates": [ 112.215973038162062, -7.051626732408875 ] } },
{ "type": "Feature", "properties": { "KODE": 1101558, "KATEGORI": "Sungai \/ Rawa", "KETERANGAN": "Sungai", "X": "6.34300500000e+05", "Y": "9.22035659000e+06" }, "geometry": { "type": "Point", "coordinates": [ 112.215973330909137, -7.05173896713488 ] } },
{ "type": "Feature", "properties": { "KODE": 1101559, "KATEGORI": "Sungai \/ Rawa", "KETERANGAN": "Sungai", "X": "6.34300500000e+05", "Y": "9.22034400000e+06" }, "geometry": { "type": "Point", "coordinates": [ 112.215973627907218, -7.051852829761259 ] } },
{ "type": "Feature", "properties": { "KODE": 1101560, "KATEGORI": "Sungai \/ Rawa", "KETERANGAN": "Sungai", "X": "6.34300500000e+05", "Y": "9.22033159000e+06" }, "geometry": { "type": "Point", "coordinates": [ 112.215973920663927, -7.051965064486154 ] } },
{ "type": "Feature", "properties": { "KODE": 1101561, "KATEGORI": "Sungai \/ Rawa", "KETERANGAN": "Sungai", "X": "6.34300500000e+05", "Y": "9.22031900000e+06" }, "geometry": { "type": "Point", "coordinates": [ 112.215974217671786, -7.052078927111411 ] } },
{ "type": "Feature", "properties": { "KODE": 1101562, "KATEGORI": "Sungai \/ Rawa", "KETERANGAN": "Sungai", "X": "6.34300500000e+05", "Y": "9.22030659000e+06" }, "geometry": { "type": "Point", "coordinates": [ 112.215974510438102, -7.0521911618352 ] } },
{ "type": "Feature", "properties": { "KODE": 1101563, "KATEGORI": "Sungai \/ Rawa", "KETERANGAN": "Sungai", "X": "6.34300500000e+05", "Y": "9.22029400000e+06" }, "geometry": { "type": "Point", "coordinates": [ 112.215974807455709, -7.052305024459332 ] } },
{ "type": "Feature", "properties": { "KODE": 1101564, "KATEGORI": "Sungai \/ Rawa", "KETERANGAN": "Sungai", "X": "6.34300500000e+05", "Y": "9.22028159000e+06" }, "geometry": { "type": "Point", "coordinates": [ 112.21597510023166, -7.05241725918201 ] } },
{ "type": "Feature", "properties": { "KODE": 1101565, "KATEGORI": "Sungai \/ Rawa", "KETERANGAN": "Sungai", "X": "6.34300500000e+05", "Y": "9.22026900000e+06" }, "geometry": { "type": "Point", "coordinates": [ 112.215975397259029, -7.052531121805018 ] } },
{ "type": "Feature", "properties": { "KODE": 1101566, "KATEGORI": "Sungai \/ Rawa", "KETERANGAN": "Sungai", "X": "6.34300500000e+05", "Y": "9.22025659000e+06" }, "geometry": { "type": "Point", "coordinates": [ 112.215975690044601, -7.052643356526588 ] } },
{ "type": "Feature", "properties": { "KODE": 1101567, "KATEGORI": "Sungai \/ Rawa", "KETERANGAN": "Sungai", "X": "6.34300500000e+05", "Y": "9.22024400000e+06" }, "geometry": { "type": "Point", "coordinates": [ 112.215975987081734, -7.052757219148472 ] } },
{ "type": "Feature", "properties": { "KODE": 1101568, "KATEGORI": "Sungai \/ Rawa", "KETERANGAN": "Sungai", "X": "6.34300500000e+05", "Y": "9.22023159000e+06" }, "geometry": { "type": "Point", "coordinates": [ 112.215976279876926, -7.052869453868935 ] } },
{ "type": "Feature", "properties": { "KODE": 1101569, "KATEGORI": "Sungai \/ Rawa", "KETERANGAN": "Sungai", "X": "6.34300500000e+05", "Y": "9.22021900000e+06" }, "geometry": { "type": "Point", "coordinates": [ 112.215976576923822, -7.052983316489694 ] } },
{ "type": "Feature", "properties": { "KODE": 1101570, "KATEGORI": "Sungai \/ Rawa", "KETERANGAN": "Sungai", "X": "6.34300500000e+05", "Y": "9.22020659000e+06" }, "geometry": { "type": "Point", "coordinates": [ 112.215976869728635, -7.053095551209049 ] } },
{ "type": "Feature", "properties": { "KODE": 1101571, "KATEGORI": "Sungai \/ Rawa", "KETERANGAN": "Sungai", "X": "6.34300500000e+05", "Y": "9.22019400000e+06" }, "geometry": { "type": "Point", "coordinates": [ 112.215977166785294, -7.053209413828682 ] } },
{ "type": "Feature", "properties": { "KODE": 1101572, "KATEGORI": "Sungai \/ Rawa", "KETERANGAN": "Sungai", "X": "6.34300500000e+05", "Y": "9.22018159000e+06" }, "geometry": { "type": "Point", "coordinates": [ 112.215977459599742, -7.053321648546929 ] } },
{ "type": "Feature", "properties": { "KODE": 1101573, "KATEGORI": "Sungai \/ Rawa", "KETERANGAN": "Sungai", "X": "6.34300500000e+05", "Y": "9.22016900000e+06" }, "geometry": { "type": "Point", "coordinates": [ 112.215977756666163, -7.053435511165439 ] } },
{ "type": "Feature", "properties": { "KODE": 1101574, "KATEGORI": "Sungai \/ Rawa", "KETERANGAN": "Sungai", "X": "6.34300500000e+05", "Y": "9.22015659000e+06" }, "geometry": { "type": "Point", "coordinates": [ 112.215978049490218, -7.053547745882576 ] } },
{ "type": "Feature", "properties": { "KODE": 1101575, "KATEGORI": "Sungai \/ Rawa", "KETERANGAN": "Sungai", "X": "6.34300500000e+05", "Y": "9.22014400000e+06" }, "geometry": { "type": "Point", "coordinates": [ 112.215978346566402, -7.053661608499961 ] } },
{ "type": "Feature", "properties": { "KODE": 1101576, "KATEGORI": "Sungai \/ Rawa", "KETERANGAN": "Sungai", "X": "6.34300500000e+05", "Y": "9.22013159000e+06" }, "geometry": { "type": "Point", "coordinates": [ 112.215978639400092, -7.05377384321599 ] } },
{ "type": "Feature", "properties": { "KODE": 1101577, "KATEGORI": "Sungai \/ Rawa", "KETERANGAN": "Sungai", "X": "6.34300500000e+05", "Y": "9.22011900000e+06" }, "geometry": { "type": "Point", "coordinates": [ 112.215978936486053, -7.053887705832252 ] } },
{ "type": "Feature", "properties": { "KODE": 1101578, "KATEGORI": "Sungai \/ Rawa", "KETERANGAN": "Sungai", "X": "6.34300500000e+05", "Y": "9.22010659000e+06" }, "geometry": { "type": "Point", "coordinates": [ 112.215979229329349, -7.053999940547173 ] } },
{ "type": "Feature", "properties": { "KODE": 1101579, "KATEGORI": "Sungai \/ Rawa", "KETERANGAN": "Sungai", "X": "6.34300500000e+05", "Y": "9.22009400000e+06" }, "geometry": { "type": "Point", "coordinates": [ 112.215979526425059, -7.054113803162307 ] } },
{ "type": "Feature", "properties": { "KODE": 1101580, "KATEGORI": "Sungai \/ Rawa", "KETERANGAN": "Sungai", "X": "6.34300500000e+05", "Y": "9.22008159000e+06" }, "geometry": { "type": "Point", "coordinates": [ 112.21597981927799, -7.054226037876121 ] } },
{ "type": "Feature", "properties": { "KODE": 1151834, "KATEGORI": "Sungai\/Rawa", "KETERANGAN": "Sungai", "X": "6.34994300000e+05", "Y": "9.21580039000e+06" }, "geometry": { "type": "Point", "coordinates": [ 112.222362469243023, -7.092928230711261 ] } },
{ "type": "Feature", "properties": { "KODE": 1151835, "KATEGORI": "Sungai\/Rawa", "KETERANGAN": "Sungai", "X": "6.35006800000e+05", "Y": "9.21580030000e+06" }, "geometry": { "type": "Point", "coordinates": [ 112.22247564033033, -7.092928746791973 ] } },
{ "type": "Feature", "properties": { "KODE": 1151836, "KATEGORI": "Sungai\/Rawa", "KETERANGAN": "Sungai", "X": "6.35019300000e+05", "Y": "9.21580039000e+06" }, "geometry": { "type": "Point", "coordinates": [ 112.222588807118711, -7.092927634951021 ] } },
{ "type": "Feature", "properties": { "KODE": 1231900, "KATEGORI": "Sungai\/ Rawa", "KETERANGAN": "Sungai", "X": "6.34169300000e+05", "Y": "9.21980039000e+06" }, "geometry": { "type": "Point", "coordinates": [ 112.21479872445515, -7.056772273154909 ] } },
{ "type": "Feature", "properties": { "KODE": 1231901, "KATEGORI": "Sungai\/ Rawa", "KETERANGAN": "Sungai", "X": "6.34181800000e+05", "Y": "9.21980030000e+06" }, "geometry": { "type": "Point", "coordinates": [ 112.214911887033509, -7.056772792582823 ] } },
{ "type": "Feature", "properties": { "KODE": 1231902, "KATEGORI": "Sungai\/ Rawa", "KETERANGAN": "Sungai", "X": "6.34194300000e+05", "Y": "9.21980039000e+06" }, "geometry": { "type": "Point", "coordinates": [ 112.215025045361486, -7.056771684082089 ] } },
{ "type": "Feature", "properties": { "KODE": 1231903, "KATEGORI": "Sungai\/ Rawa", "KETERANGAN": "Sungai", "X": "6.34206800000e+05", "Y": "9.21980030000e+06" }, "geometry": { "type": "Point", "coordinates": [ 112.215138207930551, -7.0567722034551 ] } },
{ "type": "Feature", "properties": { "KODE": 1231904, "KATEGORI": "Sungai\/ Rawa", "KETERANGAN": "Sungai", "X": "6.34219300000e+05", "Y": "9.21980039000e+06" }, "geometry": { "type": "Point", "coordinates": [ 112.215251366248452, -7.056771094899599 ] } },
{ "type": "Feature", "properties": { "KODE": 1231905, "KATEGORI": "Sungai\/ Rawa", "KETERANGAN": "Sungai", "X": "6.34231800000e+05", "Y": "9.21980030000e+06" }, "geometry": { "type": "Point", "coordinates": [ 112.215364528808223, -7.056771614217705 ] } },
{ "type": "Feature", "properties": { "KODE": 1231906, "KATEGORI": "Sungai\/ Rawa", "KETERANGAN": "Sungai", "X": "6.34244300000e+05", "Y": "9.21980039000e+06" }, "geometry": { "type": "Point", "coordinates": [ 112.215477687116049, -7.056770505607438 ] } },
{ "type": "Feature", "properties": { "KODE": 1231907, "KATEGORI": "Sungai\/ Rawa", "KETERANGAN": "Sungai", "X": "6.34256800000e+05", "Y": "9.21980030000e+06" }, "geometry": { "type": "Point", "coordinates": [ 112.215590849666526, -7.05677102487064 ] } },
{ "type": "Feature", "properties": { "KODE": 1231908, "KATEGORI": "Sungai\/ Rawa", "KETERANGAN": "Sungai", "X": "6.34269300000e+05", "Y": "9.21980039000e+06" }, "geometry": { "type": "Point", "coordinates": [ 112.215704007964277, -7.056769916205607 ] } },
{ "type": "Feature", "properties": { "KODE": 1231909, "KATEGORI": "Sungai\/ Rawa", "KETERANGAN": "Sungai", "X": "6.34281800000e+05", "Y": "9.21980030000e+06" }, "geometry": { "type": "Point", "coordinates": [ 112.21581717050546, -7.056770435413905 ] } },
{ "type": "Feature", "properties": { "KODE": 1231910, "KATEGORI": "Sungai\/ Rawa", "KETERANGAN": "Sungai", "X": "6.34294300000e+05", "Y": "9.21980039000e+06" }, "geometry": { "type": "Point", "coordinates": [ 112.215930328793107, -7.056769326694103 ] } },
{ "type": "Feature", "properties": { "KODE": 1231911, "KATEGORI": "Sungai\/ Rawa", "KETERANGAN": "Sungai", "X": "6.34306800000e+05", "Y": "9.21980030000e+06" }, "geometry": { "type": "Point", "coordinates": [ 112.216043491324996, -7.056769845847499 ] } },
{ "type": "Feature", "properties": { "KODE": 1231912, "KATEGORI": "Sungai\/ Rawa", "KETERANGAN": "Sungai", "X": "6.34319300000e+05", "Y": "9.21980039000e+06" }, "geometry": { "type": "Point", "coordinates": [ 112.216156649602553, -7.05676873707293 ] } }
]
}
