{"type":"FeatureCollection","features":[{"type":"Feature","properties":{"Line":"S115","Sp":"3404.5","X":"654625.5","Y":"9215800.3","NAMOBJ":"Balun","WADMKC":"Turi","WADMKK":"Lamongan"},"geometry":{"type":"Point","coordinates":[112.40008754,-7.09242729]}},{"type":"Feature","properties":{"Line":"S115","Sp":"3408.5","X":"654675.5","Y":"9215800.3","NAMOBJ":"Balun","WADMKC":"Turi","WADMKK":"Lamongan"},"geometry":{"type":"Point","coordinates":[112.40054019,-7.09242592]}},{"type":"Feature","properties":{"Line":"S115","Sp":"3412.5","X":"654725.5","Y":"9215800.3","NAMOBJ":"Balun","WADMKC":"Turi","WADMKK":"Lamongan"},"geometry":{"type":"Point","coordinates":[112.40099283,-7.09242456]}},{"type":"Feature","properties":{"Line":"S115","Sp":"3416.5","X":"654775.5","Y":"9215800.3","NAMOBJ":"Balun","WADMKC":"Turi","WADMKK":"Lamongan"},"geometry":{"type":"Point","coordinates":[112.40144547,-7.09242319]}},{"type":"Feature","properties":{"Line":"S115","Sp":"3420.5","X":"654825.5","Y":"9215800.3","NAMOBJ":"Balun","WADMKC":"Turi","WADMKK":"Lamongan"},"geometry":{"type":"Point","coordinates":[112.40189811,-7.09242182]}},{"type":"Feature","properties":{"Line":"S115","Sp":"3424.5","X":"654875.5","Y":"9215800.3","NAMOBJ":"Balun","WADMKC":"Turi","WADMKK":"Lamongan"},"geometry":{"type":"Point","coordinates":[112.40235076,-7.09242046]}},{"type":"Feature","properties":{"Line":"S115","Sp":"3428.5","X":"654925.5","Y":"9215800.3","NAMOBJ":"Balun","WADMKC":"Turi","WADMKK":"Lamongan"},"geometry":{"type":"Point","coordinates":[112.4028034,-7.09241909]}},{"type":"Feature","properties":{"Line":"S115","Sp":"3432.5","X":"654975.5","Y":"9215800.3","NAMOBJ":"Balun","WADMKC":"Turi","WADMKK":"Lamongan"},"geometry":{"type":"Point","coordinates":[112.40325604,-7.09241772]}},{"type":"Feature","properties":{"Line":"S115","Sp":"3436.5","X":"655025.5","Y":"9215800.3","NAMOBJ":"Balun","WADMKC":"Turi","WADMKK":"Lamongan"},"geometry":{"type":"Point","coordinates":[112.40370868,-7.09241636]}},{"type":"Feature","properties":{"Line":"S115","Sp":"3440.5","X":"655075.5","Y":"9215800.3","NAMOBJ":"Balun","WADMKC":"Turi","WADMKK":"Lamongan"},"geometry":{"type":"Point","coordinates":[112.40416133,-7.09241499]}},{"type":"Feature","properties":{"Line":"S115","Sp":"3444.5","X":"655125.5","Y":"9215800.3","NAMOBJ":"Balun","WADMKC":"Turi","WADMKK":"Lamongan"},"geometry":{"type":"Point","coordinates":[112.40461397,-7.09241362]}},{"type":"Feature","properties":{"Line":"S115","Sp":"3448.5","X":"655175.5","Y":"9215800.3","NAMOBJ":"Balun","WADMKC":"Turi","WADMKK":"Lamongan"},"geometry":{"type":"Point","coordinates":[112.40506661,-7.09241225]}},{"type":"Feature","properties":{"Line":"S115","Sp":"3452.5","X":"655225.5","Y":"9215800.3","NAMOBJ":"Balun","WADMKC":"Turi","WADMKK":"Lamongan"},"geometry":{"type":"Point","coordinates":[112.40551925,-7.09241088]}},{"type":"Feature","properties":{"Line":"S115","Sp":"3456.5","X":"655275.5","Y":"9215800.3","NAMOBJ":"Balun","WADMKC":"Turi","WADMKK":"Lamongan"},"geometry":{"type":"Point","coordinates":[112.40597189,-7.09240951]}},{"type":"Feature","properties":{"Line":"S115","Sp":"3460.5","X":"655325.5","Y":"9215800.3","NAMOBJ":"Balun","WADMKC":"Turi","WADMKK":"Lamongan"},"geometry":{"type":"Point","coordinates":[112.40642453,-7.09240814]}},{"type":"Feature","properties":{"Line":"S115","Sp":"3464.5","X":"655375.5","Y":"9215800.3","NAMOBJ":"Balun","WADMKC":"Turi","WADMKK":"Lamongan"},"geometry":{"type":"Point","coordinates":[112.40687718,-7.09240677]}},{"type":"Feature","properties":{"Line":"S117","Sp":"3448.5","X":"654625.5","Y":"9216800.3","NAMOBJ":"Balun","WADMKC":"Turi","WADMKK":"Lamongan"},"geometry":{"type":"Point","coordinates":[112.40006024,-7.08338407]}},{"type":"Feature","properties":{"Line":"S117","Sp":"3452.5","X":"654675.5","Y":"9216800.3","NAMOBJ":"Balun","WADMKC":"Turi","WADMKK":"Lamongan"},"geometry":{"type":"Point","coordinates":[112.40051288,-7.08338271]}},{"type":"Feature","properties":{"Line":"S117","Sp":"3456.5","X":"654725.5","Y":"9216800.3","NAMOBJ":"Balun","WADMKC":"Turi","WADMKK":"Lamongan"},"geometry":{"type":"Point","coordinates":[112.40096551,-7.08338135]}},{"type":"Feature","properties":{"Line":"S117","Sp":"3460.5","X":"654775.5","Y":"9216800.3","NAMOBJ":"Balun","WADMKC":"Turi","WADMKK":"Lamongan"},"geometry":{"type":"Point","coordinates":[112.40141814,-7.08337998]}},{"type":"Feature","properties":{"Line":"S117","Sp":"3464.5","X":"654825.5","Y":"9216800.3","NAMOBJ":"Balun","WADMKC":"Turi","WADMKK":"Lamongan"},"geometry":{"type":"Point","coordinates":[112.40187078,-7.08337862]}}]}