{"type":"FeatureCollection","features":[{"type":"Feature","properties":{"Line":"S102","Sp":"1412.5","X":"630300.5","Y":"9220825.3","NAMOBJ":"Banjar","WADMKC":"Widang","WADMKK":"Tuban"},"geometry":{"type":"Point","coordinates":[112.2,-7.0]}},{"type":"Feature","properties":{"Line":"S102","Sp":"1416.5","X":"630300.5","Y":"9220775.3","NAMOBJ":"Banjar","WADMKC":"Widang","WADMKK":"Tuban"},"geometry":{"type":"Point","coordinates":[112.2,-7.0]}},{"type":"Feature","properties":{"Line":"S102","Sp":"1420.5","X":"630300.5","Y":"9220725.3","NAMOBJ":"Banjar","WADMKC":"Widang","WADMKK":"Tuban"},"geometry":{"type":"Point","coordinates":[112.2,-7.0]}},{"type":"Feature","properties":{"Line":"S102","Sp":"1424.5","X":"630300.5","Y":"9220675.3","NAMOBJ":"Banjar","WADMKC":"Widang","WADMKK":"Tuban"},"geometry":{"type":"Point","coordinates":[112.2,-7.0]}},{"type":"Feature","properties":{"Line":"S102","Sp":"1428.5","X":"630300.5","Y":"9220625.3","NAMOBJ":"Banjar","WADMKC":"Widang","WADMKK":"Tuban"},"geometry":{"type":"Point","coordinates":[112.2,-7.0]}},{"type":"Feature","properties":{"Line":"S102","Sp":"1432.5","X":"630300.5","Y":"9220575.3","NAMOBJ":"Banjar","WADMKC":"Widang","WADMKK":"Tuban"},"geometry":{"type":"Point","coordinates":[112.2,-7.0]}},{"type":"Feature","properties":{"Line":"S125","Sp":"1408.5","X":"630225.5","Y":"9220800.3","NAMOBJ":"Banjar","WADMKC":"Widang","WADMKK":"Tuban"},"geometry":{"type":"Point","coordinates":[112.2,-7.0]}},{"type":"Feature","properties":{"Line":"S125","Sp":"1412.5","X":"630275.5","Y":"9220800.3","NAMOBJ":"Banjar","WADMKC":"Widang","WADMKK":"Tuban"},"geometry":{"type":"Point","coordinates":[112.2,-7.0]}},{"type":"Feature","properties":{"Line":"S125","Sp":"1416.5","X":"630325.5","Y":"9220800.3","NAMOBJ":"Banjar","WADMKC":"Widang","WADMKK":"Tuban"},"geometry":{"type":"Point","coordinates":[112.2,-7.0]}},{"type":"Feature","properties":{"Line":"S125","Sp":"1420.5","X":"630375.5","Y":"9220800.3","NAMOBJ":"Banjar","WADMKC":"Widang","WADMKK":"Tuban"},"geometry":{"type":"Point","coordinates":[112.2,-7.0]}},{"type":"Feature","properties":{"Line":"S125","Sp":"1424.5","X":"630425.5","Y":"9220800.3","NAMOBJ":"Banjar","WADMKC":"Widang","WADMKK":"Tuban"},"geometry":{"type":"Point","coordinates":[112.2,-7.0]}},{"type":"Feature","properties":{"Line":"S125","Sp":"1428.5","X":"630475.5","Y":"9220800.3","NAMOBJ":"Banjar","WADMKC":"Widang","WADMKK":"Tuban"},"geometry":{"type":"Point","coordinates":[112.2,-7.0]}},{"type":"Feature","properties":{"Line":"S125","Sp":"1432.5","X":"630525.5","Y":"9220800.3","NAMOBJ":"Banjar","WADMKC":"Widang","WADMKK":"Tuban"},"geometry":{"type":"Point","coordinates":[112.2,-7.0]}},{"type":"Feature","properties":{"Line":"S125","Sp":"1436.5","X":"630575.5","Y":"9220800.3","NAMOBJ":"Banjar","WADMKC":"Widang","WADMKK":"Tuban"},"geometry":{"type":"Point","coordinates":[112.2,-7.0]}},{"type":"Feature","properties":{"Line":"S125","Sp":"1440.5","X":"630625.5","Y":"9220800.3","NAMOBJ":"Banjar","WADMKC":"Widang","WADMKK":"Tuban"},"geometry":{"type":"Point","coordinates":[112.2,-7.0]}},{"type":"Feature","properties":{"Line":"S125","Sp":"1444.5","X":"630675.5","Y":"9220800.3","NAMOBJ":"Banjar","WADMKC":"Widang","WADMKK":"Tuban"},"geometry":{"type":"Point","coordinates":[112.2,-7.0]}},{"type":"Feature","properties":{"Line":"S125","Sp":"1448.5","X":"630725.5","Y":"9220800.3","NAMOBJ":"Banjar","WADMKC":"Widang","WADMKK":"Tuban"},"geometry":{"type":"Point","coordinates":[112.2,-7.0]}},{"type":"Feature","properties":{"Line":"S125","Sp":"1452.5","X":"630775.5","Y":"9220800.3","NAMOBJ":"Banjar","WADMKC":"Widang","WADMKK":"Tuban"},"geometry":{"type":"Point","coordinates":[112.2,-7.0]}},{"type":"Feature","properties":{"Line":"S125","Sp":"1456.5","X":"630825.5","Y":"9220800.3","NAMOBJ":"Banjar","WADMKC":"Widang","WADMKK":"Tuban"},"geometry":{"type":"Point","coordinates":[112.2,-7.0]}},{"type":"Feature","properties":{"Line":"S125","Sp":"1460.5","X":"630875.5","Y":"9220800.3","NAMOBJ":"Banjar","WADMKC":"Widang","WADMKK":"Tuban"},"geometry":{"type":"Point","coordinates":[112.2,-7.0]}},{"type":"Feature","properties":{"Line":"S125","Sp":"1360.5","X":"629625.5","Y":"9220800.3","NAMOBJ":"Compreng","WADMKC":"Widang","WADMKK":"Tuban"},"geometry":{"type":"Point","coordinates":[112.2,-7.0]}},{"type":"Feature","properties":{"Line":"S125","Sp":"1364.5","X":"629675.5","Y":"9220800.3","NAMOBJ":"Compreng","WADMKC":"Widang","WADMKK":"Tuban"},"geometry":{"type":"Point","coordinates":[112.2,-7.0]}},{"type":"Feature","properties":{"Line":"S102","Sp":"1360.5","X":"630300.5","Y":"9221475.3","NAMOBJ":"Mrutuk","WADMKC":"Widang","WADMKK":"Tuban"},"geometry":{"type":"Point","coordinates":[112.2,-7.0]}},{"type":"Feature","properties":{"Line":"S102","Sp":"1364.5","X":"630300.5","Y":"9221425.3","NAMOBJ":"Mrutuk","WADMKC":"Widang","WADMKK":"Tuban"},"geometry":{"type":"Point","coordinates":[112.2,-7.0]}},{"type":"Feature","properties":{"Line":"S102","Sp":"1368.5","X":"630300.5","Y":"9221375.3","NAMOBJ":"Mrutuk","WADMKC":"Widang","WADMKK":"Tuban"},"geometry":{"type":"Point","coordinates":[112.2,-7.0]}},{"type":"Feature","properties":{"Line":"S102","Sp":"1372.5","X":"630300.5","Y":"9221325.3","NAMOBJ":"Mrutuk","WADMKC":"Widang","WADMKK":"Tuban"},"geometry":{"type":"Point","coordinates":[112.2,-7.0]}},{"type":"Feature","properties":{"Line":"S102","Sp":"1376.5","X":"630300.5","Y":"9221275.3","NAMOBJ":"Mrutuk","WADMKC":"Widang","WADMKK":"Tuban"},"geometry":{"type":"Point","coordinates":[112.2,-7.0]}},{"type":"Feature","properties":{"Line":"S102","Sp":"1380.5","X":"630300.5","Y":"9221225.3","NAMOBJ":"Mrutuk","WADMKC":"Widang","WADMKK":"Tuban"},"geometry":{"type":"Point","coordinates":[112.2,-7.0]}},{"type":"Feature","properties":{"Line":"S102","Sp":"1384.5","X":"630300.5","Y":"9221175.3","NAMOBJ":"Mrutuk","WADMKC":"Widang","WADMKK":"Tuban"},"geometry":{"type":"Point","coordinates":[112.2,-7.0]}},{"type":"Feature","properties":{"Line":"S102","Sp":"1388.5","X":"630300.5","Y":"9221125.3","NAMOBJ":"Mrutuk","WADMKC":"Widang","WADMKK":"Tuban"},"geometry":{"type":"Point","coordinates":[112.2,-7.0]}},{"type":"Feature","properties":{"Line":"S102","Sp":"1392.5","X":"630300.5","Y":"9221075.3","NAMOBJ":"Mrutuk","WADMKC":"Widang","WADMKK":"Tuban"},"geometry":{"type":"Point","coordinates":[112.2,-7.0]}},{"type":"Feature","properties":{"Line":"S102","Sp":"1396.5","X":"630300.5","Y":"9221025.3","NAMOBJ":"Mrutuk","WADMKC":"Widang","WADMKK":"Tuban"},"geometry":{"type":"Point","coordinates":[112.2,-7.0]}},{"type":"Feature","properties":{"Line":"S102","Sp":"1400.5","X":"630300.5","Y":"9220975.3","NAMOBJ":"Mrutuk","WADMKC":"Widang","WADMKK":"Tuban"},"geometry":{"type":"Point","coordinates":[112.2,-7.0]}},{"type":"Feature","properties":{"Line":"S102","Sp":"1404.5","X":"630300.5","Y":"9220925.3","NAMOBJ":"Mrutuk","WADMKC":"Widang","WADMKK":"Tuban"},"geometry":{"type":"Point","coordinates":[112.2,-7.0]}},{"type":"Feature","properties":{"Line":"S102","Sp":"1408.5","X":"630300.5","Y":"9220875.3","NAMOBJ":"Mrutuk","WADMKC":"Widang","WADMKK":"Tuban"},"geometry":{"type":"Point","coordinates":[112.2,-7.0]}},{"type":"Feature","properties":{"Line":"S104","Sp":"1364.5","X":"631300.5","Y":"9222475.3","NAMOBJ":"Mrutuk","WADMKC":"Widang","WADMKK":"Tuban"},"geometry":{"type":"Point","coordinates":[112.2,-7.0]}},{"type":"Feature","properties":{"Line":"S104","Sp":"1368.5","X":"631300.5","Y":"9222425.3","NAMOBJ":"Mrutuk","WADMKC":"Widang","WADMKK":"Tuban"},"geometry":{"type":"Point","coordinates":[112.2,-7.0]}},{"type":"Feature","properties":{"Line":"S104","Sp":"1372.5","X":"631300.5","Y":"9222375.3","NAMOBJ":"Mrutuk","WADMKC":"Widang","WADMKK":"Tuban"},"geometry":{"type":"Point","coordinates":[112.2,-7.0]}},{"type":"Feature","properties":{"Line":"S104","Sp":"1376.5","X":"631300.5","Y":"9222325.3","NAMOBJ":"Mrutuk","WADMKC":"Widang","WADMKK":"Tuban"},"geometry":{"type":"Point","coordinates":[112.2,-7.0]}},{"type":"Feature","properties":{"Line":"S104","Sp":"1380.5","X":"631300.5","Y":"9222275.3","NAMOBJ":"Mrutuk","WADMKC":"Widang","WADMKK":"Tuban"},"geometry":{"type":"Point","coordinates":[112.2,-7.0]}},{"type":"Feature","properties":{"Line":"S104","Sp":"1384.5","X":"631300.5","Y":"9222225.3","NAMOBJ":"Mrutuk","WADMKC":"Widang","WADMKK":"Tuban"},"geometry":{"type":"Point","coordinates":[112.2,-7.0]}},{"type":"Feature","properties":{"Line":"S104","Sp":"1388.5","X":"631300.5","Y":"9222175.3","NAMOBJ":"Mrutuk","WADMKC":"Widang","WADMKK":"Tuban"},"geometry":{"type":"Point","coordinates":[112.2,-7.0]}},{"type":"Feature","properties":{"Line":"S104","Sp":"1392.5","X":"631300.5","Y":"9222125.3","NAMOBJ":"Mrutuk","WADMKC":"Widang","WADMKK":"Tuban"},"geometry":{"type":"Point","coordinates":[112.2,-7.0]}},{"type":"Feature","properties":{"Line":"S104","Sp":"1396.5","X":"631300.5","Y":"9222075.3","NAMOBJ":"Mrutuk","WADMKC":"Widang","WADMKK":"Tuban"},"geometry":{"type":"Point","coordinates":[112.2,-7.0]}},{"type":"Feature","properties":{"Line":"S104","Sp":"1400.5","X":"631300.5","Y":"9222025.3","NAMOBJ":"Mrutuk","WADMKC":"Widang","WADMKK":"Tuban"},"geometry":{"type":"Point","coordinates":[112.2,-7.0]}},{"type":"Feature","properties":{"Line":"S104","Sp":"1404.5","X":"631300.5","Y":"9221975.3","NAMOBJ":"Mrutuk","WADMKC":"Widang","WADMKK":"Tuban"},"geometry":{"type":"Point","coordinates":[112.2,-7.0]}},{"type":"Feature","properties":{"Line":"S104","Sp":"1408.5","X":"631300.5","Y":"9221925.3","NAMOBJ":"Mrutuk","WADMKC":"Widang","WADMKK":"Tuban"},"geometry":{"type":"Point","coordinates":[112.2,-7.0]}},{"type":"Feature","properties":{"Line":"S104","Sp":"1412.5","X":"631300.5","Y":"9221875.3","NAMOBJ":"Mrutuk","WADMKC":"Widang","WADMKK":"Tuban"},"geometry":{"type":"Point","coordinates":[112.2,-7.0]}},{"type":"Feature","properties":{"Line":"S104","Sp":"1416.5","X":"631300.5","Y":"9221825.3","NAMOBJ":"Mrutuk","WADMKC":"Widang","WADMKK":"Tuban"},"geometry":{"type":"Point","coordinates":[112.2,-7.0]}},{"type":"Feature","properties":{"Line":"S104","Sp":"1420.5","X":"631300.5","Y":"9221775.3","NAMOBJ":"Mrutuk","WADMKC":"Widang","WADMKK":"Tuban"},"geometry":{"type":"Point","coordinates":[112.2,-7.0]}},{"type":"Feature","properties":{"Line":"S104","Sp":"1424.5","X":"631300.5","Y":"9221725.3","NAMOBJ":"Mrutuk","WADMKC":"Widang","WADMKK":"Tuban"},"geometry":{"type":"Point","coordinates":[112.2,-7.0]}},{"type":"Feature","properties":{"Line":"S104","Sp":"1428.5","X":"631300.5","Y":"9221675.3","NAMOBJ":"Mrutuk","WADMKC":"Widang","WADMKK":"Tuban"},"geometry":{"type":"Point","coordinates":[112.2,-7.0]}},{"type":"Feature","properties":{"Line":"S104","Sp":"1432.5","X":"631300.5","Y":"9221625.3","NAMOBJ":"Mrutuk","WADMKC":"Widang","WADMKK":"Tuban"},"geometry":{"type":"Point","coordinates":[112.2,-7.0]}},{"type":"Feature","properties":{"Line":"S104","Sp":"1436.5","X":"631300.5","Y":"9221575.3","NAMOBJ":"Mrutuk","WADMKC":"Widang","WADMKK":"Tuban"},"geometry":{"type":"Point","coordinates":[112.2,-7.0]}},{"type":"Feature","properties":{"Line":"S104","Sp":"1440.5","X":"631300.5","Y":"9221525.3","NAMOBJ":"Mrutuk","WADMKC":"Widang","WADMKK":"Tuban"},"geometry":{"type":"Point","coordinates":[112.2,-7.0]}},{"type":"Feature","properties":{"Line":"S104","Sp":"1444.5","X":"631300.5","Y":"9221475.3","NAMOBJ":"Mrutuk","WADMKC":"Widang","WADMKK":"Tuban"},"geometry":{"type":"Point","coordinates":[112.2,-7.0]}},{"type":"Feature","properties":{"Line":"S104","Sp":"1448.5","X":"631300.5","Y":"9221425.3","NAMOBJ":"Mrutuk","WADMKC":"Widang","WADMKK":"Tuban"},"geometry":{"type":"Point","coordinates":[112.2,-7.0]}},{"type":"Feature","properties":{"Line":"S104","Sp":"1452.5","X":"631300.5","Y":"9221375.3","NAMOBJ":"Mrutuk","WADMKC":"Widang","WADMKK":"Tuban"},"geometry":{"type":"Point","coordinates":[112.2,-7.0]}},{"type":"Feature","properties":{"Line":"S104","Sp":"1456.5","X":"631300.5","Y":"9221325.3","NAMOBJ":"Mrutuk","WADMKC":"Widang","WADMKK":"Tuban"},"geometry":{"type":"Point","coordinates":[112.2,-7.0]}},{"type":"Feature","properties":{"Line":"S104","Sp":"1460.5","X":"631300.5","Y":"9221275.3","NAMOBJ":"Mrutuk","WADMKC":"Widang","WADMKK":"Tuban"},"geometry":{"type":"Point","coordinates":[112.2,-7.0]}},{"type":"Feature","properties":{"Line":"S104","Sp":"1464.5","X":"631300.5","Y":"9221225.3","NAMOBJ":"Mrutuk","WADMKC":"Widang","WADMKK":"Tuban"},"geometry":{"type":"Point","coordinates":[112.2,-7.0]}},{"type":"Feature","properties":{"Line":"S104","Sp":"1468.5","X":"631300.5","Y":"9221175.3","NAMOBJ":"Mrutuk","WADMKC":"Widang","WADMKK":"Tuban"},"geometry":{"type":"Point","coordinates":[112.2,-7.0]}},{"type":"Feature","properties":{"Line":"S125","Sp":"1368.5","X":"629725.5","Y":"9220800.3","NAMOBJ":"Mrutuk","WADMKC":"Widang","WADMKK":"Tuban"},"geometry":{"type":"Point","coordinates":[112.2,-7.0]}},{"type":"Feature","properties":{"Line":"S125","Sp":"1372.5","X":"629775.5","Y":"9220800.3","NAMOBJ":"Mrutuk","WADMKC":"Widang","WADMKK":"Tuban"},"geometry":{"type":"Point","coordinates":[112.2,-7.0]}},{"type":"Feature","properties":{"Line":"S125","Sp":"1376.5","X":"629825.5","Y":"9220800.3","NAMOBJ":"Mrutuk","WADMKC":"Widang","WADMKK":"Tuban"},"geometry":{"type":"Point","coordinates":[112.2,-7.0]}},{"type":"Feature","properties":{"Line":"S125","Sp":"1380.5","X":"629875.5","Y":"9220800.3","NAMOBJ":"Mrutuk","WADMKC":"Widang","WADMKK":"Tuban"},"geometry":{"type":"Point","coordinates":[112.2,-7.0]}},{"type":"Feature","properties":{"Line":"S125","Sp":"1384.5","X":"629925.5","Y":"9220800.3","NAMOBJ":"Mrutuk","WADMKC":"Widang","WADMKK":"Tuban"},"geometry":{"type":"Point","coordinates":[112.2,-7.0]}},{"type":"Feature","properties":{"Line":"S125","Sp":"1388.5","X":"629975.5","Y":"9220800.3","NAMOBJ":"Mrutuk","WADMKC":"Widang","WADMKK":"Tuban"},"geometry":{"type":"Point","coordinates":[112.2,-7.0]}},{"type":"Feature","properties":{"Line":"S125","Sp":"1392.5","X":"630025.5","Y":"9220800.3","NAMOBJ":"Mrutuk","WADMKC":"Widang","WADMKK":"Tuban"},"geometry":{"type":"Point","coordinates":[112.2,-7.0]}},{"type":"Feature","properties":{"Line":"S125","Sp":"1396.5","X":"630075.5","Y":"9220800.3","NAMOBJ":"Mrutuk","WADMKC":"Widang","WADMKK":"Tuban"},"geometry":{"type":"Point","coordinates":[112.2,-7.0]}},{"type":"Feature","properties":{"Line":"S125","Sp":"1400.5","X":"630125.5","Y":"9220800.3","NAMOBJ":"Mrutuk","WADMKC":"Widang","WADMKK":"Tuban"},"geometry":{"type":"Point","coordinates":[112.2,-7.0]}},{"type":"Feature","properties":{"Line":"S125","Sp":"1404.5","X":"630175.5","Y":"9220800.3","NAMOBJ":"Mrutuk","WADMKC":"Widang","WADMKK":"Tuban"},"geometry":{"type":"Point","coordinates":[112.2,-7.0]}},{"type":"Feature","properties":{"Line":"S104","Sp":"1360.5","X":"631300.5","Y":"9222525.3","NAMOBJ":"Simorejo","WADMKC":"Widang","WADMKK":"Tuban"},"geometry":{"type":"Point","coordinates":[112.2,-7.0]}},{"type":"Feature","properties":{"Line":"S106","Sp":"1360.5","X":"632300.5","Y":"9222725.3","NAMOBJ":"Simorejo","WADMKC":"Widang","WADMKK":"Tuban"},"geometry":{"type":"Point","coordinates":[112.2,-7.0]}},{"type":"Feature","properties":{"Line":"S106","Sp":"1364.5","X":"632300.5","Y":"9222675.3","NAMOBJ":"Simorejo","WADMKC":"Widang","WADMKK":"Tuban"},"geometry":{"type":"Point","coordinates":[112.2,-7.0]}},{"type":"Feature","properties":{"Line":"S106","Sp":"1368.5","X":"632300.5","Y":"9222625.3","NAMOBJ":"Simorejo","WADMKC":"Widang","WADMKK":"Tuban"},"geometry":{"type":"Point","coordinates":[112.2,-7.0]}},{"type":"Feature","properties":{"Line":"S106","Sp":"1372.5","X":"632300.5","Y":"9222575.3","NAMOBJ":"Simorejo","WADMKC":"Widang","WADMKK":"Tuban"},"geometry":{"type":"Point","coordinates":[112.2,-7.0]}},{"type":"Feature","properties":{"Line":"S106","Sp":"1376.5","X":"632300.5","Y":"9222525.3","NAMOBJ":"Simorejo","WADMKC":"Widang","WADMKK":"Tuban"},"geometry":{"type":"Point","coordinates":[112.2,-7.0]}},{"type":"Feature","properties":{"Line":"S106","Sp":"1380.5","X":"632300.5","Y":"9222475.3","NAMOBJ":"Simorejo","WADMKC":"Widang","WADMKK":"Tuban"},"geometry":{"type":"Point","coordinates":[112.2,-7.0]}},{"type":"Feature","properties":{"Line":"S106","Sp":"1384.5","X":"632300.5","Y":"9222425.3","NAMOBJ":"Simorejo","WADMKC":"Widang","WADMKK":"Tuban"},"geometry":{"type":"Point","coordinates":[112.2,-7.0]}},{"type":"Feature","properties":{"Line":"S106","Sp":"1388.5","X":"632300.5","Y":"9222375.3","NAMOBJ":"Simorejo","WADMKC":"Widang","WADMKK":"Tuban"},"geometry":{"type":"Point","coordinates":[112.2,-7.0]}},{"type":"Feature","properties":{"Line":"S106","Sp":"1392.5","X":"632300.5","Y":"9222325.3","NAMOBJ":"Simorejo","WADMKC":"Widang","WADMKK":"Tuban"},"geometry":{"type":"Point","coordinates":[112.2,-7.0]}},{"type":"Feature","properties":{"Line":"S106","Sp":"1396.5","X":"632300.5","Y":"9222275.3","NAMOBJ":"Simorejo","WADMKC":"Widang","WADMKK":"Tuban"},"geometry":{"type":"Point","coordinates":[112.2,-7.0]}},{"type":"Feature","properties":{"Line":"S106","Sp":"1400.5","X":"632300.5","Y":"9222225.3","NAMOBJ":"Simorejo","WADMKC":"Widang","WADMKK":"Tuban"},"geometry":{"type":"Point","coordinates":[112.2,-7.0]}},{"type":"Feature","properties":{"Line":"S106","Sp":"1404.5","X":"632300.5","Y":"9222175.3","NAMOBJ":"Simorejo","WADMKC":"Widang","WADMKK":"Tuban"},"geometry":{"type":"Point","coordinates":[112.2,-7.0]}},{"type":"Feature","properties":{"Line":"S106","Sp":"1408.5","X":"632300.5","Y":"9222125.3","NAMOBJ":"Simorejo","WADMKC":"Widang","WADMKK":"Tuban"},"geometry":{"type":"Point","coordinates":[112.2,-7.0]}},{"type":"Feature","properties":{"Line":"S106","Sp":"1412.5","X":"632300.5","Y":"9222075.3","NAMOBJ":"Simorejo","WADMKC":"Widang","WADMKK":"Tuban"},"geometry":{"type":"Point","coordinates":[112.2,-7.0]}},{"type":"Feature","properties":{"Line":"S106","Sp":"1416.5","X":"632300.5","Y":"9222025.3","NAMOBJ":"Simorejo","WADMKC":"Widang","WADMKK":"Tuban"},"geometry":{"type":"Point","coordinates":[112.2,-7.0]}},{"type":"Feature","properties":{"Line":"S106","Sp":"1420.5","X":"632300.5","Y":"9221975.3","NAMOBJ":"Simorejo","WADMKC":"Widang","WADMKK":"Tuban"},"geometry":{"type":"Point","coordinates":[112.2,-7.0]}},{"type":"Feature","properties":{"Line":"S106","Sp":"1424.5","X":"632300.5","Y":"9221925.3","NAMOBJ":"Simorejo","WADMKC":"Widang","WADMKK":"Tuban"},"geometry":{"type":"Point","coordinates":[112.2,-7.0]}},{"type":"Feature","properties":{"Line":"S106","Sp":"1428.5","X":"632300.5","Y":"9221875.3","NAMOBJ":"Simorejo","WADMKC":"Widang","WADMKK":"Tuban"},"geometry":{"type":"Point","coordinates":[112.2,-7.0]}},{"type":"Feature","properties":{"Line":"S106","Sp":"1432.5","X":"632300.5","Y":"9221825.3","NAMOBJ":"Simorejo","WADMKC":"Widang","WADMKK":"Tuban"},"geometry":{"type":"Point","coordinates":[112.2,-7.0]}},{"type":"Feature","properties":{"Line":"S106","Sp":"1436.5","X":"632300.5","Y":"9221775.3","NAMOBJ":"Simorejo","WADMKC":"Widang","WADMKK":"Tuban"},"geometry":{"type":"Point","coordinates":[112.2,-7.0]}},{"type":"Feature","properties":{"Line":"S106","Sp":"1440.5","X":"632300.5","Y":"9221725.3","NAMOBJ":"Simorejo","WADMKC":"Widang","WADMKK":"Tuban"},"geometry":{"type":"Point","coordinates":[112.2,-7.0]}},{"type":"Feature","properties":{"Line":"S106","Sp":"1444.5","X":"632300.5","Y":"9221675.3","NAMOBJ":"Simorejo","WADMKC":"Widang","WADMKK":"Tuban"},"geometry":{"type":"Point","coordinates":[112.2,-7.0]}},{"type":"Feature","properties":{"Line":"S106","Sp":"1448.5","X":"632300.5","Y":"9221625.3","NAMOBJ":"Simorejo","WADMKC":"Widang","WADMKK":"Tuban"},"geometry":{"type":"Point","coordinates":[112.2,-7.0]}},{"type":"Feature","properties":{"Line":"S106","Sp":"1452.5","X":"632300.5","Y":"9221575.3","NAMOBJ":"Simorejo","WADMKC":"Widang","WADMKK":"Tuban"},"geometry":{"type":"Point","coordinates":[112.2,-7.0]}},{"type":"Feature","properties":{"Line":"S106","Sp":"1456.5","X":"632300.5","Y":"9221525.3","NAMOBJ":"Simorejo","WADMKC":"Widang","WADMKK":"Tuban"},"geometry":{"type":"Point","coordinates":[112.2,-7.0]}},{"type":"Feature","properties":{"Line":"S106","Sp":"1460.5","X":"632300.5","Y":"9221475.3","NAMOBJ":"Simorejo","WADMKC":"Widang","WADMKK":"Tuban"},"geometry":{"type":"Point","coordinates":[112.2,-7.0]}},{"type":"Feature","properties":{"Line":"S106","Sp":"1464.5","X":"632300.5","Y":"9221425.3","NAMOBJ":"Simorejo","WADMKC":"Widang","WADMKK":"Tuban"},"geometry":{"type":"Point","coordinates":[112.2,-7.0]}},{"type":"Feature","properties":{"Line":"S106","Sp":"1468.5","X":"632300.5","Y":"9221375.3","NAMOBJ":"Simorejo","WADMKC":"Widang","WADMKK":"Tuban"},"geometry":{"type":"Point","coordinates":[112.2,-7.0]}},{"type":"Feature","properties":{"Line":"S106","Sp":"1472.5","X":"632300.5","Y":"9221325.3","NAMOBJ":"Simorejo","WADMKC":"Widang","WADMKK":"Tuban"},"geometry":{"type":"Point","coordinates":[112.2,-7.0]}},{"type":"Feature","properties":{"Line":"S106","Sp":"1476.5","X":"632300.5","Y":"9221275.3","NAMOBJ":"Simorejo","WADMKC":"Widang","WADMKK":"Tuban"},"geometry":{"type":"Point","coordinates":[112.2,-7.0]}},{"type":"Feature","properties":{"Line":"S106","Sp":"1480.5","X":"632300.5","Y":"9221225.3","NAMOBJ":"Simorejo","WADMKC":"Widang","WADMKK":"Tuban"},"geometry":{"type":"Point","coordinates":[112.2,-7.0]}},{"type":"Feature","properties":{"Line":"S106","Sp":"1484.5","X":"632300.5","Y":"9221175.3","NAMOBJ":"Simorejo","WADMKC":"Widang","WADMKK":"Tuban"},"geometry":{"type":"Point","coordinates":[112.2,-7.0]}},{"type":"Feature","properties":{"Line":"S106","Sp":"1488.5","X":"632300.5","Y":"9221125.3","NAMOBJ":"Simorejo","WADMKC":"Widang","WADMKK":"Tuban"},"geometry":{"type":"Point","coordinates":[112.2,-7.0]}},{"type":"Feature","properties":{"Line":"S106","Sp":"1492.5","X":"632300.5","Y":"9221075.3","NAMOBJ":"Simorejo","WADMKC":"Widang","WADMKK":"Tuban"},"geometry":{"type":"Point","coordinates":[112.2,-7.0]}},{"type":"Feature","properties":{"Line":"S106","Sp":"1496.5","X":"632300.5","Y":"9221025.3","NAMOBJ":"Simorejo","WADMKC":"Widang","WADMKK":"Tuban"},"geometry":{"type":"Point","coordinates":[112.2,-7.0]}},{"type":"Feature","properties":{"Line":"S106","Sp":"1500.5","X":"632300.5","Y":"9220975.3","NAMOBJ":"Simorejo","WADMKC":"Widang","WADMKK":"Tuban"},"geometry":{"type":"Point","coordinates":[112.2,-7.0]}},{"type":"Feature","properties":{"Line":"S106","Sp":"1504.5","X":"632300.5","Y":"9220925.3","NAMOBJ":"Simorejo","WADMKC":"Widang","WADMKK":"Tuban"},"geometry":{"type":"Point","coordinates":[112.2,-7.0]}},{"type":"Feature","properties":{"Line":"S106","Sp":"1508.5","X":"632300.5","Y":"9220875.3","NAMOBJ":"Simorejo","WADMKC":"Widang","WADMKK":"Tuban"},"geometry":{"type":"Point","coordinates":[112.2,-7.0]}},{"type":"Feature","properties":{"Line":"S106","Sp":"1512.5","X":"632300.5","Y":"9220825.3","NAMOBJ":"Simorejo","WADMKC":"Widang","WADMKK":"Tuban"},"geometry":{"type":"Point","coordinates":[112.2,-7.0]}},{"type":"Feature","properties":{"Line":"S106","Sp":"1516.5","X":"632300.5","Y":"9220775.3","NAMOBJ":"Simorejo","WADMKC":"Widang","WADMKK":"Tuban"},"geometry":{"type":"Point","coordinates":[112.2,-7.0]}},{"type":"Feature","properties":{"Line":"S106","Sp":"1520.5","X":"632300.5","Y":"9220725.3","NAMOBJ":"Simorejo","WADMKC":"Widang","WADMKK":"Tuban"},"geometry":{"type":"Point","coordinates":[112.2,-7.0]}},{"type":"Feature","properties":{"Line":"S106","Sp":"1524.5","X":"632300.5","Y":"9220675.3","NAMOBJ":"Simorejo","WADMKC":"Widang","WADMKK":"Tuban"},"geometry":{"type":"Point","coordinates":[112.2,-7.0]}},{"type":"Feature","properties":{"Line":"S106","Sp":"1528.5","X":"632300.5","Y":"9220625.3","NAMOBJ":"Simorejo","WADMKC":"Widang","WADMKK":"Tuban"},"geometry":{"type":"Point","coordinates":[112.2,-7.0]}},{"type":"Feature","properties":{"Line":"S106","Sp":"1532.5","X":"632300.5","Y":"9220575.3","NAMOBJ":"Simorejo","WADMKC":"Widang","WADMKK":"Tuban"},"geometry":{"type":"Point","coordinates":[112.2,-7.0]}},{"type":"Feature","properties":{"Line":"S108","Sp":"1376.5","X":"633300.5","Y":"9222325.3","NAMOBJ":"Simorejo","WADMKC":"Widang","WADMKK":"Tuban"},"geometry":{"type":"Point","coordinates":[112.2,-7.0]}},{"type":"Feature","properties":{"Line":"S108","Sp":"1380.5","X":"633300.5","Y":"9222275.3","NAMOBJ":"Simorejo","WADMKC":"Widang","WADMKK":"Tuban"},"geometry":{"type":"Point","coordinates":[112.2,-7.0]}},{"type":"Feature","properties":{"Line":"S108","Sp":"1384.5","X":"633300.5","Y":"9222225.3","NAMOBJ":"Simorejo","WADMKC":"Widang","WADMKK":"Tuban"},"geometry":{"type":"Point","coordinates":[112.2,-7.0]}},{"type":"Feature","properties":{"Line":"S108","Sp":"1388.5","X":"633300.5","Y":"9222175.3","NAMOBJ":"Simorejo","WADMKC":"Widang","WADMKK":"Tuban"},"geometry":{"type":"Point","coordinates":[112.2,-7.0]}},{"type":"Feature","properties":{"Line":"S108","Sp":"1392.5","X":"633300.5","Y":"9222125.3","NAMOBJ":"Simorejo","WADMKC":"Widang","WADMKK":"Tuban"},"geometry":{"type":"Point","coordinates":[112.2,-7.0]}},{"type":"Feature","properties":{"Line":"S108","Sp":"1396.5","X":"633300.5","Y":"9222075.3","NAMOBJ":"Simorejo","WADMKC":"Widang","WADMKK":"Tuban"},"geometry":{"type":"Point","coordinates":[112.2,-7.0]}},{"type":"Feature","properties":{"Line":"S108","Sp":"1400.5","X":"633300.5","Y":"9222025.3","NAMOBJ":"Simorejo","WADMKC":"Widang","WADMKK":"Tuban"},"geometry":{"type":"Point","coordinates":[112.2,-7.0]}},{"type":"Feature","properties":{"Line":"S108","Sp":"1404.5","X":"633300.5","Y":"9221975.3","NAMOBJ":"Simorejo","WADMKC":"Widang","WADMKK":"Tuban"},"geometry":{"type":"Point","coordinates":[112.2,-7.0]}},{"type":"Feature","properties":{"Line":"S108","Sp":"1408.5","X":"633300.5","Y":"9221925.3","NAMOBJ":"Simorejo","WADMKC":"Widang","WADMKK":"Tuban"},"geometry":{"type":"Point","coordinates":[112.2,-7.0]}},{"type":"Feature","properties":{"Line":"S108","Sp":"1412.5","X":"633300.5","Y":"9221875.3","NAMOBJ":"Simorejo","WADMKC":"Widang","WADMKK":"Tuban"},"geometry":{"type":"Point","coordinates":[112.2,-7.0]}},{"type":"Feature","properties":{"Line":"S108","Sp":"1416.5","X":"633300.5","Y":"9221825.3","NAMOBJ":"Simorejo","WADMKC":"Widang","WADMKK":"Tuban"},"geometry":{"type":"Point","coordinates":[112.2,-7.0]}},{"type":"Feature","properties":{"Line":"S108","Sp":"1420.5","X":"633300.5","Y":"9221775.3","NAMOBJ":"Simorejo","WADMKC":"Widang","WADMKK":"Tuban"},"geometry":{"type":"Point","coordinates":[112.2,-7.0]}},{"type":"Feature","properties":{"Line":"S108","Sp":"1424.5","X":"633300.5","Y":"9221725.3","NAMOBJ":"Simorejo","WADMKC":"Widang","WADMKK":"Tuban"},"geometry":{"type":"Point","coordinates":[112.2,-7.0]}},{"type":"Feature","properties":{"Line":"S108","Sp":"1428.5","X":"633300.5","Y":"9221675.3","NAMOBJ":"Simorejo","WADMKC":"Widang","WADMKK":"Tuban"},"geometry":{"type":"Point","coordinates":[112.2,-7.0]}},{"type":"Feature","properties":{"Line":"S108","Sp":"1432.5","X":"633300.5","Y":"9221625.3","NAMOBJ":"Simorejo","WADMKC":"Widang","WADMKK":"Tuban"},"geometry":{"type":"Point","coordinates":[112.2,-7.0]}},{"type":"Feature","properties":{"Line":"S108","Sp":"1436.5","X":"633300.5","Y":"9221575.3","NAMOBJ":"Simorejo","WADMKC":"Widang","WADMKK":"Tuban"},"geometry":{"type":"Point","coordinates":[112.2,-7.0]}},{"type":"Feature","properties":{"Line":"S108","Sp":"1440.5","X":"633300.5","Y":"9221525.3","NAMOBJ":"Simorejo","WADMKC":"Widang","WADMKK":"Tuban"},"geometry":{"type":"Point","coordinates":[112.2,-7.0]}},{"type":"Feature","properties":{"Line":"S108","Sp":"1444.5","X":"633300.5","Y":"9221475.3","NAMOBJ":"Simorejo","WADMKC":"Widang","WADMKK":"Tuban"},"geometry":{"type":"Point","coordinates":[112.2,-7.0]}},{"type":"Feature","properties":{"Line":"S108","Sp":"1448.5","X":"633300.5","Y":"9221425.3","NAMOBJ":"Simorejo","WADMKC":"Widang","WADMKK":"Tuban"},"geometry":{"type":"Point","coordinates":[112.2,-7.0]}},{"type":"Feature","properties":{"Line":"S108","Sp":"1452.5","X":"633300.5","Y":"9221375.3","NAMOBJ":"Simorejo","WADMKC":"Widang","WADMKK":"Tuban"},"geometry":{"type":"Point","coordinates":[112.2,-7.0]}},{"type":"Feature","properties":{"Line":"S108","Sp":"1456.5","X":"633300.5","Y":"9221325.3","NAMOBJ":"Simorejo","WADMKC":"Widang","WADMKK":"Tuban"},"geometry":{"type":"Point","coordinates":[112.2,-7.0]}},{"type":"Feature","properties":{"Line":"S108","Sp":"1460.5","X":"633300.5","Y":"9221275.3","NAMOBJ":"Simorejo","WADMKC":"Widang","WADMKK":"Tuban"},"geometry":{"type":"Point","coordinates":[112.2,-7.0]}},{"type":"Feature","properties":{"Line":"S108","Sp":"1464.5","X":"633300.5","Y":"9221225.3","NAMOBJ":"Simorejo","WADMKC":"Widang","WADMKK":"Tuban"},"geometry":{"type":"Point","coordinates":[112.2,-7.0]}},{"type":"Feature","properties":{"Line":"S108","Sp":"1468.5","X":"633300.5","Y":"9221175.3","NAMOBJ":"Simorejo","WADMKC":"Widang","WADMKK":"Tuban"},"geometry":{"type":"Point","coordinates":[112.2,-7.0]}},{"type":"Feature","properties":{"Line":"S108","Sp":"1472.5","X":"633300.5","Y":"9221125.3","NAMOBJ":"Simorejo","WADMKC":"Widang","WADMKK":"Tuban"},"geometry":{"type":"Point","coordinates":[112.2,-7.0]}},{"type":"Feature","properties":{"Line":"S108","Sp":"1476.5","X":"633300.5","Y":"9221075.3","NAMOBJ":"Simorejo","WADMKC":"Widang","WADMKK":"Tuban"},"geometry":{"type":"Point","coordinates":[112.2,-7.0]}},{"type":"Feature","properties":{"Line":"S108","Sp":"1480.5","X":"633300.5","Y":"9221025.3","NAMOBJ":"Simorejo","WADMKC":"Widang","WADMKK":"Tuban"},"geometry":{"type":"Point","coordinates":[112.2,-7.0]}},{"type":"Feature","properties":{"Line":"S108","Sp":"1484.5","X":"633300.5","Y":"9220975.3","NAMOBJ":"Simorejo","WADMKC":"Widang","WADMKK":"Tuban"},"geometry":{"type":"Point","coordinates":[112.2,-7.0]}},{"type":"Feature","properties":{"Line":"S108","Sp":"1488.5","X":"633300.5","Y":"9220925.3","NAMOBJ":"Simorejo","WADMKC":"Widang","WADMKK":"Tuban"},"geometry":{"type":"Point","coordinates":[112.2,-7.0]}},{"type":"Feature","properties":{"Line":"S108","Sp":"1492.5","X":"633300.5","Y":"9220875.3","NAMOBJ":"Simorejo","WADMKC":"Widang","WADMKK":"Tuban"},"geometry":{"type":"Point","coordinates":[112.2,-7.0]}},{"type":"Feature","properties":{"Line":"S108","Sp":"1496.5","X":"633300.5","Y":"9220825.3","NAMOBJ":"Simorejo","WADMKC":"Widang","WADMKK":"Tuban"},"geometry":{"type":"Point","coordinates":[112.2,-7.0]}},{"type":"Feature","properties":{"Line":"S108","Sp":"1500.5","X":"633300.5","Y":"9220775.3","NAMOBJ":"Simorejo","WADMKC":"Widang","WADMKK":"Tuban"},"geometry":{"type":"Point","coordinates":[112.2,-7.0]}},{"type":"Feature","properties":{"Line":"S108","Sp":"1504.5","X":"633300.5","Y":"9220725.3","NAMOBJ":"Simorejo","WADMKC":"Widang","WADMKK":"Tuban"},"geometry":{"type":"Point","coordinates":[112.2,-7.0]}},{"type":"Feature","properties":{"Line":"S108","Sp":"1508.5","X":"633300.5","Y":"9220675.3","NAMOBJ":"Simorejo","WADMKC":"Widang","WADMKK":"Tuban"},"geometry":{"type":"Point","coordinates":[112.2,-7.0]}},{"type":"Feature","properties":{"Line":"S108","Sp":"1512.5","X":"633300.5","Y":"9220625.3","NAMOBJ":"Simorejo","WADMKC":"Widang","WADMKK":"Tuban"},"geometry":{"type":"Point","coordinates":[112.2,-7.0]}},{"type":"Feature","properties":{"Line":"S108","Sp":"1516.5","X":"633300.5","Y":"9220575.3","NAMOBJ":"Simorejo","WADMKC":"Widang","WADMKK":"Tuban"},"geometry":{"type":"Point","coordinates":[112.2,-7.0]}},{"type":"Feature","properties":{"Line":"S110","Sp":"1416.5","X":"634300.5","Y":"9222125.3","NAMOBJ":"Simorejo","WADMKC":"Widang","WADMKK":"Tuban"},"geometry":{"type":"Point","coordinates":[112.2,-7.0]}},{"type":"Feature","properties":{"Line":"S110","Sp":"1420.5","X":"634300.5","Y":"9222075.3","NAMOBJ":"Simorejo","WADMKC":"Widang","WADMKK":"Tuban"},"geometry":{"type":"Point","coordinates":[112.2,-7.0]}},{"type":"Feature","properties":{"Line":"S110","Sp":"1424.5","X":"634300.5","Y":"9222025.3","NAMOBJ":"Simorejo","WADMKC":"Widang","WADMKK":"Tuban"},"geometry":{"type":"Point","coordinates":[112.2,-7.0]}},{"type":"Feature","properties":{"Line":"S110","Sp":"1428.5","X":"634300.5","Y":"9221975.3","NAMOBJ":"Simorejo","WADMKC":"Widang","WADMKK":"Tuban"},"geometry":{"type":"Point","coordinates":[112.2,-7.0]}},{"type":"Feature","properties":{"Line":"S110","Sp":"1432.5","X":"634300.5","Y":"9221925.3","NAMOBJ":"Simorejo","WADMKC":"Widang","WADMKK":"Tuban"},"geometry":{"type":"Point","coordinates":[112.2,-7.0]}},{"type":"Feature","properties":{"Line":"S110","Sp":"1436.5","X":"634300.5","Y":"9221875.3","NAMOBJ":"Simorejo","WADMKC":"Widang","WADMKK":"Tuban"},"geometry":{"type":"Point","coordinates":[112.2,-7.0]}},{"type":"Feature","properties":{"Line":"S110","Sp":"1440.5","X":"634300.5","Y":"9221825.3","NAMOBJ":"Simorejo","WADMKC":"Widang","WADMKK":"Tuban"},"geometry":{"type":"Point","coordinates":[112.2,-7.0]}},{"type":"Feature","properties":{"Line":"S110","Sp":"1444.5","X":"634300.5","Y":"9221775.3","NAMOBJ":"Simorejo","WADMKC":"Widang","WADMKK":"Tuban"},"geometry":{"type":"Point","coordinates":[112.2,-7.0]}},{"type":"Feature","properties":{"Line":"S110","Sp":"1448.5","X":"634300.5","Y":"9221725.3","NAMOBJ":"Simorejo","WADMKC":"Widang","WADMKK":"Tuban"},"geometry":{"type":"Point","coordinates":[112.2,-7.0]}},{"type":"Feature","properties":{"Line":"S110","Sp":"1452.5","X":"634300.5","Y":"9221675.3","NAMOBJ":"Simorejo","WADMKC":"Widang","WADMKK":"Tuban"},"geometry":{"type":"Point","coordinates":[112.2,-7.0]}},{"type":"Feature","properties":{"Line":"S110","Sp":"1456.5","X":"634300.5","Y":"9221625.3","NAMOBJ":"Simorejo","WADMKC":"Widang","WADMKK":"Tuban"},"geometry":{"type":"Point","coordinates":[112.2,-7.0]}},{"type":"Feature","properties":{"Line":"S110","Sp":"1460.5","X":"634300.5","Y":"9221575.3","NAMOBJ":"Simorejo","WADMKC":"Widang","WADMKK":"Tuban"},"geometry":{"type":"Point","coordinates":[112.2,-7.0]}},{"type":"Feature","properties":{"Line":"S110","Sp":"1464.5","X":"634300.5","Y":"9221525.3","NAMOBJ":"Simorejo","WADMKC":"Widang","WADMKK":"Tuban"},"geometry":{"type":"Point","coordinates":[112.2,-7.0]}},{"type":"Feature","properties":{"Line":"S110","Sp":"1468.5","X":"634300.5","Y":"9221475.3","NAMOBJ":"Simorejo","WADMKC":"Widang","WADMKK":"Tuban"},"geometry":{"type":"Point","coordinates":[112.2,-7.0]}},{"type":"Feature","properties":{"Line":"S110","Sp":"1472.5","X":"634300.5","Y":"9221425.3","NAMOBJ":"Simorejo","WADMKC":"Widang","WADMKK":"Tuban"},"geometry":{"type":"Point","coordinates":[112.2,-7.0]}},{"type":"Feature","properties":{"Line":"S125","Sp":"1540.5","X":"631875.5","Y":"9220800.3","NAMOBJ":"Simorejo","WADMKC":"Widang","WADMKK":"Tuban"},"geometry":{"type":"Point","coordinates":[112.2,-7.0]}},{"type":"Feature","properties":{"Line":"S125","Sp":"1544.5","X":"631925.5","Y":"9220800.3","NAMOBJ":"Simorejo","WADMKC":"Widang","WADMKK":"Tuban"},"geometry":{"type":"Point","coordinates":[112.2,-7.0]}},{"type":"Feature","properties":{"Line":"S125","Sp":"1548.5","X":"631975.5","Y":"9220800.3","NAMOBJ":"Simorejo","WADMKC":"Widang","WADMKK":"Tuban"},"geometry":{"type":"Point","coordinates":[112.2,-7.0]}},{"type":"Feature","properties":{"Line":"S125","Sp":"1552.5","X":"632025.5","Y":"9220800.3","NAMOBJ":"Simorejo","WADMKC":"Widang","WADMKK":"Tuban"},"geometry":{"type":"Point","coordinates":[112.2,-7.0]}},{"type":"Feature","properties":{"Line":"S125","Sp":"1556.5","X":"632075.5","Y":"9220800.3","NAMOBJ":"Simorejo","WADMKC":"Widang","WADMKK":"Tuban"},"geometry":{"type":"Point","coordinates":[112.2,-7.0]}},{"type":"Feature","properties":{"Line":"S125","Sp":"1560.5","X":"632125.5","Y":"9220800.3","NAMOBJ":"Simorejo","WADMKC":"Widang","WADMKK":"Tuban"},"geometry":{"type":"Point","coordinates":[112.2,-7.0]}},{"type":"Feature","properties":{"Line":"S125","Sp":"1564.5","X":"632175.5","Y":"9220800.3","NAMOBJ":"Simorejo","WADMKC":"Widang","WADMKK":"Tuban"},"geometry":{"type":"Point","coordinates":[112.2,-7.0]}},{"type":"Feature","properties":{"Line":"S125","Sp":"1568.5","X":"632225.5","Y":"9220800.3","NAMOBJ":"Simorejo","WADMKC":"Widang","WADMKK":"Tuban"},"geometry":{"type":"Point","coordinates":[112.2,-7.0]}},{"type":"Feature","properties":{"Line":"S125","Sp":"1572.5","X":"632275.5","Y":"9220800.3","NAMOBJ":"Simorejo","WADMKC":"Widang","WADMKK":"Tuban"},"geometry":{"type":"Point","coordinates":[112.2,-7.0]}},{"type":"Feature","properties":{"Line":"S125","Sp":"1576.5","X":"632325.5","Y":"9220800.3","NAMOBJ":"Simorejo","WADMKC":"Widang","WADMKK":"Tuban"},"geometry":{"type":"Point","coordinates":[112.2,-7.0]}},{"type":"Feature","properties":{"Line":"S125","Sp":"1580.5","X":"632375.5","Y":"9220800.3","NAMOBJ":"Simorejo","WADMKC":"Widang","WADMKK":"Tuban"},"geometry":{"type":"Point","coordinates":[112.2,-7.0]}},{"type":"Feature","properties":{"Line":"S125","Sp":"1584.5","X":"632425.5","Y":"9220800.3","NAMOBJ":"Simorejo","WADMKC":"Widang","WADMKK":"Tuban"},"geometry":{"type":"Point","coordinates":[112.2,-7.0]}},{"type":"Feature","properties":{"Line":"S125","Sp":"1588.5","X":"632475.5","Y":"9220800.3","NAMOBJ":"Simorejo","WADMKC":"Widang","WADMKK":"Tuban"},"geometry":{"type":"Point","coordinates":[112.2,-7.0]}},{"type":"Feature","properties":{"Line":"S125","Sp":"1592.5","X":"632525.5","Y":"9220800.3","NAMOBJ":"Simorejo","WADMKC":"Widang","WADMKK":"Tuban"},"geometry":{"type":"Point","coordinates":[112.2,-7.0]}},{"type":"Feature","properties":{"Line":"S125","Sp":"1596.5","X":"632575.5","Y":"9220800.3","NAMOBJ":"Simorejo","WADMKC":"Widang","WADMKK":"Tuban"},"geometry":{"type":"Point","coordinates":[112.2,-7.0]}},{"type":"Feature","properties":{"Line":"S125","Sp":"1600.5","X":"632625.5","Y":"9220800.3","NAMOBJ":"Simorejo","WADMKC":"Widang","WADMKK":"Tuban"},"geometry":{"type":"Point","coordinates":[112.2,-7.0]}},{"type":"Feature","properties":{"Line":"S125","Sp":"1604.5","X":"632675.5","Y":"9220800.3","NAMOBJ":"Simorejo","WADMKC":"Widang","WADMKK":"Tuban"},"geometry":{"type":"Point","coordinates":[112.2,-7.0]}},{"type":"Feature","properties":{"Line":"S125","Sp":"1608.5","X":"632725.5","Y":"9220800.3","NAMOBJ":"Simorejo","WADMKC":"Widang","WADMKK":"Tuban"},"geometry":{"type":"Point","coordinates":[112.2,-7.0]}},{"type":"Feature","properties":{"Line":"S125","Sp":"1612.5","X":"632775.5","Y":"9220800.3","NAMOBJ":"Simorejo","WADMKC":"Widang","WADMKK":"Tuban"},"geometry":{"type":"Point","coordinates":[112.2,-7.0]}},{"type":"Feature","properties":{"Line":"S125","Sp":"1616.5","X":"632825.5","Y":"9220800.3","NAMOBJ":"Simorejo","WADMKC":"Widang","WADMKK":"Tuban"},"geometry":{"type":"Point","coordinates":[112.2,-7.0]}},{"type":"Feature","properties":{"Line":"S125","Sp":"1620.5","X":"632875.5","Y":"9220800.3","NAMOBJ":"Simorejo","WADMKC":"Widang","WADMKK":"Tuban"},"geometry":{"type":"Point","coordinates":[112.2,-7.0]}},{"type":"Feature","properties":{"Line":"S125","Sp":"1624.5","X":"632925.5","Y":"9220800.3","NAMOBJ":"Simorejo","WADMKC":"Widang","WADMKK":"Tuban"},"geometry":{"type":"Point","coordinates":[112.2,-7.0]}},{"type":"Feature","properties":{"Line":"S125","Sp":"1628.5","X":"632975.5","Y":"9220800.3","NAMOBJ":"Simorejo","WADMKC":"Widang","WADMKK":"Tuban"},"geometry":{"type":"Point","coordinates":[112.2,-7.0]}},{"type":"Feature","properties":{"Line":"S125","Sp":"1632.5","X":"633025.5","Y":"9220800.3","NAMOBJ":"Simorejo","WADMKC":"Widang","WADMKK":"Tuban"},"geometry":{"type":"Point","coordinates":[112.2,-7.0]}},{"type":"Feature","properties":{"Line":"S125","Sp":"1636.5","X":"633075.5","Y":"9220800.3","NAMOBJ":"Simorejo","WADMKC":"Widang","WADMKK":"Tuban"},"geometry":{"type":"Point","coordinates":[112.2,-7.0]}},{"type":"Feature","properties":{"Line":"S125","Sp":"1640.5","X":"633125.5","Y":"9220800.3","NAMOBJ":"Simorejo","WADMKC":"Widang","WADMKK":"Tuban"},"geometry":{"type":"Point","coordinates":[112.2,-7.0]}},{"type":"Feature","properties":{"Line":"S125","Sp":"1644.5","X":"633175.5","Y":"9220800.3","NAMOBJ":"Simorejo","WADMKC":"Widang","WADMKK":"Tuban"},"geometry":{"type":"Point","coordinates":[112.2,-7.0]}},{"type":"Feature","properties":{"Line":"S125","Sp":"1648.5","X":"633225.5","Y":"9220800.3","NAMOBJ":"Simorejo","WADMKC":"Widang","WADMKK":"Tuban"},"geometry":{"type":"Point","coordinates":[112.2,-7.0]}},{"type":"Feature","properties":{"Line":"S125","Sp":"1652.5","X":"633275.5","Y":"9220800.3","NAMOBJ":"Simorejo","WADMKC":"Widang","WADMKK":"Tuban"},"geometry":{"type":"Point","coordinates":[112.2,-7.0]}},{"type":"Feature","properties":{"Line":"S125","Sp":"1656.5","X":"633325.5","Y":"9220800.3","NAMOBJ":"Simorejo","WADMKC":"Widang","WADMKK":"Tuban"},"geometry":{"type":"Point","coordinates":[112.2,-7.0]}},{"type":"Feature","properties":{"Line":"S125","Sp":"1660.5","X":"633375.5","Y":"9220800.3","NAMOBJ":"Simorejo","WADMKC":"Widang","WADMKK":"Tuban"},"geometry":{"type":"Point","coordinates":[112.2,-7.0]}},{"type":"Feature","properties":{"Line":"S125","Sp":"1664.5","X":"633425.5","Y":"9220800.3","NAMOBJ":"Simorejo","WADMKC":"Widang","WADMKK":"Tuban"},"geometry":{"type":"Point","coordinates":[112.2,-7.0]}},{"type":"Feature","properties":{"Line":"S125","Sp":"1668.5","X":"633475.5","Y":"9220800.3","NAMOBJ":"Simorejo","WADMKC":"Widang","WADMKK":"Tuban"},"geometry":{"type":"Point","coordinates":[112.2,-7.0]}},{"type":"Feature","properties":{"Line":"S125","Sp":"1672.5","X":"633525.5","Y":"9220800.3","NAMOBJ":"Simorejo","WADMKC":"Widang","WADMKK":"Tuban"},"geometry":{"type":"Point","coordinates":[112.2,-7.0]}},{"type":"Feature","properties":{"Line":"S125","Sp":"1676.5","X":"633575.5","Y":"9220800.3","NAMOBJ":"Simorejo","WADMKC":"Widang","WADMKK":"Tuban"},"geometry":{"type":"Point","coordinates":[112.2,-7.0]}},{"type":"Feature","properties":{"Line":"S125","Sp":"1680.5","X":"633625.5","Y":"9220800.3","NAMOBJ":"Simorejo","WADMKC":"Widang","WADMKK":"Tuban"},"geometry":{"type":"Point","coordinates":[112.2,-7.0]}},{"type":"Feature","properties":{"Line":"S125","Sp":"1684.5","X":"633675.5","Y":"9220800.3","NAMOBJ":"Simorejo","WADMKC":"Widang","WADMKK":"Tuban"},"geometry":{"type":"Point","coordinates":[112.2,-7.0]}},{"type":"Feature","properties":{"Line":"S125","Sp":"1688.5","X":"633725.5","Y":"9220800.3","NAMOBJ":"Simorejo","WADMKC":"Widang","WADMKK":"Tuban"},"geometry":{"type":"Point","coordinates":[112.2,-7.0]}},{"type":"Feature","properties":{"Line":"S125","Sp":"1692.5","X":"633775.5","Y":"9220800.3","NAMOBJ":"Simorejo","WADMKC":"Widang","WADMKK":"Tuban"},"geometry":{"type":"Point","coordinates":[112.2,-7.0]}},{"type":"Feature","properties":{"Line":"S125","Sp":"1696.5","X":"633825.5","Y":"9220800.3","NAMOBJ":"Simorejo","WADMKC":"Widang","WADMKK":"Tuban"},"geometry":{"type":"Point","coordinates":[112.2,-7.0]}},{"type":"Feature","properties":{"Line":"S125","Sp":"1700.5","X":"633875.5","Y":"9220800.3","NAMOBJ":"Simorejo","WADMKC":"Widang","WADMKK":"Tuban"},"geometry":{"type":"Point","coordinates":[112.2,-7.0]}},{"type":"Feature","properties":{"Line":"S125","Sp":"1704.5","X":"633925.5","Y":"9220800.3","NAMOBJ":"Simorejo","WADMKC":"Widang","WADMKK":"Tuban"},"geometry":{"type":"Point","coordinates":[112.2,-7.0]}},{"type":"Feature","properties":{"Line":"S125","Sp":"1708.5","X":"633975.5","Y":"9220800.3","NAMOBJ":"Simorejo","WADMKC":"Widang","WADMKK":"Tuban"},"geometry":{"type":"Point","coordinates":[112.2,-7.0]}},{"type":"Feature","properties":{"Line":"S125","Sp":"1712.5","X":"634025.5","Y":"9220800.3","NAMOBJ":"Simorejo","WADMKC":"Widang","WADMKK":"Tuban"},"geometry":{"type":"Point","coordinates":[112.2,-7.0]}},{"type":"Feature","properties":{"Line":"S125","Sp":"1716.5","X":"634075.5","Y":"9220800.3","NAMOBJ":"Simorejo","WADMKC":"Widang","WADMKK":"Tuban"},"geometry":{"type":"Point","coordinates":[112.2,-7.0]}},{"type":"Feature","properties":{"Line":"S125","Sp":"1720.5","X":"634125.5","Y":"9220800.3","NAMOBJ":"Simorejo","WADMKC":"Widang","WADMKK":"Tuban"},"geometry":{"type":"Point","coordinates":[112.2,-7.0]}},{"type":"Feature","properties":{"Line":"S125","Sp":"1724.5","X":"634175.5","Y":"9220800.3","NAMOBJ":"Simorejo","WADMKC":"Widang","WADMKK":"Tuban"},"geometry":{"type":"Point","coordinates":[112.2,-7.0]}},{"type":"Feature","properties":{"Line":"S125","Sp":"1728.5","X":"634225.5","Y":"9220800.3","NAMOBJ":"Simorejo","WADMKC":"Widang","WADMKK":"Tuban"},"geometry":{"type":"Point","coordinates":[112.2,-7.0]}},{"type":"Feature","properties":{"Line":"S125","Sp":"1732.5","X":"634275.5","Y":"9220800.3","NAMOBJ":"Simorejo","WADMKC":"Widang","WADMKK":"Tuban"},"geometry":{"type":"Point","coordinates":[112.2,-7.0]}},{"type":"Feature","properties":{"Line":"S104","Sp":"1472.5","X":"631300.5","Y":"9221125.3","NAMOBJ":"Tegalsari","WADMKC":"Widang","WADMKK":"Tuban"},"geometry":{"type":"Point","coordinates":[112.2,-7.0]}},{"type":"Feature","properties":{"Line":"S104","Sp":"1476.5","X":"631300.5","Y":"9221075.3","NAMOBJ":"Tegalsari","WADMKC":"Widang","WADMKK":"Tuban"},"geometry":{"type":"Point","coordinates":[112.2,-7.0]}},{"type":"Feature","properties":{"Line":"S104","Sp":"1480.5","X":"631300.5","Y":"9221025.3","NAMOBJ":"Tegalsari","WADMKC":"Widang","WADMKK":"Tuban"},"geometry":{"type":"Point","coordinates":[112.2,-7.0]}},{"type":"Feature","properties":{"Line":"S104","Sp":"1484.5","X":"631300.5","Y":"9220975.3","NAMOBJ":"Tegalsari","WADMKC":"Widang","WADMKK":"Tuban"},"geometry":{"type":"Point","coordinates":[112.2,-7.0]}},{"type":"Feature","properties":{"Line":"S104","Sp":"1488.5","X":"631300.5","Y":"9220925.3","NAMOBJ":"Tegalsari","WADMKC":"Widang","WADMKK":"Tuban"},"geometry":{"type":"Point","coordinates":[112.2,-7.0]}},{"type":"Feature","properties":{"Line":"S104","Sp":"1492.5","X":"631300.5","Y":"9220875.3","NAMOBJ":"Tegalsari","WADMKC":"Widang","WADMKK":"Tuban"},"geometry":{"type":"Point","coordinates":[112.2,-7.0]}},{"type":"Feature","properties":{"Line":"S104","Sp":"1496.5","X":"631300.5","Y":"9220825.3","NAMOBJ":"Tegalsari","WADMKC":"Widang","WADMKK":"Tuban"},"geometry":{"type":"Point","coordinates":[112.2,-7.0]}},{"type":"Feature","properties":{"Line":"S104","Sp":"1500.5","X":"631300.5","Y":"9220775.3","NAMOBJ":"Tegalsari","WADMKC":"Widang","WADMKK":"Tuban"},"geometry":{"type":"Point","coordinates":[112.2,-7.0]}},{"type":"Feature","properties":{"Line":"S104","Sp":"1504.5","X":"631300.5","Y":"9220725.3","NAMOBJ":"Tegalsari","WADMKC":"Widang","WADMKK":"Tuban"},"geometry":{"type":"Point","coordinates":[112.2,-7.0]}},{"type":"Feature","properties":{"Line":"S104","Sp":"1508.5","X":"631300.5","Y":"9220675.3","NAMOBJ":"Tegalsari","WADMKC":"Widang","WADMKK":"Tuban"},"geometry":{"type":"Point","coordinates":[112.2,-7.0]}},{"type":"Feature","properties":{"Line":"S104","Sp":"1512.5","X":"631300.5","Y":"9220625.3","NAMOBJ":"Tegalsari","WADMKC":"Widang","WADMKK":"Tuban"},"geometry":{"type":"Point","coordinates":[112.2,-7.0]}},{"type":"Feature","properties":{"Line":"S104","Sp":"1516.5","X":"631300.5","Y":"9220575.3","NAMOBJ":"Tegalsari","WADMKC":"Widang","WADMKK":"Tuban"},"geometry":{"type":"Point","coordinates":[112.2,-7.0]}},{"type":"Feature","properties":{"Line":"S125","Sp":"1464.5","X":"630925.5","Y":"9220800.3","NAMOBJ":"Tegalsari","WADMKC":"Widang","WADMKK":"Tuban"},"geometry":{"type":"Point","coordinates":[112.2,-7.0]}},{"type":"Feature","properties":{"Line":"S125","Sp":"1468.5","X":"630975.5","Y":"9220800.3","NAMOBJ":"Tegalsari","WADMKC":"Widang","WADMKK":"Tuban"},"geometry":{"type":"Point","coordinates":[112.2,-7.0]}},{"type":"Feature","properties":{"Line":"S125","Sp":"1472.5","X":"631025.5","Y":"9220800.3","NAMOBJ":"Tegalsari","WADMKC":"Widang","WADMKK":"Tuban"},"geometry":{"type":"Point","coordinates":[112.2,-7.0]}},{"type":"Feature","properties":{"Line":"S125","Sp":"1476.5","X":"631075.5","Y":"9220800.3","NAMOBJ":"Tegalsari","WADMKC":"Widang","WADMKK":"Tuban"},"geometry":{"type":"Point","coordinates":[112.2,-7.0]}},{"type":"Feature","properties":{"Line":"S125","Sp":"1480.5","X":"631125.5","Y":"9220800.3","NAMOBJ":"Tegalsari","WADMKC":"Widang","WADMKK":"Tuban"},"geometry":{"type":"Point","coordinates":[112.2,-7.0]}},{"type":"Feature","properties":{"Line":"S125","Sp":"1484.5","X":"631175.5","Y":"9220800.3","NAMOBJ":"Tegalsari","WADMKC":"Widang","WADMKK":"Tuban"},"geometry":{"type":"Point","coordinates":[112.2,-7.0]}},{"type":"Feature","properties":{"Line":"S125","Sp":"1488.5","X":"631225.5","Y":"9220800.3","NAMOBJ":"Tegalsari","WADMKC":"Widang","WADMKK":"Tuban"},"geometry":{"type":"Point","coordinates":[112.2,-7.0]}},{"type":"Feature","properties":{"Line":"S125","Sp":"1492.5","X":"631275.5","Y":"9220800.3","NAMOBJ":"Tegalsari","WADMKC":"Widang","WADMKK":"Tuban"},"geometry":{"type":"Point","coordinates":[112.2,-7.0]}},{"type":"Feature","properties":{"Line":"S125","Sp":"1496.5","X":"631325.5","Y":"9220800.3","NAMOBJ":"Tegalsari","WADMKC":"Widang","WADMKK":"Tuban"},"geometry":{"type":"Point","coordinates":[112.2,-7.0]}},{"type":"Feature","properties":{"Line":"S125","Sp":"1500.5","X":"631375.5","Y":"9220800.3","NAMOBJ":"Tegalsari","WADMKC":"Widang","WADMKK":"Tuban"},"geometry":{"type":"Point","coordinates":[112.2,-7.0]}},{"type":"Feature","properties":{"Line":"S125","Sp":"1504.5","X":"631425.5","Y":"9220800.3","NAMOBJ":"Tegalsari","WADMKC":"Widang","WADMKK":"Tuban"},"geometry":{"type":"Point","coordinates":[112.2,-7.0]}},{"type":"Feature","properties":{"Line":"S125","Sp":"1508.5","X":"631475.5","Y":"9220800.3","NAMOBJ":"Tegalsari","WADMKC":"Widang","WADMKK":"Tuban"},"geometry":{"type":"Point","coordinates":[112.2,-7.0]}},{"type":"Feature","properties":{"Line":"S125","Sp":"1512.5","X":"631525.5","Y":"9220800.3","NAMOBJ":"Tegalsari","WADMKC":"Widang","WADMKK":"Tuban"},"geometry":{"type":"Point","coordinates":[112.2,-7.0]}},{"type":"Feature","properties":{"Line":"S125","Sp":"1516.5","X":"631575.5","Y":"9220800.3","NAMOBJ":"Tegalsari","WADMKC":"Widang","WADMKK":"Tuban"},"geometry":{"type":"Point","coordinates":[112.2,-7.0]}},{"type":"Feature","properties":{"Line":"S125","Sp":"1520.5","X":"631625.5","Y":"9220800.3","NAMOBJ":"Tegalsari","WADMKC":"Widang","WADMKK":"Tuban"},"geometry":{"type":"Point","coordinates":[112.2,-7.0]}},{"type":"Feature","properties":{"Line":"S125","Sp":"1524.5","X":"631675.5","Y":"9220800.3","NAMOBJ":"Tegalsari","WADMKC":"Widang","WADMKK":"Tuban"},"geometry":{"type":"Point","coordinates":[112.2,-7.0]}},{"type":"Feature","properties":{"Line":"S125","Sp":"1528.5","X":"631725.5","Y":"9220800.3","NAMOBJ":"Tegalsari","WADMKC":"Widang","WADMKK":"Tuban"},"geometry":{"type":"Point","coordinates":[112.2,-7.0]}},{"type":"Feature","properties":{"Line":"S125","Sp":"1532.5","X":"631775.5","Y":"9220800.3","NAMOBJ":"Tegalsari","WADMKC":"Widang","WADMKK":"Tuban"},"geometry":{"type":"Point","coordinates":[112.2,-7.0]}},{"type":"Feature","properties":{"Line":"S125","Sp":"1536.5","X":"631825.5","Y":"9220800.3","NAMOBJ":"Tegalsari","WADMKC":"Widang","WADMKK":"Tuban"},"geometry":{"type":"Point","coordinates":[112.2,-7.0]}},{"type":"Feature","properties":{"Line":"S116","Sp":"1360.5","X":"637300.5","Y":"9222675.3","NAMOBJ":"Brumbun","WADMKC":"Maduran","WADMKK":"Lamongan"},"geometry":{"type":"Point","coordinates":[112.2,-7.0]}},{"type":"Feature","properties":{"Line":"S116","Sp":"1364.5","X":"637300.5","Y":"9222625.3","NAMOBJ":"Brumbun","WADMKC":"Maduran","WADMKK":"Lamongan"},"geometry":{"type":"Point","coordinates":[112.2,-7.0]}},{"type":"Feature","properties":{"Line":"S108","Sp":"1360.5","X":"633300.5","Y":"9222525.3","NAMOBJ":"Durikulon","WADMKC":"Laren","WADMKK":"Lamongan"},"geometry":{"type":"Point","coordinates":[112.2,-7.0]}},{"type":"Feature","properties":{"Line":"S108","Sp":"1364.5","X":"633300.5","Y":"9222475.3","NAMOBJ":"Durikulon","WADMKC":"Laren","WADMKK":"Lamongan"},"geometry":{"type":"Point","coordinates":[112.2,-7.0]}},{"type":"Feature","properties":{"Line":"S108","Sp":"1368.5","X":"633300.5","Y":"9222425.3","NAMOBJ":"Durikulon","WADMKC":"Laren","WADMKK":"Lamongan"},"geometry":{"type":"Point","coordinates":[112.2,-7.0]}},{"type":"Feature","properties":{"Line":"S108","Sp":"1372.5","X":"633300.5","Y":"9222375.3","NAMOBJ":"Durikulon","WADMKC":"Laren","WADMKK":"Lamongan"},"geometry":{"type":"Point","coordinates":[112.2,-7.0]}},{"type":"Feature","properties":{"Line":"S110","Sp":"1360.5","X":"634300.5","Y":"9222825.3","NAMOBJ":"Durikulon","WADMKC":"Laren","WADMKK":"Lamongan"},"geometry":{"type":"Point","coordinates":[112.2,-7.0]}},{"type":"Feature","properties":{"Line":"S110","Sp":"1364.5","X":"634300.5","Y":"9222775.3","NAMOBJ":"Durikulon","WADMKC":"Laren","WADMKK":"Lamongan"},"geometry":{"type":"Point","coordinates":[112.2,-7.0]}},{"type":"Feature","properties":{"Line":"S110","Sp":"1368.5","X":"634300.5","Y":"9222725.3","NAMOBJ":"Durikulon","WADMKC":"Laren","WADMKK":"Lamongan"},"geometry":{"type":"Point","coordinates":[112.2,-7.0]}},{"type":"Feature","properties":{"Line":"S110","Sp":"1372.5","X":"634300.5","Y":"9222675.3","NAMOBJ":"Durikulon","WADMKC":"Laren","WADMKK":"Lamongan"},"geometry":{"type":"Point","coordinates":[112.2,-7.0]}},{"type":"Feature","properties":{"Line":"S110","Sp":"1376.5","X":"634300.5","Y":"9222625.3","NAMOBJ":"Durikulon","WADMKC":"Laren","WADMKK":"Lamongan"},"geometry":{"type":"Point","coordinates":[112.2,-7.0]}},{"type":"Feature","properties":{"Line":"S110","Sp":"1380.5","X":"634300.5","Y":"9222575.3","NAMOBJ":"Durikulon","WADMKC":"Laren","WADMKK":"Lamongan"},"geometry":{"type":"Point","coordinates":[112.2,-7.0]}},{"type":"Feature","properties":{"Line":"S110","Sp":"1384.5","X":"634300.5","Y":"9222525.3","NAMOBJ":"Durikulon","WADMKC":"Laren","WADMKK":"Lamongan"},"geometry":{"type":"Point","coordinates":[112.2,-7.0]}},{"type":"Feature","properties":{"Line":"S110","Sp":"1388.5","X":"634300.5","Y":"9222475.3","NAMOBJ":"Durikulon","WADMKC":"Laren","WADMKK":"Lamongan"},"geometry":{"type":"Point","coordinates":[112.2,-7.0]}},{"type":"Feature","properties":{"Line":"S110","Sp":"1392.5","X":"634300.5","Y":"9222425.3","NAMOBJ":"Durikulon","WADMKC":"Laren","WADMKK":"Lamongan"},"geometry":{"type":"Point","coordinates":[112.2,-7.0]}},{"type":"Feature","properties":{"Line":"S110","Sp":"1396.5","X":"634300.5","Y":"9222375.3","NAMOBJ":"Durikulon","WADMKC":"Laren","WADMKK":"Lamongan"},"geometry":{"type":"Point","coordinates":[112.2,-7.0]}},{"type":"Feature","properties":{"Line":"S110","Sp":"1400.5","X":"634300.5","Y":"9222325.3","NAMOBJ":"Durikulon","WADMKC":"Laren","WADMKK":"Lamongan"},"geometry":{"type":"Point","coordinates":[112.2,-7.0]}},{"type":"Feature","properties":{"Line":"S110","Sp":"1404.5","X":"634300.5","Y":"9222275.3","NAMOBJ":"Durikulon","WADMKC":"Laren","WADMKK":"Lamongan"},"geometry":{"type":"Point","coordinates":[112.2,-7.0]}},{"type":"Feature","properties":{"Line":"S110","Sp":"1408.5","X":"634300.5","Y":"9222225.3","NAMOBJ":"Durikulon","WADMKC":"Laren","WADMKK":"Lamongan"},"geometry":{"type":"Point","coordinates":[112.2,-7.0]}},{"type":"Feature","properties":{"Line":"S110","Sp":"1412.5","X":"634300.5","Y":"9222175.3","NAMOBJ":"Durikulon","WADMKC":"Laren","WADMKK":"Lamongan"},"geometry":{"type":"Point","coordinates":[112.2,-7.0]}},{"type":"Feature","properties":{"Line":"S112","Sp":"1360.5","X":"635300.5","Y":"9222525.3","NAMOBJ":"Duriwetan","WADMKC":"Maduran","WADMKK":"Lamongan"},"geometry":{"type":"Point","coordinates":[112.2,-7.0]}},{"type":"Feature","properties":{"Line":"S112","Sp":"1364.5","X":"635300.5","Y":"9222475.3","NAMOBJ":"Duriwetan","WADMKC":"Maduran","WADMKK":"Lamongan"},"geometry":{"type":"Point","coordinates":[112.2,-7.0]}},{"type":"Feature","properties":{"Line":"S112","Sp":"1368.5","X":"635300.5","Y":"9222425.3","NAMOBJ":"Duriwetan","WADMKC":"Maduran","WADMKK":"Lamongan"},"geometry":{"type":"Point","coordinates":[112.2,-7.0]}},{"type":"Feature","properties":{"Line":"S112","Sp":"1372.5","X":"635300.5","Y":"9222375.3","NAMOBJ":"Duriwetan","WADMKC":"Maduran","WADMKK":"Lamongan"},"geometry":{"type":"Point","coordinates":[112.2,-7.0]}},{"type":"Feature","properties":{"Line":"S112","Sp":"1376.5","X":"635300.5","Y":"9222325.3","NAMOBJ":"Duriwetan","WADMKC":"Maduran","WADMKK":"Lamongan"},"geometry":{"type":"Point","coordinates":[112.2,-7.0]}},{"type":"Feature","properties":{"Line":"S112","Sp":"1380.5","X":"635300.5","Y":"9222275.3","NAMOBJ":"Duriwetan","WADMKC":"Maduran","WADMKK":"Lamongan"},"geometry":{"type":"Point","coordinates":[112.2,-7.0]}},{"type":"Feature","properties":{"Line":"S112","Sp":"1384.5","X":"635300.5","Y":"9222225.3","NAMOBJ":"Duriwetan","WADMKC":"Maduran","WADMKK":"Lamongan"},"geometry":{"type":"Point","coordinates":[112.2,-7.0]}},{"type":"Feature","properties":{"Line":"S112","Sp":"1388.5","X":"635300.5","Y":"9222175.3","NAMOBJ":"Duriwetan","WADMKC":"Maduran","WADMKK":"Lamongan"},"geometry":{"type":"Point","coordinates":[112.2,-7.0]}},{"type":"Feature","properties":{"Line":"S112","Sp":"1392.5","X":"635300.5","Y":"9222125.3","NAMOBJ":"Duriwetan","WADMKC":"Maduran","WADMKK":"Lamongan"},"geometry":{"type":"Point","coordinates":[112.2,-7.0]}},{"type":"Feature","properties":{"Line":"S112","Sp":"1396.5","X":"635300.5","Y":"9222075.3","NAMOBJ":"Duriwetan","WADMKC":"Maduran","WADMKK":"Lamongan"},"geometry":{"type":"Point","coordinates":[112.2,-7.0]}},{"type":"Feature","properties":{"Line":"S112","Sp":"1400.5","X":"635300.5","Y":"9222025.3","NAMOBJ":"Duriwetan","WADMKC":"Maduran","WADMKK":"Lamongan"},"geometry":{"type":"Point","coordinates":[112.2,-7.0]}},{"type":"Feature","properties":{"Line":"S114","Sp":"1360.5","X":"636300.5","Y":"9222525.3","NAMOBJ":"Duriwetan","WADMKC":"Maduran","WADMKK":"Lamongan"},"geometry":{"type":"Point","coordinates":[112.2,-7.0]}},{"type":"Feature","properties":{"Line":"S114","Sp":"1364.5","X":"636300.5","Y":"9222475.3","NAMOBJ":"Duriwetan","WADMKC":"Maduran","WADMKK":"Lamongan"},"geometry":{"type":"Point","coordinates":[112.2,-7.0]}},{"type":"Feature","properties":{"Line":"S114","Sp":"1368.5","X":"636300.5","Y":"9222425.3","NAMOBJ":"Duriwetan","WADMKC":"Maduran","WADMKK":"Lamongan"},"geometry":{"type":"Point","coordinates":[112.2,-7.0]}},{"type":"Feature","properties":{"Line":"S114","Sp":"1372.5","X":"636300.5","Y":"9222375.3","NAMOBJ":"Duriwetan","WADMKC":"Maduran","WADMKK":"Lamongan"},"geometry":{"type":"Point","coordinates":[112.2,-7.0]}},{"type":"Feature","properties":{"Line":"S114","Sp":"1376.5","X":"636300.5","Y":"9222325.3","NAMOBJ":"Duriwetan","WADMKC":"Maduran","WADMKK":"Lamongan"},"geometry":{"type":"Point","coordinates":[112.2,-7.0]}},{"type":"Feature","properties":{"Line":"S114","Sp":"1380.5","X":"636300.5","Y":"9222275.3","NAMOBJ":"Duriwetan","WADMKC":"Maduran","WADMKK":"Lamongan"},"geometry":{"type":"Point","coordinates":[112.2,-7.0]}},{"type":"Feature","properties":{"Line":"S114","Sp":"1384.5","X":"636300.5","Y":"9222225.3","NAMOBJ":"Duriwetan","WADMKC":"Maduran","WADMKK":"Lamongan"},"geometry":{"type":"Point","coordinates":[112.2,-7.0]}},{"type":"Feature","properties":{"Line":"S114","Sp":"1388.5","X":"636300.5","Y":"9222175.3","NAMOBJ":"Duriwetan","WADMKC":"Maduran","WADMKK":"Lamongan"},"geometry":{"type":"Point","coordinates":[112.2,-7.0]}},{"type":"Feature","properties":{"Line":"S114","Sp":"1392.5","X":"636300.5","Y":"9222125.3","NAMOBJ":"Duriwetan","WADMKC":"Maduran","WADMKK":"Lamongan"},"geometry":{"type":"Point","coordinates":[112.2,-7.0]}},{"type":"Feature","properties":{"Line":"S114","Sp":"1396.5","X":"636300.5","Y":"9222075.3","NAMOBJ":"Duriwetan","WADMKC":"Maduran","WADMKK":"Lamongan"},"geometry":{"type":"Point","coordinates":[112.2,-7.0]}},{"type":"Feature","properties":{"Line":"S114","Sp":"1400.5","X":"636300.5","Y":"9222025.3","NAMOBJ":"Duriwetan","WADMKC":"Maduran","WADMKK":"Lamongan"},"geometry":{"type":"Point","coordinates":[112.2,-7.0]}},{"type":"Feature","properties":{"Line":"S114","Sp":"1404.5","X":"636300.5","Y":"9221975.3","NAMOBJ":"Duriwetan","WADMKC":"Maduran","WADMKK":"Lamongan"},"geometry":{"type":"Point","coordinates":[112.2,-7.0]}},{"type":"Feature","properties":{"Line":"S114","Sp":"1408.5","X":"636300.5","Y":"9221925.3","NAMOBJ":"Duriwetan","WADMKC":"Maduran","WADMKK":"Lamongan"},"geometry":{"type":"Point","coordinates":[112.2,-7.0]}},{"type":"Feature","properties":{"Line":"S114","Sp":"1412.5","X":"636300.5","Y":"9221875.3","NAMOBJ":"Duriwetan","WADMKC":"Maduran","WADMKK":"Lamongan"},"geometry":{"type":"Point","coordinates":[112.2,-7.0]}},{"type":"Feature","properties":{"Line":"S114","Sp":"1416.5","X":"636300.5","Y":"9221825.3","NAMOBJ":"Duriwetan","WADMKC":"Maduran","WADMKK":"Lamongan"},"geometry":{"type":"Point","coordinates":[112.2,-7.0]}},{"type":"Feature","properties":{"Line":"S114","Sp":"1420.5","X":"636300.5","Y":"9221775.3","NAMOBJ":"Duriwetan","WADMKC":"Maduran","WADMKK":"Lamongan"},"geometry":{"type":"Point","coordinates":[112.2,-7.0]}},{"type":"Feature","properties":{"Line":"S114","Sp":"1424.5","X":"636300.5","Y":"9221725.3","NAMOBJ":"Duriwetan","WADMKC":"Maduran","WADMKK":"Lamongan"},"geometry":{"type":"Point","coordinates":[112.2,-7.0]}},{"type":"Feature","properties":{"Line":"S114","Sp":"1428.5","X":"636300.5","Y":"9221675.3","NAMOBJ":"Duriwetan","WADMKC":"Maduran","WADMKK":"Lamongan"},"geometry":{"type":"Point","coordinates":[112.2,-7.0]}},{"type":"Feature","properties":{"Line":"S114","Sp":"1432.5","X":"636300.5","Y":"9221625.3","NAMOBJ":"Duriwetan","WADMKC":"Maduran","WADMKK":"Lamongan"},"geometry":{"type":"Point","coordinates":[112.2,-7.0]}},{"type":"Feature","properties":{"Line":"S114","Sp":"1436.5","X":"636300.5","Y":"9221575.3","NAMOBJ":"Duriwetan","WADMKC":"Maduran","WADMKK":"Lamongan"},"geometry":{"type":"Point","coordinates":[112.2,-7.0]}},{"type":"Feature","properties":{"Line":"S116","Sp":"1368.5","X":"637300.5","Y":"9222575.3","NAMOBJ":"Duriwetan","WADMKC":"Maduran","WADMKK":"Lamongan"},"geometry":{"type":"Point","coordinates":[112.2,-7.0]}},{"type":"Feature","properties":{"Line":"S116","Sp":"1372.5","X":"637300.5","Y":"9222525.3","NAMOBJ":"Duriwetan","WADMKC":"Maduran","WADMKK":"Lamongan"},"geometry":{"type":"Point","coordinates":[112.2,-7.0]}},{"type":"Feature","properties":{"Line":"S116","Sp":"1376.5","X":"637300.5","Y":"9222475.3","NAMOBJ":"Duriwetan","WADMKC":"Maduran","WADMKK":"Lamongan"},"geometry":{"type":"Point","coordinates":[112.2,-7.0]}},{"type":"Feature","properties":{"Line":"S116","Sp":"1380.5","X":"637300.5","Y":"9222425.3","NAMOBJ":"Duriwetan","WADMKC":"Maduran","WADMKK":"Lamongan"},"geometry":{"type":"Point","coordinates":[112.2,-7.0]}},{"type":"Feature","properties":{"Line":"S116","Sp":"1384.5","X":"637300.5","Y":"9222375.3","NAMOBJ":"Duriwetan","WADMKC":"Maduran","WADMKK":"Lamongan"},"geometry":{"type":"Point","coordinates":[112.2,-7.0]}},{"type":"Feature","properties":{"Line":"S116","Sp":"1388.5","X":"637300.5","Y":"9222325.3","NAMOBJ":"Duriwetan","WADMKC":"Maduran","WADMKK":"Lamongan"},"geometry":{"type":"Point","coordinates":[112.2,-7.0]}},{"type":"Feature","properties":{"Line":"S116","Sp":"1392.5","X":"637300.5","Y":"9222275.3","NAMOBJ":"Duriwetan","WADMKC":"Maduran","WADMKK":"Lamongan"},"geometry":{"type":"Point","coordinates":[112.2,-7.0]}},{"type":"Feature","properties":{"Line":"S116","Sp":"1396.5","X":"637300.5","Y":"9222225.3","NAMOBJ":"Duriwetan","WADMKC":"Maduran","WADMKK":"Lamongan"},"geometry":{"type":"Point","coordinates":[112.2,-7.0]}},{"type":"Feature","properties":{"Line":"S116","Sp":"1400.5","X":"637300.5","Y":"9222175.3","NAMOBJ":"Duriwetan","WADMKC":"Maduran","WADMKK":"Lamongan"},"geometry":{"type":"Point","coordinates":[112.2,-7.0]}},{"type":"Feature","properties":{"Line":"S116","Sp":"1404.5","X":"637300.5","Y":"9222125.3","NAMOBJ":"Duriwetan","WADMKC":"Maduran","WADMKK":"Lamongan"},"geometry":{"type":"Point","coordinates":[112.2,-7.0]}},{"type":"Feature","properties":{"Line":"S116","Sp":"1408.5","X":"637300.5","Y":"9222075.3","NAMOBJ":"Duriwetan","WADMKC":"Maduran","WADMKK":"Lamongan"},"geometry":{"type":"Point","coordinates":[112.2,-7.0]}},{"type":"Feature","properties":{"Line":"S116","Sp":"1412.5","X":"637300.5","Y":"9222025.3","NAMOBJ":"Duriwetan","WADMKC":"Maduran","WADMKK":"Lamongan"},"geometry":{"type":"Point","coordinates":[112.2,-7.0]}},{"type":"Feature","properties":{"Line":"S116","Sp":"1416.5","X":"637300.5","Y":"9221975.3","NAMOBJ":"Duriwetan","WADMKC":"Maduran","WADMKK":"Lamongan"},"geometry":{"type":"Point","coordinates":[112.2,-7.0]}},{"type":"Feature","properties":{"Line":"S116","Sp":"1420.5","X":"637300.5","Y":"9221925.3","NAMOBJ":"Duriwetan","WADMKC":"Maduran","WADMKK":"Lamongan"},"geometry":{"type":"Point","coordinates":[112.2,-7.0]}},{"type":"Feature","properties":{"Line":"S116","Sp":"1424.5","X":"637300.5","Y":"9221875.3","NAMOBJ":"Duriwetan","WADMKC":"Maduran","WADMKK":"Lamongan"},"geometry":{"type":"Point","coordinates":[112.2,-7.0]}},{"type":"Feature","properties":{"Line":"S116","Sp":"1428.5","X":"637300.5","Y":"9221825.3","NAMOBJ":"Duriwetan","WADMKC":"Maduran","WADMKK":"Lamongan"},"geometry":{"type":"Point","coordinates":[112.2,-7.0]}},{"type":"Feature","properties":{"Line":"S116","Sp":"1432.5","X":"637300.5","Y":"9221775.3","NAMOBJ":"Duriwetan","WADMKC":"Maduran","WADMKK":"Lamongan"},"geometry":{"type":"Point","coordinates":[112.2,-7.0]}},{"type":"Feature","properties":{"Line":"S116","Sp":"1436.5","X":"637300.5","Y":"9221725.3","NAMOBJ":"Duriwetan","WADMKC":"Maduran","WADMKK":"Lamongan"},"geometry":{"type":"Point","coordinates":[112.2,-7.0]}},{"type":"Feature","properties":{"Line":"S116","Sp":"1440.5","X":"637300.5","Y":"9221675.3","NAMOBJ":"Duriwetan","WADMKC":"Maduran","WADMKK":"Lamongan"},"geometry":{"type":"Point","coordinates":[112.2,-7.0]}},{"type":"Feature","properties":{"Line":"S116","Sp":"1444.5","X":"637300.5","Y":"9221625.3","NAMOBJ":"Duriwetan","WADMKC":"Maduran","WADMKK":"Lamongan"},"geometry":{"type":"Point","coordinates":[112.2,-7.0]}},{"type":"Feature","properties":{"Line":"S116","Sp":"1448.5","X":"637300.5","Y":"9221575.3","NAMOBJ":"Duriwetan","WADMKC":"Maduran","WADMKK":"Lamongan"},"geometry":{"type":"Point","coordinates":[112.2,-7.0]}},{"type":"Feature","properties":{"Line":"S116","Sp":"1452.5","X":"637300.5","Y":"9221525.3","NAMOBJ":"Duriwetan","WADMKC":"Maduran","WADMKK":"Lamongan"},"geometry":{"type":"Point","coordinates":[112.2,-7.0]}},{"type":"Feature","properties":{"Line":"S116","Sp":"1456.5","X":"637300.5","Y":"9221475.3","NAMOBJ":"Duriwetan","WADMKC":"Maduran","WADMKK":"Lamongan"},"geometry":{"type":"Point","coordinates":[112.2,-7.0]}},{"type":"Feature","properties":{"Line":"S116","Sp":"1460.5","X":"637300.5","Y":"9221425.3","NAMOBJ":"Duriwetan","WADMKC":"Maduran","WADMKK":"Lamongan"},"geometry":{"type":"Point","coordinates":[112.2,-7.0]}},{"type":"Feature","properties":{"Line":"S116","Sp":"1464.5","X":"637300.5","Y":"9221375.3","NAMOBJ":"Duriwetan","WADMKC":"Maduran","WADMKK":"Lamongan"},"geometry":{"type":"Point","coordinates":[112.2,-7.0]}},{"type":"Feature","properties":{"Line":"S116","Sp":"1468.5","X":"637300.5","Y":"9221325.3","NAMOBJ":"Duriwetan","WADMKC":"Maduran","WADMKK":"Lamongan"},"geometry":{"type":"Point","coordinates":[112.2,-7.0]}},{"type":"Feature","properties":{"Line":"S116","Sp":"1472.5","X":"637300.5","Y":"9221275.3","NAMOBJ":"Jugo","WADMKC":"Sekaran","WADMKK":"Lamongan"},"geometry":{"type":"Point","coordinates":[112.2,-7.0]}},{"type":"Feature","properties":{"Line":"S116","Sp":"1476.5","X":"637300.5","Y":"9221225.3","NAMOBJ":"Jugo","WADMKC":"Sekaran","WADMKK":"Lamongan"},"geometry":{"type":"Point","coordinates":[112.2,-7.0]}},{"type":"Feature","properties":{"Line":"S116","Sp":"1480.5","X":"637300.5","Y":"9221175.3","NAMOBJ":"Jugo","WADMKC":"Sekaran","WADMKK":"Lamongan"},"geometry":{"type":"Point","coordinates":[112.2,-7.0]}},{"type":"Feature","properties":{"Line":"S116","Sp":"1484.5","X":"637300.5","Y":"9221125.3","NAMOBJ":"Jugo","WADMKC":"Sekaran","WADMKK":"Lamongan"},"geometry":{"type":"Point","coordinates":[112.2,-7.0]}},{"type":"Feature","properties":{"Line":"S116","Sp":"1488.5","X":"637300.5","Y":"9221075.3","NAMOBJ":"Jugo","WADMKC":"Sekaran","WADMKK":"Lamongan"},"geometry":{"type":"Point","coordinates":[112.2,-7.0]}},{"type":"Feature","properties":{"Line":"S116","Sp":"1492.5","X":"637300.5","Y":"9221025.3","NAMOBJ":"Jugo","WADMKC":"Sekaran","WADMKK":"Lamongan"},"geometry":{"type":"Point","coordinates":[112.2,-7.0]}},{"type":"Feature","properties":{"Line":"S116","Sp":"1496.5","X":"637300.5","Y":"9220975.3","NAMOBJ":"Jugo","WADMKC":"Sekaran","WADMKK":"Lamongan"},"geometry":{"type":"Point","coordinates":[112.2,-7.0]}},{"type":"Feature","properties":{"Line":"S116","Sp":"1500.5","X":"637300.5","Y":"9220925.3","NAMOBJ":"Jugo","WADMKC":"Sekaran","WADMKK":"Lamongan"},"geometry":{"type":"Point","coordinates":[112.2,-7.0]}},{"type":"Feature","properties":{"Line":"S116","Sp":"1504.5","X":"637300.5","Y":"9220875.3","NAMOBJ":"Jugo","WADMKC":"Sekaran","WADMKK":"Lamongan"},"geometry":{"type":"Point","coordinates":[112.2,-7.0]}},{"type":"Feature","properties":{"Line":"S116","Sp":"1508.5","X":"637300.5","Y":"9220825.3","NAMOBJ":"Jugo","WADMKC":"Sekaran","WADMKK":"Lamongan"},"geometry":{"type":"Point","coordinates":[112.2,-7.0]}},{"type":"Feature","properties":{"Line":"S116","Sp":"1512.5","X":"637300.5","Y":"9220775.3","NAMOBJ":"Jugo","WADMKC":"Sekaran","WADMKK":"Lamongan"},"geometry":{"type":"Point","coordinates":[112.2,-7.0]}},{"type":"Feature","properties":{"Line":"S116","Sp":"1516.5","X":"637300.5","Y":"9220725.3","NAMOBJ":"Jugo","WADMKC":"Sekaran","WADMKK":"Lamongan"},"geometry":{"type":"Point","coordinates":[112.2,-7.0]}},{"type":"Feature","properties":{"Line":"S116","Sp":"1520.5","X":"637300.5","Y":"9220675.3","NAMOBJ":"Jugo","WADMKC":"Sekaran","WADMKK":"Lamongan"},"geometry":{"type":"Point","coordinates":[112.2,-7.0]}},{"type":"Feature","properties":{"Line":"S116","Sp":"1524.5","X":"637300.5","Y":"9220625.3","NAMOBJ":"Jugo","WADMKC":"Sekaran","WADMKK":"Lamongan"},"geometry":{"type":"Point","coordinates":[112.2,-7.0]}},{"type":"Feature","properties":{"Line":"S116","Sp":"1528.5","X":"637300.5","Y":"9220575.3","NAMOBJ":"Jugo","WADMKC":"Sekaran","WADMKK":"Lamongan"},"geometry":{"type":"Point","coordinates":[112.2,-7.0]}},{"type":"Feature","properties":{"Line":"S125","Sp":"1936.5","X":"636825.5","Y":"9220800.3","NAMOBJ":"Jugo","WADMKC":"Sekaran","WADMKK":"Lamongan"},"geometry":{"type":"Point","coordinates":[112.2,-7.0]}},{"type":"Feature","properties":{"Line":"S125","Sp":"1940.5","X":"636875.5","Y":"9220800.3","NAMOBJ":"Jugo","WADMKC":"Sekaran","WADMKK":"Lamongan"},"geometry":{"type":"Point","coordinates":[112.2,-7.0]}},{"type":"Feature","properties":{"Line":"S125","Sp":"1944.5","X":"636925.5","Y":"9220800.3","NAMOBJ":"Jugo","WADMKC":"Sekaran","WADMKK":"Lamongan"},"geometry":{"type":"Point","coordinates":[112.2,-7.0]}},{"type":"Feature","properties":{"Line":"S125","Sp":"1948.5","X":"636975.5","Y":"9220800.3","NAMOBJ":"Jugo","WADMKC":"Sekaran","WADMKK":"Lamongan"},"geometry":{"type":"Point","coordinates":[112.2,-7.0]}},{"type":"Feature","properties":{"Line":"S125","Sp":"1952.5","X":"637025.5","Y":"9220800.3","NAMOBJ":"Jugo","WADMKC":"Sekaran","WADMKK":"Lamongan"},"geometry":{"type":"Point","coordinates":[112.2,-7.0]}},{"type":"Feature","properties":{"Line":"S125","Sp":"1956.5","X":"637075.5","Y":"9220800.3","NAMOBJ":"Jugo","WADMKC":"Sekaran","WADMKK":"Lamongan"},"geometry":{"type":"Point","coordinates":[112.2,-7.0]}},{"type":"Feature","properties":{"Line":"S125","Sp":"1960.5","X":"637125.5","Y":"9220800.3","NAMOBJ":"Jugo","WADMKC":"Sekaran","WADMKK":"Lamongan"},"geometry":{"type":"Point","coordinates":[112.2,-7.0]}},{"type":"Feature","properties":{"Line":"S125","Sp":"1964.5","X":"637175.5","Y":"9220800.3","NAMOBJ":"Jugo","WADMKC":"Sekaran","WADMKK":"Lamongan"},"geometry":{"type":"Point","coordinates":[112.2,-7.0]}},{"type":"Feature","properties":{"Line":"S125","Sp":"1968.5","X":"637225.5","Y":"9220800.3","NAMOBJ":"Jugo","WADMKC":"Sekaran","WADMKK":"Lamongan"},"geometry":{"type":"Point","coordinates":[112.2,-7.0]}},{"type":"Feature","properties":{"Line":"S125","Sp":"1972.5","X":"637275.5","Y":"9220800.3","NAMOBJ":"Jugo","WADMKC":"Sekaran","WADMKK":"Lamongan"},"geometry":{"type":"Point","coordinates":[112.2,-7.0]}},{"type":"Feature","properties":{"Line":"S125","Sp":"1976.5","X":"637325.5","Y":"9220800.3","NAMOBJ":"Jugo","WADMKC":"Sekaran","WADMKK":"Lamongan"},"geometry":{"type":"Point","coordinates":[112.2,-7.0]}},{"type":"Feature","properties":{"Line":"S125","Sp":"1980.5","X":"637375.5","Y":"9220800.3","NAMOBJ":"Jugo","WADMKC":"Sekaran","WADMKK":"Lamongan"},"geometry":{"type":"Point","coordinates":[112.2,-7.0]}},{"type":"Feature","properties":{"Line":"S125","Sp":"1984.5","X":"637425.5","Y":"9220800.3","NAMOBJ":"Jugo","WADMKC":"Sekaran","WADMKK":"Lamongan"},"geometry":{"type":"Point","coordinates":[112.2,-7.0]}},{"type":"Feature","properties":{"Line":"S125","Sp":"1988.5","X":"637475.5","Y":"9220800.3","NAMOBJ":"Jugo","WADMKC":"Sekaran","WADMKK":"Lamongan"},"geometry":{"type":"Point","coordinates":[112.2,-7.0]}},{"type":"Feature","properties":{"Line":"S125","Sp":"1992.5","X":"637525.5","Y":"9220800.3","NAMOBJ":"Jugo","WADMKC":"Sekaran","WADMKK":"Lamongan"},"geometry":{"type":"Point","coordinates":[112.2,-7.0]}},{"type":"Feature","properties":{"Line":"S125","Sp":"1996.5","X":"637575.5","Y":"9220800.3","NAMOBJ":"Jugo","WADMKC":"Sekaran","WADMKK":"Lamongan"},"geometry":{"type":"Point","coordinates":[112.2,-7.0]}},{"type":"Feature","properties":{"Line":"S125","Sp":"2000.5","X":"637625.5","Y":"9220800.3","NAMOBJ":"Jugo","WADMKC":"Sekaran","WADMKK":"Lamongan"},"geometry":{"type":"Point","coordinates":[112.2,-7.0]}},{"type":"Feature","properties":{"Line":"S125","Sp":"2004.5","X":"637675.5","Y":"9220800.3","NAMOBJ":"Jugo","WADMKC":"Sekaran","WADMKK":"Lamongan"},"geometry":{"type":"Point","coordinates":[112.2,-7.0]}},{"type":"Feature","properties":{"Line":"S125","Sp":"2008.5","X":"637725.5","Y":"9220800.3","NAMOBJ":"Jugo","WADMKC":"Sekaran","WADMKK":"Lamongan"},"geometry":{"type":"Point","coordinates":[112.2,-7.0]}},{"type":"Feature","properties":{"Line":"S125","Sp":"2012.5","X":"637775.5","Y":"9220800.3","NAMOBJ":"Jugo","WADMKC":"Sekaran","WADMKK":"Lamongan"},"geometry":{"type":"Point","coordinates":[112.2,-7.0]}},{"type":"Feature","properties":{"Line":"S125","Sp":"2016.5","X":"637825.5","Y":"9220800.3","NAMOBJ":"Jugo","WADMKC":"Sekaran","WADMKK":"Lamongan"},"geometry":{"type":"Point","coordinates":[112.2,-7.0]}},{"type":"Feature","properties":{"Line":"S125","Sp":"2020.5","X":"637875.5","Y":"9220800.3","NAMOBJ":"Jugo","WADMKC":"Sekaran","WADMKK":"Lamongan"},"geometry":{"type":"Point","coordinates":[112.2,-7.0]}},{"type":"Feature","properties":{"Line":"S125","Sp":"2024.5","X":"637925.5","Y":"9220800.3","NAMOBJ":"Jugo","WADMKC":"Sekaran","WADMKK":"Lamongan"},"geometry":{"type":"Point","coordinates":[112.2,-7.0]}},{"type":"Feature","properties":{"Line":"S125","Sp":"2028.5","X":"637975.5","Y":"9220800.3","NAMOBJ":"Jugo","WADMKC":"Sekaran","WADMKK":"Lamongan"},"geometry":{"type":"Point","coordinates":[112.2,-7.0]}},{"type":"Feature","properties":{"Line":"S125","Sp":"2032.5","X":"638025.5","Y":"9220800.3","NAMOBJ":"Jugo","WADMKC":"Sekaran","WADMKK":"Lamongan"},"geometry":{"type":"Point","coordinates":[112.2,-7.0]}},{"type":"Feature","properties":{"Line":"S110","Sp":"1476.5","X":"634300.5","Y":"9221375.3","NAMOBJ":"Kendal","WADMKC":"Sekaran","WADMKK":"Lamongan"},"geometry":{"type":"Point","coordinates":[112.2,-7.0]}},{"type":"Feature","properties":{"Line":"S110","Sp":"1480.5","X":"634300.5","Y":"9221325.3","NAMOBJ":"Kendal","WADMKC":"Sekaran","WADMKK":"Lamongan"},"geometry":{"type":"Point","coordinates":[112.2,-7.0]}},{"type":"Feature","properties":{"Line":"S110","Sp":"1484.5","X":"634300.5","Y":"9221275.3","NAMOBJ":"Kendal","WADMKC":"Sekaran","WADMKK":"Lamongan"},"geometry":{"type":"Point","coordinates":[112.2,-7.0]}},{"type":"Feature","properties":{"Line":"S110","Sp":"1488.5","X":"634300.5","Y":"9221225.3","NAMOBJ":"Kendal","WADMKC":"Sekaran","WADMKK":"Lamongan"},"geometry":{"type":"Point","coordinates":[112.2,-7.0]}},{"type":"Feature","properties":{"Line":"S110","Sp":"1492.5","X":"634300.5","Y":"9221175.3","NAMOBJ":"Kendal","WADMKC":"Sekaran","WADMKK":"Lamongan"},"geometry":{"type":"Point","coordinates":[112.2,-7.0]}},{"type":"Feature","properties":{"Line":"S110","Sp":"1496.5","X":"634300.5","Y":"9221125.3","NAMOBJ":"Kendal","WADMKC":"Sekaran","WADMKK":"Lamongan"},"geometry":{"type":"Point","coordinates":[112.2,-7.0]}},{"type":"Feature","properties":{"Line":"S110","Sp":"1500.5","X":"634300.5","Y":"9221075.3","NAMOBJ":"Kendal","WADMKC":"Sekaran","WADMKK":"Lamongan"},"geometry":{"type":"Point","coordinates":[112.2,-7.0]}},{"type":"Feature","properties":{"Line":"S110","Sp":"1504.5","X":"634300.5","Y":"9221025.3","NAMOBJ":"Kendal","WADMKC":"Sekaran","WADMKK":"Lamongan"},"geometry":{"type":"Point","coordinates":[112.2,-7.0]}},{"type":"Feature","properties":{"Line":"S110","Sp":"1508.5","X":"634300.5","Y":"9220975.3","NAMOBJ":"Kendal","WADMKC":"Sekaran","WADMKK":"Lamongan"},"geometry":{"type":"Point","coordinates":[112.2,-7.0]}},{"type":"Feature","properties":{"Line":"S110","Sp":"1512.5","X":"634300.5","Y":"9220925.3","NAMOBJ":"Kendal","WADMKC":"Sekaran","WADMKK":"Lamongan"},"geometry":{"type":"Point","coordinates":[112.2,-7.0]}},{"type":"Feature","properties":{"Line":"S110","Sp":"1516.5","X":"634300.5","Y":"9220875.3","NAMOBJ":"Kendal","WADMKC":"Sekaran","WADMKK":"Lamongan"},"geometry":{"type":"Point","coordinates":[112.2,-7.0]}},{"type":"Feature","properties":{"Line":"S110","Sp":"1520.5","X":"634300.5","Y":"9220825.3","NAMOBJ":"Kendal","WADMKC":"Sekaran","WADMKK":"Lamongan"},"geometry":{"type":"Point","coordinates":[112.2,-7.0]}},{"type":"Feature","properties":{"Line":"S110","Sp":"1524.5","X":"634300.5","Y":"9220775.3","NAMOBJ":"Kendal","WADMKC":"Sekaran","WADMKK":"Lamongan"},"geometry":{"type":"Point","coordinates":[112.2,-7.0]}},{"type":"Feature","properties":{"Line":"S110","Sp":"1528.5","X":"634300.5","Y":"9220725.3","NAMOBJ":"Kendal","WADMKC":"Sekaran","WADMKK":"Lamongan"},"geometry":{"type":"Point","coordinates":[112.2,-7.0]}},{"type":"Feature","properties":{"Line":"S110","Sp":"1532.5","X":"634300.5","Y":"9220675.3","NAMOBJ":"Kendal","WADMKC":"Sekaran","WADMKK":"Lamongan"},"geometry":{"type":"Point","coordinates":[112.2,-7.0]}},{"type":"Feature","properties":{"Line":"S110","Sp":"1536.5","X":"634300.5","Y":"9220625.3","NAMOBJ":"Kendal","WADMKC":"Sekaran","WADMKK":"Lamongan"},"geometry":{"type":"Point","coordinates":[112.2,-7.0]}},{"type":"Feature","properties":{"Line":"S110","Sp":"1540.5","X":"634300.5","Y":"9220575.3","NAMOBJ":"Kendal","WADMKC":"Sekaran","WADMKK":"Lamongan"},"geometry":{"type":"Point","coordinates":[112.2,-7.0]}},{"type":"Feature","properties":{"Line":"S112","Sp":"1464.5","X":"635300.5","Y":"9221225.3","NAMOBJ":"Kendal","WADMKC":"Sekaran","WADMKK":"Lamongan"},"geometry":{"type":"Point","coordinates":[112.2,-7.0]}},{"type":"Feature","properties":{"Line":"S112","Sp":"1468.5","X":"635300.5","Y":"9221175.3","NAMOBJ":"Kendal","WADMKC":"Sekaran","WADMKK":"Lamongan"},"geometry":{"type":"Point","coordinates":[112.2,-7.0]}},{"type":"Feature","properties":{"Line":"S112","Sp":"1472.5","X":"635300.5","Y":"9221125.3","NAMOBJ":"Kendal","WADMKC":"Sekaran","WADMKK":"Lamongan"},"geometry":{"type":"Point","coordinates":[112.2,-7.0]}},{"type":"Feature","properties":{"Line":"S112","Sp":"1476.5","X":"635300.5","Y":"9221075.3","NAMOBJ":"Kendal","WADMKC":"Sekaran","WADMKK":"Lamongan"},"geometry":{"type":"Point","coordinates":[112.2,-7.0]}},{"type":"Feature","properties":{"Line":"S112","Sp":"1480.5","X":"635300.5","Y":"9221025.3","NAMOBJ":"Kendal","WADMKC":"Sekaran","WADMKK":"Lamongan"},"geometry":{"type":"Point","coordinates":[112.2,-7.0]}},{"type":"Feature","properties":{"Line":"S112","Sp":"1484.5","X":"635300.5","Y":"9220975.3","NAMOBJ":"Kendal","WADMKC":"Sekaran","WADMKK":"Lamongan"},"geometry":{"type":"Point","coordinates":[112.2,-7.0]}},{"type":"Feature","properties":{"Line":"S112","Sp":"1488.5","X":"635300.5","Y":"9220925.3","NAMOBJ":"Kendal","WADMKC":"Sekaran","WADMKK":"Lamongan"},"geometry":{"type":"Point","coordinates":[112.2,-7.0]}},{"type":"Feature","properties":{"Line":"S112","Sp":"1492.5","X":"635300.5","Y":"9220875.3","NAMOBJ":"Kendal","WADMKC":"Sekaran","WADMKK":"Lamongan"},"geometry":{"type":"Point","coordinates":[112.2,-7.0]}},{"type":"Feature","properties":{"Line":"S112","Sp":"1496.5","X":"635300.5","Y":"9220825.3","NAMOBJ":"Kendal","WADMKC":"Sekaran","WADMKK":"Lamongan"},"geometry":{"type":"Point","coordinates":[112.2,-7.0]}},{"type":"Feature","properties":{"Line":"S112","Sp":"1500.5","X":"635300.5","Y":"9220775.3","NAMOBJ":"Kendal","WADMKC":"Sekaran","WADMKK":"Lamongan"},"geometry":{"type":"Point","coordinates":[112.2,-7.0]}},{"type":"Feature","properties":{"Line":"S112","Sp":"1504.5","X":"635300.5","Y":"9220725.3","NAMOBJ":"Kendal","WADMKC":"Sekaran","WADMKK":"Lamongan"},"geometry":{"type":"Point","coordinates":[112.2,-7.0]}},{"type":"Feature","properties":{"Line":"S112","Sp":"1508.5","X":"635300.5","Y":"9220675.3","NAMOBJ":"Kendal","WADMKC":"Sekaran","WADMKK":"Lamongan"},"geometry":{"type":"Point","coordinates":[112.2,-7.0]}},{"type":"Feature","properties":{"Line":"S112","Sp":"1512.5","X":"635300.5","Y":"9220625.3","NAMOBJ":"Kendal","WADMKC":"Sekaran","WADMKK":"Lamongan"},"geometry":{"type":"Point","coordinates":[112.2,-7.0]}},{"type":"Feature","properties":{"Line":"S112","Sp":"1516.5","X":"635300.5","Y":"9220575.3","NAMOBJ":"Kendal","WADMKC":"Sekaran","WADMKK":"Lamongan"},"geometry":{"type":"Point","coordinates":[112.2,-7.0]}},{"type":"Feature","properties":{"Line":"S114","Sp":"1500.5","X":"636300.5","Y":"9220775.3","NAMOBJ":"Kendal","WADMKC":"Sekaran","WADMKK":"Lamongan"},"geometry":{"type":"Point","coordinates":[112.2,-7.0]}},{"type":"Feature","properties":{"Line":"S114","Sp":"1504.5","X":"636300.5","Y":"9220725.3","NAMOBJ":"Kendal","WADMKC":"Sekaran","WADMKK":"Lamongan"},"geometry":{"type":"Point","coordinates":[112.2,-7.0]}},{"type":"Feature","properties":{"Line":"S114","Sp":"1508.5","X":"636300.5","Y":"9220675.3","NAMOBJ":"Kendal","WADMKC":"Sekaran","WADMKK":"Lamongan"},"geometry":{"type":"Point","coordinates":[112.2,-7.0]}},{"type":"Feature","properties":{"Line":"S125","Sp":"1736.5","X":"634325.5","Y":"9220800.3","NAMOBJ":"Kendal","WADMKC":"Sekaran","WADMKK":"Lamongan"},"geometry":{"type":"Point","coordinates":[112.2,-7.0]}},{"type":"Feature","properties":{"Line":"S125","Sp":"1740.5","X":"634375.5","Y":"9220800.3","NAMOBJ":"Kendal","WADMKC":"Sekaran","WADMKK":"Lamongan"},"geometry":{"type":"Point","coordinates":[112.2,-7.0]}},{"type":"Feature","properties":{"Line":"S125","Sp":"1744.5","X":"634425.5","Y":"9220800.3","NAMOBJ":"Kendal","WADMKC":"Sekaran","WADMKK":"Lamongan"},"geometry":{"type":"Point","coordinates":[112.2,-7.0]}},{"type":"Feature","properties":{"Line":"S125","Sp":"1748.5","X":"634475.5","Y":"9220800.3","NAMOBJ":"Kendal","WADMKC":"Sekaran","WADMKK":"Lamongan"},"geometry":{"type":"Point","coordinates":[112.2,-7.0]}},{"type":"Feature","properties":{"Line":"S125","Sp":"1752.5","X":"634525.5","Y":"9220800.3","NAMOBJ":"Kendal","WADMKC":"Sekaran","WADMKK":"Lamongan"},"geometry":{"type":"Point","coordinates":[112.2,-7.0]}},{"type":"Feature","properties":{"Line":"S125","Sp":"1756.5","X":"634575.5","Y":"9220800.3","NAMOBJ":"Kendal","WADMKC":"Sekaran","WADMKK":"Lamongan"},"geometry":{"type":"Point","coordinates":[112.2,-7.0]}},{"type":"Feature","properties":{"Line":"S125","Sp":"1760.5","X":"634625.5","Y":"9220800.3","NAMOBJ":"Kendal","WADMKC":"Sekaran","WADMKK":"Lamongan"},"geometry":{"type":"Point","coordinates":[112.2,-7.0]}},{"type":"Feature","properties":{"Line":"S125","Sp":"1764.5","X":"634675.5","Y":"9220800.3","NAMOBJ":"Kendal","WADMKC":"Sekaran","WADMKK":"Lamongan"},"geometry":{"type":"Point","coordinates":[112.2,-7.0]}},{"type":"Feature","properties":{"Line":"S125","Sp":"1768.5","X":"634725.5","Y":"9220800.3","NAMOBJ":"Kendal","WADMKC":"Sekaran","WADMKK":"Lamongan"},"geometry":{"type":"Point","coordinates":[112.2,-7.0]}},{"type":"Feature","properties":{"Line":"S125","Sp":"1772.5","X":"634775.5","Y":"9220800.3","NAMOBJ":"Kendal","WADMKC":"Sekaran","WADMKK":"Lamongan"},"geometry":{"type":"Point","coordinates":[112.2,-7.0]}},{"type":"Feature","properties":{"Line":"S125","Sp":"1776.5","X":"634825.5","Y":"9220800.3","NAMOBJ":"Kendal","WADMKC":"Sekaran","WADMKK":"Lamongan"},"geometry":{"type":"Point","coordinates":[112.2,-7.0]}},{"type":"Feature","properties":{"Line":"S125","Sp":"1780.5","X":"634875.5","Y":"9220800.3","NAMOBJ":"Kendal","WADMKC":"Sekaran","WADMKK":"Lamongan"},"geometry":{"type":"Point","coordinates":[112.2,-7.0]}},{"type":"Feature","properties":{"Line":"S125","Sp":"1784.5","X":"634925.5","Y":"9220800.3","NAMOBJ":"Kendal","WADMKC":"Sekaran","WADMKK":"Lamongan"},"geometry":{"type":"Point","coordinates":[112.2,-7.0]}},{"type":"Feature","properties":{"Line":"S125","Sp":"1788.5","X":"634975.5","Y":"9220800.3","NAMOBJ":"Kendal","WADMKC":"Sekaran","WADMKK":"Lamongan"},"geometry":{"type":"Point","coordinates":[112.2,-7.0]}},{"type":"Feature","properties":{"Line":"S125","Sp":"1792.5","X":"635025.5","Y":"9220800.3","NAMOBJ":"Kendal","WADMKC":"Sekaran","WADMKK":"Lamongan"},"geometry":{"type":"Point","coordinates":[112.2,-7.0]}},{"type":"Feature","properties":{"Line":"S125","Sp":"1796.5","X":"635075.5","Y":"9220800.3","NAMOBJ":"Kendal","WADMKC":"Sekaran","WADMKK":"Lamongan"},"geometry":{"type":"Point","coordinates":[112.2,-7.0]}},{"type":"Feature","properties":{"Line":"S125","Sp":"1800.5","X":"635125.5","Y":"9220800.3","NAMOBJ":"Kendal","WADMKC":"Sekaran","WADMKK":"Lamongan"},"geometry":{"type":"Point","coordinates":[112.2,-7.0]}},{"type":"Feature","properties":{"Line":"S125","Sp":"1804.5","X":"635175.5","Y":"9220800.3","NAMOBJ":"Kendal","WADMKC":"Sekaran","WADMKK":"Lamongan"},"geometry":{"type":"Point","coordinates":[112.2,-7.0]}},{"type":"Feature","properties":{"Line":"S125","Sp":"1808.5","X":"635225.5","Y":"9220800.3","NAMOBJ":"Kendal","WADMKC":"Sekaran","WADMKK":"Lamongan"},"geometry":{"type":"Point","coordinates":[112.2,-7.0]}},{"type":"Feature","properties":{"Line":"S125","Sp":"1812.5","X":"635275.5","Y":"9220800.3","NAMOBJ":"Kendal","WADMKC":"Sekaran","WADMKK":"Lamongan"},"geometry":{"type":"Point","coordinates":[112.2,-7.0]}},{"type":"Feature","properties":{"Line":"S125","Sp":"1816.5","X":"635325.5","Y":"9220800.3","NAMOBJ":"Kendal","WADMKC":"Sekaran","WADMKK":"Lamongan"},"geometry":{"type":"Point","coordinates":[112.2,-7.0]}},{"type":"Feature","properties":{"Line":"S125","Sp":"1820.5","X":"635375.5","Y":"9220800.3","NAMOBJ":"Kendal","WADMKC":"Sekaran","WADMKK":"Lamongan"},"geometry":{"type":"Point","coordinates":[112.2,-7.0]}},{"type":"Feature","properties":{"Line":"S125","Sp":"1824.5","X":"635425.5","Y":"9220800.3","NAMOBJ":"Kendal","WADMKC":"Sekaran","WADMKK":"Lamongan"},"geometry":{"type":"Point","coordinates":[112.2,-7.0]}},{"type":"Feature","properties":{"Line":"S125","Sp":"1828.5","X":"635475.5","Y":"9220800.3","NAMOBJ":"Kendal","WADMKC":"Sekaran","WADMKK":"Lamongan"},"geometry":{"type":"Point","coordinates":[112.2,-7.0]}},{"type":"Feature","properties":{"Line":"S125","Sp":"1832.5","X":"635525.5","Y":"9220800.3","NAMOBJ":"Kendal","WADMKC":"Sekaran","WADMKK":"Lamongan"},"geometry":{"type":"Point","coordinates":[112.2,-7.0]}},{"type":"Feature","properties":{"Line":"S125","Sp":"1836.5","X":"635575.5","Y":"9220800.3","NAMOBJ":"Kendal","WADMKC":"Sekaran","WADMKK":"Lamongan"},"geometry":{"type":"Point","coordinates":[112.2,-7.0]}},{"type":"Feature","properties":{"Line":"S125","Sp":"1840.5","X":"635625.5","Y":"9220800.3","NAMOBJ":"Kendal","WADMKC":"Sekaran","WADMKK":"Lamongan"},"geometry":{"type":"Point","coordinates":[112.2,-7.0]}},{"type":"Feature","properties":{"Line":"S125","Sp":"1844.5","X":"635675.5","Y":"9220800.3","NAMOBJ":"Kendal","WADMKC":"Sekaran","WADMKK":"Lamongan"},"geometry":{"type":"Point","coordinates":[112.2,-7.0]}},{"type":"Feature","properties":{"Line":"S125","Sp":"1848.5","X":"635725.5","Y":"9220800.3","NAMOBJ":"Kendal","WADMKC":"Sekaran","WADMKK":"Lamongan"},"geometry":{"type":"Point","coordinates":[112.2,-7.0]}},{"type":"Feature","properties":{"Line":"S125","Sp":"1852.5","X":"635775.5","Y":"9220800.3","NAMOBJ":"Kendal","WADMKC":"Sekaran","WADMKK":"Lamongan"},"geometry":{"type":"Point","coordinates":[112.2,-7.0]}},{"type":"Feature","properties":{"Line":"S125","Sp":"1856.5","X":"635825.5","Y":"9220800.3","NAMOBJ":"Kendal","WADMKC":"Sekaran","WADMKK":"Lamongan"},"geometry":{"type":"Point","coordinates":[112.2,-7.0]}},{"type":"Feature","properties":{"Line":"S125","Sp":"1860.5","X":"635875.5","Y":"9220800.3","NAMOBJ":"Kendal","WADMKC":"Sekaran","WADMKK":"Lamongan"},"geometry":{"type":"Point","coordinates":[112.2,-7.0]}},{"type":"Feature","properties":{"Line":"S125","Sp":"1864.5","X":"635925.5","Y":"9220800.3","NAMOBJ":"Kendal","WADMKC":"Sekaran","WADMKK":"Lamongan"},"geometry":{"type":"Point","coordinates":[112.2,-7.0]}},{"type":"Feature","properties":{"Line":"S125","Sp":"1868.5","X":"635975.5","Y":"9220800.3","NAMOBJ":"Kendal","WADMKC":"Sekaran","WADMKK":"Lamongan"},"geometry":{"type":"Point","coordinates":[112.2,-7.0]}},{"type":"Feature","properties":{"Line":"S125","Sp":"1872.5","X":"636025.5","Y":"9220800.3","NAMOBJ":"Kendal","WADMKC":"Sekaran","WADMKK":"Lamongan"},"geometry":{"type":"Point","coordinates":[112.2,-7.0]}},{"type":"Feature","properties":{"Line":"S125","Sp":"1876.5","X":"636075.5","Y":"9220800.3","NAMOBJ":"Kendal","WADMKC":"Sekaran","WADMKK":"Lamongan"},"geometry":{"type":"Point","coordinates":[112.2,-7.0]}},{"type":"Feature","properties":{"Line":"S125","Sp":"1880.5","X":"636125.5","Y":"9220800.3","NAMOBJ":"Kendal","WADMKC":"Sekaran","WADMKK":"Lamongan"},"geometry":{"type":"Point","coordinates":[112.2,-7.0]}},{"type":"Feature","properties":{"Line":"S125","Sp":"1884.5","X":"636175.5","Y":"9220800.3","NAMOBJ":"Kendal","WADMKC":"Sekaran","WADMKK":"Lamongan"},"geometry":{"type":"Point","coordinates":[112.2,-7.0]}},{"type":"Feature","properties":{"Line":"S125","Sp":"1888.5","X":"636225.5","Y":"9220800.3","NAMOBJ":"Kendal","WADMKC":"Sekaran","WADMKK":"Lamongan"},"geometry":{"type":"Point","coordinates":[112.2,-7.0]}},{"type":"Feature","properties":{"Line":"S112","Sp":"1404.5","X":"635300.5","Y":"9221975.3","NAMOBJ":"Keting","WADMKC":"Sekaran","WADMKK":"Lamongan"},"geometry":{"type":"Point","coordinates":[112.2,-7.0]}},{"type":"Feature","properties":{"Line":"S112","Sp":"1408.5","X":"635300.5","Y":"9221925.3","NAMOBJ":"Keting","WADMKC":"Sekaran","WADMKK":"Lamongan"},"geometry":{"type":"Point","coordinates":[112.2,-7.0]}},{"type":"Feature","properties":{"Line":"S112","Sp":"1412.5","X":"635300.5","Y":"9221875.3","NAMOBJ":"Keting","WADMKC":"Sekaran","WADMKK":"Lamongan"},"geometry":{"type":"Point","coordinates":[112.2,-7.0]}},{"type":"Feature","properties":{"Line":"S112","Sp":"1416.5","X":"635300.5","Y":"9221825.3","NAMOBJ":"Keting","WADMKC":"Sekaran","WADMKK":"Lamongan"},"geometry":{"type":"Point","coordinates":[112.2,-7.0]}},{"type":"Feature","properties":{"Line":"S112","Sp":"1420.5","X":"635300.5","Y":"9221775.3","NAMOBJ":"Keting","WADMKC":"Sekaran","WADMKK":"Lamongan"},"geometry":{"type":"Point","coordinates":[112.2,-7.0]}},{"type":"Feature","properties":{"Line":"S112","Sp":"1424.5","X":"635300.5","Y":"9221725.3","NAMOBJ":"Keting","WADMKC":"Sekaran","WADMKK":"Lamongan"},"geometry":{"type":"Point","coordinates":[112.2,-7.0]}},{"type":"Feature","properties":{"Line":"S112","Sp":"1428.5","X":"635300.5","Y":"9221675.3","NAMOBJ":"Keting","WADMKC":"Sekaran","WADMKK":"Lamongan"},"geometry":{"type":"Point","coordinates":[112.2,-7.0]}},{"type":"Feature","properties":{"Line":"S112","Sp":"1432.5","X":"635300.5","Y":"9221625.3","NAMOBJ":"Keting","WADMKC":"Sekaran","WADMKK":"Lamongan"},"geometry":{"type":"Point","coordinates":[112.2,-7.0]}},{"type":"Feature","properties":{"Line":"S112","Sp":"1436.5","X":"635300.5","Y":"9221575.3","NAMOBJ":"Keting","WADMKC":"Sekaran","WADMKK":"Lamongan"},"geometry":{"type":"Point","coordinates":[112.2,-7.0]}},{"type":"Feature","properties":{"Line":"S112","Sp":"1440.5","X":"635300.5","Y":"9221525.3","NAMOBJ":"Keting","WADMKC":"Sekaran","WADMKK":"Lamongan"},"geometry":{"type":"Point","coordinates":[112.2,-7.0]}},{"type":"Feature","properties":{"Line":"S112","Sp":"1444.5","X":"635300.5","Y":"9221475.3","NAMOBJ":"Keting","WADMKC":"Sekaran","WADMKK":"Lamongan"},"geometry":{"type":"Point","coordinates":[112.2,-7.0]}},{"type":"Feature","properties":{"Line":"S112","Sp":"1448.5","X":"635300.5","Y":"9221425.3","NAMOBJ":"Keting","WADMKC":"Sekaran","WADMKK":"Lamongan"},"geometry":{"type":"Point","coordinates":[112.2,-7.0]}},{"type":"Feature","properties":{"Line":"S112","Sp":"1452.5","X":"635300.5","Y":"9221375.3","NAMOBJ":"Keting","WADMKC":"Sekaran","WADMKK":"Lamongan"},"geometry":{"type":"Point","coordinates":[112.2,-7.0]}},{"type":"Feature","properties":{"Line":"S112","Sp":"1456.5","X":"635300.5","Y":"9221325.3","NAMOBJ":"Keting","WADMKC":"Sekaran","WADMKK":"Lamongan"},"geometry":{"type":"Point","coordinates":[112.2,-7.0]}},{"type":"Feature","properties":{"Line":"S112","Sp":"1460.5","X":"635300.5","Y":"9221275.3","NAMOBJ":"Keting","WADMKC":"Sekaran","WADMKK":"Lamongan"},"geometry":{"type":"Point","coordinates":[112.2,-7.0]}},{"type":"Feature","properties":{"Line":"S114","Sp":"1440.5","X":"636300.5","Y":"9221525.3","NAMOBJ":"Keting","WADMKC":"Sekaran","WADMKK":"Lamongan"},"geometry":{"type":"Point","coordinates":[112.2,-7.0]}},{"type":"Feature","properties":{"Line":"S114","Sp":"1444.5","X":"636300.5","Y":"9221475.3","NAMOBJ":"Keting","WADMKC":"Sekaran","WADMKK":"Lamongan"},"geometry":{"type":"Point","coordinates":[112.2,-7.0]}},{"type":"Feature","properties":{"Line":"S114","Sp":"1448.5","X":"636300.5","Y":"9221425.3","NAMOBJ":"Keting","WADMKC":"Sekaran","WADMKK":"Lamongan"},"geometry":{"type":"Point","coordinates":[112.2,-7.0]}},{"type":"Feature","properties":{"Line":"S114","Sp":"1452.5","X":"636300.5","Y":"9221375.3","NAMOBJ":"Keting","WADMKC":"Sekaran","WADMKK":"Lamongan"},"geometry":{"type":"Point","coordinates":[112.2,-7.0]}},{"type":"Feature","properties":{"Line":"S114","Sp":"1456.5","X":"636300.5","Y":"9221325.3","NAMOBJ":"Keting","WADMKC":"Sekaran","WADMKK":"Lamongan"},"geometry":{"type":"Point","coordinates":[112.2,-7.0]}},{"type":"Feature","properties":{"Line":"S114","Sp":"1460.5","X":"636300.5","Y":"9221275.3","NAMOBJ":"Keting","WADMKC":"Sekaran","WADMKK":"Lamongan"},"geometry":{"type":"Point","coordinates":[112.2,-7.0]}},{"type":"Feature","properties":{"Line":"S114","Sp":"1464.5","X":"636300.5","Y":"9221225.3","NAMOBJ":"Keting","WADMKC":"Sekaran","WADMKK":"Lamongan"},"geometry":{"type":"Point","coordinates":[112.2,-7.0]}},{"type":"Feature","properties":{"Line":"S114","Sp":"1468.5","X":"636300.5","Y":"9221175.3","NAMOBJ":"Keting","WADMKC":"Sekaran","WADMKK":"Lamongan"},"geometry":{"type":"Point","coordinates":[112.2,-7.0]}},{"type":"Feature","properties":{"Line":"S114","Sp":"1472.5","X":"636300.5","Y":"9221125.3","NAMOBJ":"Keting","WADMKC":"Sekaran","WADMKK":"Lamongan"},"geometry":{"type":"Point","coordinates":[112.2,-7.0]}},{"type":"Feature","properties":{"Line":"S114","Sp":"1476.5","X":"636300.5","Y":"9221075.3","NAMOBJ":"Keting","WADMKC":"Sekaran","WADMKK":"Lamongan"},"geometry":{"type":"Point","coordinates":[112.2,-7.0]}},{"type":"Feature","properties":{"Line":"S114","Sp":"1480.5","X":"636300.5","Y":"9221025.3","NAMOBJ":"Keting","WADMKC":"Sekaran","WADMKK":"Lamongan"},"geometry":{"type":"Point","coordinates":[112.2,-7.0]}},{"type":"Feature","properties":{"Line":"S114","Sp":"1484.5","X":"636300.5","Y":"9220975.3","NAMOBJ":"Keting","WADMKC":"Sekaran","WADMKK":"Lamongan"},"geometry":{"type":"Point","coordinates":[112.2,-7.0]}},{"type":"Feature","properties":{"Line":"S114","Sp":"1488.5","X":"636300.5","Y":"9220925.3","NAMOBJ":"Keting","WADMKC":"Sekaran","WADMKK":"Lamongan"},"geometry":{"type":"Point","coordinates":[112.2,-7.0]}},{"type":"Feature","properties":{"Line":"S114","Sp":"1492.5","X":"636300.5","Y":"9220875.3","NAMOBJ":"Keting","WADMKC":"Sekaran","WADMKK":"Lamongan"},"geometry":{"type":"Point","coordinates":[112.2,-7.0]}},{"type":"Feature","properties":{"Line":"S114","Sp":"1496.5","X":"636300.5","Y":"9220825.3","NAMOBJ":"Keting","WADMKC":"Sekaran","WADMKK":"Lamongan"},"geometry":{"type":"Point","coordinates":[112.2,-7.0]}},{"type":"Feature","properties":{"Line":"S125","Sp":"1892.5","X":"636275.5","Y":"9220800.3","NAMOBJ":"Keting","WADMKC":"Sekaran","WADMKK":"Lamongan"},"geometry":{"type":"Point","coordinates":[112.2,-7.0]}},{"type":"Feature","properties":{"Line":"S125","Sp":"1896.5","X":"636325.5","Y":"9220800.3","NAMOBJ":"Keting","WADMKC":"Sekaran","WADMKK":"Lamongan"},"geometry":{"type":"Point","coordinates":[112.2,-7.0]}},{"type":"Feature","properties":{"Line":"S125","Sp":"1900.5","X":"636375.5","Y":"9220800.3","NAMOBJ":"Keting","WADMKC":"Sekaran","WADMKK":"Lamongan"},"geometry":{"type":"Point","coordinates":[112.2,-7.0]}},{"type":"Feature","properties":{"Line":"S125","Sp":"1904.5","X":"636425.5","Y":"9220800.3","NAMOBJ":"Keting","WADMKC":"Sekaran","WADMKK":"Lamongan"},"geometry":{"type":"Point","coordinates":[112.2,-7.0]}},{"type":"Feature","properties":{"Line":"S125","Sp":"1908.5","X":"636475.5","Y":"9220800.3","NAMOBJ":"Keting","WADMKC":"Sekaran","WADMKK":"Lamongan"},"geometry":{"type":"Point","coordinates":[112.2,-7.0]}},{"type":"Feature","properties":{"Line":"S125","Sp":"1912.5","X":"636525.5","Y":"9220800.3","NAMOBJ":"Keting","WADMKC":"Sekaran","WADMKK":"Lamongan"},"geometry":{"type":"Point","coordinates":[112.2,-7.0]}},{"type":"Feature","properties":{"Line":"S125","Sp":"1916.5","X":"636575.5","Y":"9220800.3","NAMOBJ":"Keting","WADMKC":"Sekaran","WADMKK":"Lamongan"},"geometry":{"type":"Point","coordinates":[112.2,-7.0]}},{"type":"Feature","properties":{"Line":"S125","Sp":"1920.5","X":"636625.5","Y":"9220800.3","NAMOBJ":"Keting","WADMKC":"Sekaran","WADMKK":"Lamongan"},"geometry":{"type":"Point","coordinates":[112.2,-7.0]}},{"type":"Feature","properties":{"Line":"S125","Sp":"1924.5","X":"636675.5","Y":"9220800.3","NAMOBJ":"Keting","WADMKC":"Sekaran","WADMKK":"Lamongan"},"geometry":{"type":"Point","coordinates":[112.2,-7.0]}},{"type":"Feature","properties":{"Line":"S125","Sp":"1928.5","X":"636725.5","Y":"9220800.3","NAMOBJ":"Keting","WADMKC":"Sekaran","WADMKK":"Lamongan"},"geometry":{"type":"Point","coordinates":[112.2,-7.0]}},{"type":"Feature","properties":{"Line":"S125","Sp":"1932.5","X":"636775.5","Y":"9220800.3","NAMOBJ":"Keting","WADMKC":"Sekaran","WADMKK":"Lamongan"},"geometry":{"type":"Point","coordinates":[112.2,-7.0]}},{"type":"Feature","properties":{"Line":"S114","Sp":"1512.5","X":"636300.5","Y":"9220625.3","NAMOBJ":"Ngarum","WADMKC":"Sekaran","WADMKK":"Lamongan"},"geometry":{"type":"Point","coordinates":[112.2,-7.0]}},{"type":"Feature","properties":{"Line":"S114","Sp":"1516.5","X":"636300.5","Y":"9220575.3","NAMOBJ":"Ngarum","WADMKC":"Sekaran","WADMKK":"Lamongan"},"geometry":{"type":"Point","coordinates":[112.2,-7.0]}}]}