{"type":"FeatureCollection","features":[{"type":"Feature","properties":{"Line":"R128","Tr":1001,"X":"643300.5","Y":"9227419.0","Rotation":0,"NAMOBJ":"Kanugrahan","WADMKC":"Maduran","WADMKK":"Lamongan"},"geometry":{"type":"Point","coordinates":[112.29726973,-6.98764999]}},{"type":"Feature","properties":{"Line":"R128","Tr":1002,"X":"643300.5","Y":"9227406.5","Rotation":0,"NAMOBJ":"Kanugrahan","WADMKC":"Maduran","WADMKK":"Lamongan"},"geometry":{"type":"Point","coordinates":[112.29727004,-6.98776304]}},{"type":"Feature","properties":{"Line":"R128","Tr":1003,"X":"643300.5","Y":"9227394.0","Rotation":0,"NAMOBJ":"Kanugrahan","WADMKC":"Maduran","WADMKK":"Lamongan"},"geometry":{"type":"Point","coordinates":[112.29727035,-6.98787608]}},{"type":"Feature","properties":{"Line":"R128","Tr":1004,"X":"643300.5","Y":"9227381.5","Rotation":0,"NAMOBJ":"Kanugrahan","WADMKC":"Maduran","WADMKK":"Lamongan"},"geometry":{"type":"Point","coordinates":[112.29727067,-6.98798913]}},{"type":"Feature","properties":{"Line":"R128","Tr":1005,"X":"643300.5","Y":"9227369.0","Rotation":0,"NAMOBJ":"Kanugrahan","WADMKC":"Maduran","WADMKK":"Lamongan"},"geometry":{"type":"Point","coordinates":[112.29727098,-6.98810217]}},{"type":"Feature","properties":{"Line":"R128","Tr":1006,"X":"643300.5","Y":"9227356.5","Rotation":0,"NAMOBJ":"Kanugrahan","WADMKC":"Maduran","WADMKK":"Lamongan"},"geometry":{"type":"Point","coordinates":[112.29727129,-6.98821522]}},{"type":"Feature","properties":{"Line":"R128","Tr":1007,"X":"643300.5","Y":"9227344.0","Rotation":0,"NAMOBJ":"Kanugrahan","WADMKC":"Maduran","WADMKK":"Lamongan"},"geometry":{"type":"Point","coordinates":[112.2972716,-6.98832827]}},{"type":"Feature","properties":{"Line":"R128","Tr":1008,"X":"643300.5","Y":"9227331.5","Rotation":0,"NAMOBJ":"Kanugrahan","WADMKC":"Maduran","WADMKK":"Lamongan"},"geometry":{"type":"Point","coordinates":[112.29727191,-6.98844131]}},{"type":"Feature","properties":{"Line":"R128","Tr":1009,"X":"643300.5","Y":"9227319.0","Rotation":0,"NAMOBJ":"Kanugrahan","WADMKC":"Maduran","WADMKK":"Lamongan"},"geometry":{"type":"Point","coordinates":[112.29727222,-6.98855436]}},{"type":"Feature","properties":{"Line":"R128","Tr":1010,"X":"643300.5","Y":"9227306.5","Rotation":0,"NAMOBJ":"Kanugrahan","WADMKC":"Maduran","WADMKK":"Lamongan"},"geometry":{"type":"Point","coordinates":[112.29727254,-6.9886674]}},{"type":"Feature","properties":{"Line":"R128","Tr":1011,"X":"643300.5","Y":"9227294.0","Rotation":0,"NAMOBJ":"Kanugrahan","WADMKC":"Maduran","WADMKK":"Lamongan"},"geometry":{"type":"Point","coordinates":[112.29727285,-6.98878045]}},{"type":"Feature","properties":{"Line":"R128","Tr":1012,"X":"643300.5","Y":"9227281.5","Rotation":0,"NAMOBJ":"Kanugrahan","WADMKC":"Maduran","WADMKK":"Lamongan"},"geometry":{"type":"Point","coordinates":[112.29727316,-6.98889349]}},{"type":"Feature","properties":{"Line":"R128","Tr":1013,"X":"643300.5","Y":"9227269.0","Rotation":0,"NAMOBJ":"Kanugrahan","WADMKC":"Maduran","WADMKK":"Lamongan"},"geometry":{"type":"Point","coordinates":[112.29727347,-6.98900654]}},{"type":"Feature","properties":{"Line":"R128","Tr":1014,"X":"643300.5","Y":"9227256.5","Rotation":0,"NAMOBJ":"Kanugrahan","WADMKC":"Maduran","WADMKK":"Lamongan"},"geometry":{"type":"Point","coordinates":[112.29727378,-6.98911958]}},{"type":"Feature","properties":{"Line":"R128","Tr":1015,"X":"643300.5","Y":"9227244.0","Rotation":0,"NAMOBJ":"Kanugrahan","WADMKC":"Maduran","WADMKK":"Lamongan"},"geometry":{"type":"Point","coordinates":[112.29727409,-6.98923263]}},{"type":"Feature","properties":{"Line":"R128","Tr":1016,"X":"643300.5","Y":"9227231.5","Rotation":0,"NAMOBJ":"Kanugrahan","WADMKC":"Maduran","WADMKK":"Lamongan"},"geometry":{"type":"Point","coordinates":[112.29727441,-6.98934567]}},{"type":"Feature","properties":{"Line":"R128","Tr":1017,"X":"643300.5","Y":"9227219.0","Rotation":0,"NAMOBJ":"Kanugrahan","WADMKC":"Maduran","WADMKK":"Lamongan"},"geometry":{"type":"Point","coordinates":[112.29727472,-6.98945872]}},{"type":"Feature","properties":{"Line":"R128","Tr":1018,"X":"643300.5","Y":"9227206.5","Rotation":0,"NAMOBJ":"Kanugrahan","WADMKC":"Maduran","WADMKK":"Lamongan"},"geometry":{"type":"Point","coordinates":[112.29727503,-6.98957177]}},{"type":"Feature","properties":{"Line":"R128","Tr":1019,"X":"643300.5","Y":"9227194.0","Rotation":0,"NAMOBJ":"Kanugrahan","WADMKC":"Maduran","WADMKK":"Lamongan"},"geometry":{"type":"Point","coordinates":[112.29727534,-6.98968481]}},{"type":"Feature","properties":{"Line":"R128","Tr":1020,"X":"643300.5","Y":"9227181.5","Rotation":0,"NAMOBJ":"Kanugrahan","WADMKC":"Maduran","WADMKK":"Lamongan"},"geometry":{"type":"Point","coordinates":[112.29727565,-6.98979786]}},{"type":"Feature","properties":{"Line":"R128","Tr":1021,"X":"643300.5","Y":"9227169.0","Rotation":0,"NAMOBJ":"Kanugrahan","WADMKC":"Maduran","WADMKK":"Lamongan"},"geometry":{"type":"Point","coordinates":[112.29727596,-6.9899109]}},{"type":"Feature","properties":{"Line":"R128","Tr":1022,"X":"643300.5","Y":"9227156.5","Rotation":0,"NAMOBJ":"Kanugrahan","WADMKC":"Maduran","WADMKK":"Lamongan"},"geometry":{"type":"Point","coordinates":[112.29727628,-6.99002395]}},{"type":"Feature","properties":{"Line":"R128","Tr":1023,"X":"643300.5","Y":"9227144.0","Rotation":0,"NAMOBJ":"Kanugrahan","WADMKC":"Maduran","WADMKK":"Lamongan"},"geometry":{"type":"Point","coordinates":[112.29727659,-6.99013699]}},{"type":"Feature","properties":{"Line":"R128","Tr":1024,"X":"643300.5","Y":"9227131.5","Rotation":0,"NAMOBJ":"Kanugrahan","WADMKC":"Maduran","WADMKK":"Lamongan"},"geometry":{"type":"Point","coordinates":[112.2972769,-6.99025004]}},{"type":"Feature","properties":{"Line":"R128","Tr":1025,"X":"643300.5","Y":"9227119.0","Rotation":0,"NAMOBJ":"Kanugrahan","WADMKC":"Maduran","WADMKK":"Lamongan"},"geometry":{"type":"Point","coordinates":[112.29727721,-6.99036308]}},{"type":"Feature","properties":{"Line":"R128","Tr":1026,"X":"643300.5","Y":"9227106.5","Rotation":0,"NAMOBJ":"Kanugrahan","WADMKC":"Maduran","WADMKK":"Lamongan"},"geometry":{"type":"Point","coordinates":[112.29727752,-6.99047613]}},{"type":"Feature","properties":{"Line":"R128","Tr":1027,"X":"643300.5","Y":"9227094.0","Rotation":0,"NAMOBJ":"Kanugrahan","WADMKC":"Maduran","WADMKK":"Lamongan"},"geometry":{"type":"Point","coordinates":[112.29727784,-6.99058917]}},{"type":"Feature","properties":{"Line":"R128","Tr":1028,"X":"643300.5","Y":"9227081.5","Rotation":0,"NAMOBJ":"Kanugrahan","WADMKC":"Maduran","WADMKK":"Lamongan"},"geometry":{"type":"Point","coordinates":[112.29727815,-6.99070222]}},{"type":"Feature","properties":{"Line":"R128","Tr":1029,"X":"643300.5","Y":"9227069.0","Rotation":0,"NAMOBJ":"Kanugrahan","WADMKC":"Maduran","WADMKK":"Lamongan"},"geometry":{"type":"Point","coordinates":[112.29727846,-6.99081526]}},{"type":"Feature","properties":{"Line":"R128","Tr":1030,"X":"643300.5","Y":"9227056.5","Rotation":0,"NAMOBJ":"Kanugrahan","WADMKC":"Maduran","WADMKK":"Lamongan"},"geometry":{"type":"Point","coordinates":[112.29727877,-6.99092831]}},{"type":"Feature","properties":{"Line":"R128","Tr":1031,"X":"643300.5","Y":"9227044.0","Rotation":0,"NAMOBJ":"Kanugrahan","WADMKC":"Maduran","WADMKK":"Lamongan"},"geometry":{"type":"Point","coordinates":[112.29727908,-6.99104136]}},{"type":"Feature","properties":{"Line":"R128","Tr":1032,"X":"643300.5","Y":"9227031.5","Rotation":0,"NAMOBJ":"Kanugrahan","WADMKC":"Maduran","WADMKK":"Lamongan"},"geometry":{"type":"Point","coordinates":[112.29727939,-6.9911544]}},{"type":"Feature","properties":{"Line":"R128","Tr":1033,"X":"643300.5","Y":"9227019.0","Rotation":0,"NAMOBJ":"Kanugrahan","WADMKC":"Maduran","WADMKK":"Lamongan"},"geometry":{"type":"Point","coordinates":[112.29727971,-6.99126745]}},{"type":"Feature","properties":{"Line":"R128","Tr":1034,"X":"643300.5","Y":"9227006.5","Rotation":0,"NAMOBJ":"Kanugrahan","WADMKC":"Maduran","WADMKK":"Lamongan"},"geometry":{"type":"Point","coordinates":[112.29728002,-6.99138049]}},{"type":"Feature","properties":{"Line":"R128","Tr":1035,"X":"643300.5","Y":"9226994.0","Rotation":0,"NAMOBJ":"Kanugrahan","WADMKC":"Maduran","WADMKK":"Lamongan"},"geometry":{"type":"Point","coordinates":[112.29728033,-6.99149354]}},{"type":"Feature","properties":{"Line":"R128","Tr":1036,"X":"643300.5","Y":"9226981.5","Rotation":0,"NAMOBJ":"Kanugrahan","WADMKC":"Maduran","WADMKK":"Lamongan"},"geometry":{"type":"Point","coordinates":[112.29728064,-6.99160658]}},{"type":"Feature","properties":{"Line":"R128","Tr":1037,"X":"643300.5","Y":"9226969.0","Rotation":0,"NAMOBJ":"Kanugrahan","WADMKC":"Maduran","WADMKK":"Lamongan"},"geometry":{"type":"Point","coordinates":[112.29728095,-6.99171963]}},{"type":"Feature","properties":{"Line":"R128","Tr":1038,"X":"643300.5","Y":"9226956.5","Rotation":0,"NAMOBJ":"Kanugrahan","WADMKC":"Maduran","WADMKK":"Lamongan"},"geometry":{"type":"Point","coordinates":[112.29728127,-6.99183267]}},{"type":"Feature","properties":{"Line":"R128","Tr":1039,"X":"643300.5","Y":"9226944.0","Rotation":0,"NAMOBJ":"Kanugrahan","WADMKC":"Maduran","WADMKK":"Lamongan"},"geometry":{"type":"Point","coordinates":[112.29728158,-6.99194572]}},{"type":"Feature","properties":{"Line":"R128","Tr":1040,"X":"643300.5","Y":"9226931.5","Rotation":0,"NAMOBJ":"Kanugrahan","WADMKC":"Maduran","WADMKK":"Lamongan"},"geometry":{"type":"Point","coordinates":[112.29728189,-6.99205876]}},{"type":"Feature","properties":{"Line":"R128","Tr":1041,"X":"643300.5","Y":"9226919.0","Rotation":0,"NAMOBJ":"Kanugrahan","WADMKC":"Maduran","WADMKK":"Lamongan"},"geometry":{"type":"Point","coordinates":[112.2972822,-6.99217181]}},{"type":"Feature","properties":{"Line":"R128","Tr":1042,"X":"643300.5","Y":"9226906.5","Rotation":0,"NAMOBJ":"Kanugrahan","WADMKC":"Maduran","WADMKK":"Lamongan"},"geometry":{"type":"Point","coordinates":[112.29728251,-6.99228486]}},{"type":"Feature","properties":{"Line":"R128","Tr":1043,"X":"643300.5","Y":"9226894.0","Rotation":0,"NAMOBJ":"Kanugrahan","WADMKC":"Maduran","WADMKK":"Lamongan"},"geometry":{"type":"Point","coordinates":[112.29728283,-6.9923979]}},{"type":"Feature","properties":{"Line":"R128","Tr":1044,"X":"643300.5","Y":"9226881.5","Rotation":0,"NAMOBJ":"Kanugrahan","WADMKC":"Maduran","WADMKK":"Lamongan"},"geometry":{"type":"Point","coordinates":[112.29728314,-6.99251095]}},{"type":"Feature","properties":{"Line":"R128","Tr":1045,"X":"643300.5","Y":"9226869.0","Rotation":0,"NAMOBJ":"Kanugrahan","WADMKC":"Maduran","WADMKK":"Lamongan"},"geometry":{"type":"Point","coordinates":[112.29728345,-6.99262399]}},{"type":"Feature","properties":{"Line":"R128","Tr":1046,"X":"643300.5","Y":"9226856.5","Rotation":0,"NAMOBJ":"Kanugrahan","WADMKC":"Maduran","WADMKK":"Lamongan"},"geometry":{"type":"Point","coordinates":[112.29728376,-6.99273704]}},{"type":"Feature","properties":{"Line":"R128","Tr":1047,"X":"643300.5","Y":"9226844.0","Rotation":0,"NAMOBJ":"Kanugrahan","WADMKC":"Maduran","WADMKK":"Lamongan"},"geometry":{"type":"Point","coordinates":[112.29728407,-6.99285008]}},{"type":"Feature","properties":{"Line":"R128","Tr":1048,"X":"643300.5","Y":"9226831.5","Rotation":0,"NAMOBJ":"Kanugrahan","WADMKC":"Maduran","WADMKK":"Lamongan"},"geometry":{"type":"Point","coordinates":[112.29728439,-6.99296313]}},{"type":"Feature","properties":{"Line":"R128","Tr":1049,"X":"643300.5","Y":"9226819.0","Rotation":0,"NAMOBJ":"Kanugrahan","WADMKC":"Maduran","WADMKK":"Lamongan"},"geometry":{"type":"Point","coordinates":[112.2972847,-6.99307617]}},{"type":"Feature","properties":{"Line":"R128","Tr":1050,"X":"643300.5","Y":"9226806.5","Rotation":0,"NAMOBJ":"Kanugrahan","WADMKC":"Maduran","WADMKK":"Lamongan"},"geometry":{"type":"Point","coordinates":[112.29728501,-6.99318922]}},{"type":"Feature","properties":{"Line":"R128","Tr":1051,"X":"643300.5","Y":"9226794.0","Rotation":0,"NAMOBJ":"Kanugrahan","WADMKC":"Maduran","WADMKK":"Lamongan"},"geometry":{"type":"Point","coordinates":[112.29728532,-6.99330226]}},{"type":"Feature","properties":{"Line":"R128","Tr":1052,"X":"643300.5","Y":"9226781.5","Rotation":0,"NAMOBJ":"Kanugrahan","WADMKC":"Maduran","WADMKK":"Lamongan"},"geometry":{"type":"Point","coordinates":[112.29728563,-6.99341531]}},{"type":"Feature","properties":{"Line":"R128","Tr":1053,"X":"643300.5","Y":"9226769.0","Rotation":0,"NAMOBJ":"Kanugrahan","WADMKC":"Maduran","WADMKK":"Lamongan"},"geometry":{"type":"Point","coordinates":[112.29728595,-6.99352835]}},{"type":"Feature","properties":{"Line":"R128","Tr":1054,"X":"643300.5","Y":"9226756.5","Rotation":0,"NAMOBJ":"Kanugrahan","WADMKC":"Maduran","WADMKK":"Lamongan"},"geometry":{"type":"Point","coordinates":[112.29728626,-6.9936414]}},{"type":"Feature","properties":{"Line":"R128","Tr":1055,"X":"643300.5","Y":"9226744.0","Rotation":0,"NAMOBJ":"Kanugrahan","WADMKC":"Maduran","WADMKK":"Lamongan"},"geometry":{"type":"Point","coordinates":[112.29728657,-6.99375445]}},{"type":"Feature","properties":{"Line":"R128","Tr":1056,"X":"643300.5","Y":"9226731.5","Rotation":0,"NAMOBJ":"Kanugrahan","WADMKC":"Maduran","WADMKK":"Lamongan"},"geometry":{"type":"Point","coordinates":[112.29728688,-6.99386749]}},{"type":"Feature","properties":{"Line":"R128","Tr":1057,"X":"643300.5","Y":"9226719.0","Rotation":0,"NAMOBJ":"Kanugrahan","WADMKC":"Maduran","WADMKK":"Lamongan"},"geometry":{"type":"Point","coordinates":[112.29728719,-6.99398054]}},{"type":"Feature","properties":{"Line":"R128","Tr":1058,"X":"643300.5","Y":"9226706.5","Rotation":0,"NAMOBJ":"Kanugrahan","WADMKC":"Maduran","WADMKK":"Lamongan"},"geometry":{"type":"Point","coordinates":[112.2972875,-6.99409358]}},{"type":"Feature","properties":{"Line":"R128","Tr":1059,"X":"643300.5","Y":"9226694.0","Rotation":0,"NAMOBJ":"Kanugrahan","WADMKC":"Maduran","WADMKK":"Lamongan"},"geometry":{"type":"Point","coordinates":[112.29728782,-6.99420663]}},{"type":"Feature","properties":{"Line":"R128","Tr":1060,"X":"643300.5","Y":"9226681.5","Rotation":0,"NAMOBJ":"Kanugrahan","WADMKC":"Maduran","WADMKK":"Lamongan"},"geometry":{"type":"Point","coordinates":[112.29728813,-6.99431967]}},{"type":"Feature","properties":{"Line":"R128","Tr":1061,"X":"643300.5","Y":"9226669.0","Rotation":0,"NAMOBJ":"Kanugrahan","WADMKC":"Maduran","WADMKK":"Lamongan"},"geometry":{"type":"Point","coordinates":[112.29728844,-6.99443272]}},{"type":"Feature","properties":{"Line":"R128","Tr":1062,"X":"643300.5","Y":"9226656.5","Rotation":0,"NAMOBJ":"Kanugrahan","WADMKC":"Maduran","WADMKK":"Lamongan"},"geometry":{"type":"Point","coordinates":[112.29728875,-6.99454576]}},{"type":"Feature","properties":{"Line":"R128","Tr":1063,"X":"643300.5","Y":"9226644.0","Rotation":0,"NAMOBJ":"Kanugrahan","WADMKC":"Maduran","WADMKK":"Lamongan"},"geometry":{"type":"Point","coordinates":[112.29728907,-6.99465881]}},{"type":"Feature","properties":{"Line":"R128","Tr":1064,"X":"643300.5","Y":"9226631.5","Rotation":0,"NAMOBJ":"Kanugrahan","WADMKC":"Maduran","WADMKK":"Lamongan"},"geometry":{"type":"Point","coordinates":[112.29728938,-6.99477185]}},{"type":"Feature","properties":{"Line":"R128","Tr":1065,"X":"643300.5","Y":"9226619.0","Rotation":0,"NAMOBJ":"Kanugrahan","WADMKC":"Maduran","WADMKK":"Lamongan"},"geometry":{"type":"Point","coordinates":[112.29728969,-6.9948849]}},{"type":"Feature","properties":{"Line":"R128","Tr":1066,"X":"643300.5","Y":"9226606.5","Rotation":0,"NAMOBJ":"Kanugrahan","WADMKC":"Maduran","WADMKK":"Lamongan"},"geometry":{"type":"Point","coordinates":[112.29729,-6.99499795]}},{"type":"Feature","properties":{"Line":"R128","Tr":1067,"X":"643300.5","Y":"9226594.0","Rotation":0,"NAMOBJ":"Kanugrahan","WADMKC":"Maduran","WADMKK":"Lamongan"},"geometry":{"type":"Point","coordinates":[112.29729031,-6.99511099]}},{"type":"Feature","properties":{"Line":"R128","Tr":1068,"X":"643300.5","Y":"9226581.5","Rotation":0,"NAMOBJ":"Kanugrahan","WADMKC":"Maduran","WADMKK":"Lamongan"},"geometry":{"type":"Point","coordinates":[112.29729063,-6.99522404]}},{"type":"Feature","properties":{"Line":"R128","Tr":1069,"X":"643300.5","Y":"9226569.0","Rotation":0,"NAMOBJ":"Kanugrahan","WADMKC":"Maduran","WADMKK":"Lamongan"},"geometry":{"type":"Point","coordinates":[112.29729094,-6.99533708]}},{"type":"Feature","properties":{"Line":"R128","Tr":1070,"X":"643300.5","Y":"9226556.5","Rotation":0,"NAMOBJ":"Kanugrahan","WADMKC":"Maduran","WADMKK":"Lamongan"},"geometry":{"type":"Point","coordinates":[112.29729125,-6.99545013]}},{"type":"Feature","properties":{"Line":"R128","Tr":1071,"X":"643300.5","Y":"9226544.0","Rotation":0,"NAMOBJ":"Kanugrahan","WADMKC":"Maduran","WADMKK":"Lamongan"},"geometry":{"type":"Point","coordinates":[112.29729156,-6.99556317]}},{"type":"Feature","properties":{"Line":"R128","Tr":1072,"X":"643300.5","Y":"9226531.5","Rotation":0,"NAMOBJ":"Kanugrahan","WADMKC":"Maduran","WADMKK":"Lamongan"},"geometry":{"type":"Point","coordinates":[112.29729187,-6.99567622]}},{"type":"Feature","properties":{"Line":"R128","Tr":1073,"X":"643300.5","Y":"9226519.0","Rotation":0,"NAMOBJ":"Kanugrahan","WADMKC":"Maduran","WADMKK":"Lamongan"},"geometry":{"type":"Point","coordinates":[112.29729219,-6.99578926]}},{"type":"Feature","properties":{"Line":"R128","Tr":1074,"X":"643300.5","Y":"9226506.5","Rotation":0,"NAMOBJ":"Kanugrahan","WADMKC":"Maduran","WADMKK":"Lamongan"},"geometry":{"type":"Point","coordinates":[112.2972925,-6.99590231]}},{"type":"Feature","properties":{"Line":"R128","Tr":1075,"X":"643300.5","Y":"9226494.0","Rotation":0,"NAMOBJ":"Kanugrahan","WADMKC":"Maduran","WADMKK":"Lamongan"},"geometry":{"type":"Point","coordinates":[112.29729281,-6.99601535]}},{"type":"Feature","properties":{"Line":"R128","Tr":1076,"X":"643300.5","Y":"9226481.5","Rotation":0,"NAMOBJ":"Kanugrahan","WADMKC":"Maduran","WADMKK":"Lamongan"},"geometry":{"type":"Point","coordinates":[112.29729312,-6.9961284]}},{"type":"Feature","properties":{"Line":"R128","Tr":1077,"X":"643300.5","Y":"9226469.0","Rotation":0,"NAMOBJ":"Kanugrahan","WADMKC":"Maduran","WADMKK":"Lamongan"},"geometry":{"type":"Point","coordinates":[112.29729343,-6.99624144]}},{"type":"Feature","properties":{"Line":"R128","Tr":1078,"X":"643300.5","Y":"9226456.5","Rotation":0,"NAMOBJ":"Kanugrahan","WADMKC":"Maduran","WADMKK":"Lamongan"},"geometry":{"type":"Point","coordinates":[112.29729375,-6.99635449]}},{"type":"Feature","properties":{"Line":"R128","Tr":1079,"X":"643300.5","Y":"9226444.0","Rotation":0,"NAMOBJ":"Kanugrahan","WADMKC":"Maduran","WADMKK":"Lamongan"},"geometry":{"type":"Point","coordinates":[112.29729406,-6.99646754]}},{"type":"Feature","properties":{"Line":"R128","Tr":1080,"X":"643300.5","Y":"9226431.5","Rotation":0,"NAMOBJ":"Kanugrahan","WADMKC":"Maduran","WADMKK":"Lamongan"},"geometry":{"type":"Point","coordinates":[112.29729437,-6.99658058]}},{"type":"Feature","properties":{"Line":"R128","Tr":1081,"X":"643300.5","Y":"9226419.0","Rotation":0,"NAMOBJ":"Kanugrahan","WADMKC":"Maduran","WADMKK":"Lamongan"},"geometry":{"type":"Point","coordinates":[112.29729468,-6.99669363]}},{"type":"Feature","properties":{"Line":"R128","Tr":1082,"X":"643300.5","Y":"9226406.5","Rotation":0,"NAMOBJ":"Kanugrahan","WADMKC":"Maduran","WADMKK":"Lamongan"},"geometry":{"type":"Point","coordinates":[112.29729499,-6.99680667]}},{"type":"Feature","properties":{"Line":"R128","Tr":1083,"X":"643300.5","Y":"9226394.0","Rotation":0,"NAMOBJ":"Kanugrahan","WADMKC":"Maduran","WADMKK":"Lamongan"},"geometry":{"type":"Point","coordinates":[112.29729531,-6.99691972]}},{"type":"Feature","properties":{"Line":"R128","Tr":1084,"X":"643300.5","Y":"9226381.5","Rotation":0,"NAMOBJ":"Kanugrahan","WADMKC":"Maduran","WADMKK":"Lamongan"},"geometry":{"type":"Point","coordinates":[112.29729562,-6.99703276]}},{"type":"Feature","properties":{"Line":"R128","Tr":1085,"X":"643300.5","Y":"9226369.0","Rotation":0,"NAMOBJ":"Kanugrahan","WADMKC":"Maduran","WADMKK":"Lamongan"},"geometry":{"type":"Point","coordinates":[112.29729593,-6.99714581]}},{"type":"Feature","properties":{"Line":"R128","Tr":1086,"X":"643300.5","Y":"9226356.5","Rotation":0,"NAMOBJ":"Kanugrahan","WADMKC":"Maduran","WADMKK":"Lamongan"},"geometry":{"type":"Point","coordinates":[112.29729624,-6.99725885]}},{"type":"Feature","properties":{"Line":"R128","Tr":1087,"X":"643300.5","Y":"9226344.0","Rotation":0,"NAMOBJ":"Kanugrahan","WADMKC":"Maduran","WADMKK":"Lamongan"},"geometry":{"type":"Point","coordinates":[112.29729655,-6.9973719]}},{"type":"Feature","properties":{"Line":"R128","Tr":1088,"X":"643300.5","Y":"9226331.5","Rotation":0,"NAMOBJ":"Kanugrahan","WADMKC":"Maduran","WADMKK":"Lamongan"},"geometry":{"type":"Point","coordinates":[112.29729687,-6.99748494]}},{"type":"Feature","properties":{"Line":"R128","Tr":1089,"X":"643300.5","Y":"9226319.0","Rotation":0,"NAMOBJ":"Kanugrahan","WADMKC":"Maduran","WADMKK":"Lamongan"},"geometry":{"type":"Point","coordinates":[112.29729718,-6.99759799]}},{"type":"Feature","properties":{"Line":"R128","Tr":1090,"X":"643300.5","Y":"9226306.5","Rotation":0,"NAMOBJ":"Kanugrahan","WADMKC":"Maduran","WADMKK":"Lamongan"},"geometry":{"type":"Point","coordinates":[112.29729749,-6.99771103]}},{"type":"Feature","properties":{"Line":"R128","Tr":1091,"X":"643300.5","Y":"9226294.0","Rotation":0,"NAMOBJ":"Kanugrahan","WADMKC":"Maduran","WADMKK":"Lamongan"},"geometry":{"type":"Point","coordinates":[112.2972978,-6.99782408]}},{"type":"Feature","properties":{"Line":"R128","Tr":1092,"X":"643300.5","Y":"9226281.5","Rotation":0,"NAMOBJ":"Kanugrahan","WADMKC":"Maduran","WADMKK":"Lamongan"},"geometry":{"type":"Point","coordinates":[112.29729812,-6.99793713]}},{"type":"Feature","properties":{"Line":"R128","Tr":1093,"X":"643300.5","Y":"9226269.0","Rotation":0,"NAMOBJ":"Kanugrahan","WADMKC":"Maduran","WADMKK":"Lamongan"},"geometry":{"type":"Point","coordinates":[112.29729843,-6.99805017]}},{"type":"Feature","properties":{"Line":"R128","Tr":1094,"X":"643300.5","Y":"9226256.5","Rotation":0,"NAMOBJ":"Kanugrahan","WADMKC":"Maduran","WADMKK":"Lamongan"},"geometry":{"type":"Point","coordinates":[112.29729874,-6.99816322]}},{"type":"Feature","properties":{"Line":"R128","Tr":1095,"X":"643300.5","Y":"9226244.0","Rotation":0,"NAMOBJ":"Kanugrahan","WADMKC":"Maduran","WADMKK":"Lamongan"},"geometry":{"type":"Point","coordinates":[112.29729905,-6.99827626]}},{"type":"Feature","properties":{"Line":"R128","Tr":1096,"X":"643300.5","Y":"9226231.5","Rotation":0,"NAMOBJ":"Kanugrahan","WADMKC":"Maduran","WADMKK":"Lamongan"},"geometry":{"type":"Point","coordinates":[112.29729936,-6.99838931]}},{"type":"Feature","properties":{"Line":"R128","Tr":1097,"X":"643300.5","Y":"9226219.0","Rotation":0,"NAMOBJ":"Kanugrahan","WADMKC":"Maduran","WADMKK":"Lamongan"},"geometry":{"type":"Point","coordinates":[112.29729968,-6.99850235]}},{"type":"Feature","properties":{"Line":"R128","Tr":1098,"X":"643300.5","Y":"9226206.5","Rotation":0,"NAMOBJ":"Kanugrahan","WADMKC":"Maduran","WADMKK":"Lamongan"},"geometry":{"type":"Point","coordinates":[112.29729999,-6.9986154]}},{"type":"Feature","properties":{"Line":"R128","Tr":1099,"X":"643300.5","Y":"9226194.0","Rotation":0,"NAMOBJ":"Kanugrahan","WADMKC":"Maduran","WADMKK":"Lamongan"},"geometry":{"type":"Point","coordinates":[112.2973003,-6.99872844]}},{"type":"Feature","properties":{"Line":"R128","Tr":1100,"X":"643300.5","Y":"9226181.5","Rotation":0,"NAMOBJ":"Kanugrahan","WADMKC":"Maduran","WADMKK":"Lamongan"},"geometry":{"type":"Point","coordinates":[112.29730061,-6.99884149]}},{"type":"Feature","properties":{"Line":"R128","Tr":1101,"X":"643300.5","Y":"9226169.0","Rotation":0,"NAMOBJ":"Kanugrahan","WADMKC":"Maduran","WADMKK":"Lamongan"},"geometry":{"type":"Point","coordinates":[112.29730093,-6.99895453]}},{"type":"Feature","properties":{"Line":"R128","Tr":1102,"X":"643300.5","Y":"9226156.5","Rotation":0,"NAMOBJ":"Kanugrahan","WADMKC":"Maduran","WADMKK":"Lamongan"},"geometry":{"type":"Point","coordinates":[112.29730124,-6.99906758]}},{"type":"Feature","properties":{"Line":"R128","Tr":1103,"X":"643300.5","Y":"9226144.0","Rotation":0,"NAMOBJ":"Kanugrahan","WADMKC":"Maduran","WADMKK":"Lamongan"},"geometry":{"type":"Point","coordinates":[112.29730155,-6.99918062]}},{"type":"Feature","properties":{"Line":"R128","Tr":1104,"X":"643300.5","Y":"9226131.5","Rotation":0,"NAMOBJ":"Kanugrahan","WADMKC":"Maduran","WADMKK":"Lamongan"},"geometry":{"type":"Point","coordinates":[112.29730186,-6.99929367]}},{"type":"Feature","properties":{"Line":"R128","Tr":1105,"X":"643300.5","Y":"9226119.0","Rotation":0,"NAMOBJ":"Kanugrahan","WADMKC":"Maduran","WADMKK":"Lamongan"},"geometry":{"type":"Point","coordinates":[112.29730217,-6.99940672]}},{"type":"Feature","properties":{"Line":"R128","Tr":1106,"X":"643300.5","Y":"9226106.5","Rotation":0,"NAMOBJ":"Kanugrahan","WADMKC":"Maduran","WADMKK":"Lamongan"},"geometry":{"type":"Point","coordinates":[112.29730249,-6.99951976]}},{"type":"Feature","properties":{"Line":"R128","Tr":1107,"X":"643300.5","Y":"9226094.0","Rotation":0,"NAMOBJ":"Kanugrahan","WADMKC":"Maduran","WADMKK":"Lamongan"},"geometry":{"type":"Point","coordinates":[112.2973028,-6.99963281]}},{"type":"Feature","properties":{"Line":"R128","Tr":1108,"X":"643300.5","Y":"9226081.5","Rotation":0,"NAMOBJ":"Kanugrahan","WADMKC":"Maduran","WADMKK":"Lamongan"},"geometry":{"type":"Point","coordinates":[112.29730311,-6.99974585]}},{"type":"Feature","properties":{"Line":"R128","Tr":1109,"X":"643300.5","Y":"9226069.0","Rotation":0,"NAMOBJ":"Kanugrahan","WADMKC":"Maduran","WADMKK":"Lamongan"},"geometry":{"type":"Point","coordinates":[112.29730342,-6.9998589]}},{"type":"Feature","properties":{"Line":"R128","Tr":1110,"X":"643300.5","Y":"9226056.5","Rotation":0,"NAMOBJ":"Kanugrahan","WADMKC":"Maduran","WADMKK":"Lamongan"},"geometry":{"type":"Point","coordinates":[112.29730374,-6.99997194]}},{"type":"Feature","properties":{"Line":"R126","Tr":1078,"X":"642300.5","Y":"9226656.5","Rotation":0,"NAMOBJ":"Maduran","WADMKC":"Maduran","WADMKK":"Lamongan"},"geometry":{"type":"Point","coordinates":[112.28823739,-6.99457062]}},{"type":"Feature","properties":{"Line":"R126","Tr":1079,"X":"642300.5","Y":"9226644.0","Rotation":0,"NAMOBJ":"Maduran","WADMKC":"Maduran","WADMKK":"Lamongan"},"geometry":{"type":"Point","coordinates":[112.2882377,-6.99468366]}},{"type":"Feature","properties":{"Line":"R126","Tr":1080,"X":"642300.5","Y":"9226631.5","Rotation":0,"NAMOBJ":"Maduran","WADMKC":"Maduran","WADMKK":"Lamongan"},"geometry":{"type":"Point","coordinates":[112.28823801,-6.99479671]}},{"type":"Feature","properties":{"Line":"R126","Tr":1081,"X":"642300.5","Y":"9226619.0","Rotation":0,"NAMOBJ":"Maduran","WADMKC":"Maduran","WADMKK":"Lamongan"},"geometry":{"type":"Point","coordinates":[112.28823832,-6.99490975]}},{"type":"Feature","properties":{"Line":"R126","Tr":1082,"X":"642300.5","Y":"9226606.5","Rotation":0,"NAMOBJ":"Maduran","WADMKC":"Maduran","WADMKK":"Lamongan"},"geometry":{"type":"Point","coordinates":[112.28823863,-6.9950228]}},{"type":"Feature","properties":{"Line":"R126","Tr":1083,"X":"642300.5","Y":"9226594.0","Rotation":0,"NAMOBJ":"Maduran","WADMKC":"Maduran","WADMKK":"Lamongan"},"geometry":{"type":"Point","coordinates":[112.28823894,-6.99513585]}},{"type":"Feature","properties":{"Line":"R126","Tr":1084,"X":"642300.5","Y":"9226581.5","Rotation":0,"NAMOBJ":"Maduran","WADMKC":"Maduran","WADMKK":"Lamongan"},"geometry":{"type":"Point","coordinates":[112.28823925,-6.99524889]}},{"type":"Feature","properties":{"Line":"R126","Tr":1085,"X":"642300.5","Y":"9226569.0","Rotation":0,"NAMOBJ":"Maduran","WADMKC":"Maduran","WADMKK":"Lamongan"},"geometry":{"type":"Point","coordinates":[112.28823956,-6.99536194]}},{"type":"Feature","properties":{"Line":"R126","Tr":1086,"X":"642300.5","Y":"9226556.5","Rotation":0,"NAMOBJ":"Maduran","WADMKC":"Maduran","WADMKK":"Lamongan"},"geometry":{"type":"Point","coordinates":[112.28823987,-6.99547498]}},{"type":"Feature","properties":{"Line":"R126","Tr":1087,"X":"642300.5","Y":"9226544.0","Rotation":0,"NAMOBJ":"Maduran","WADMKC":"Maduran","WADMKK":"Lamongan"},"geometry":{"type":"Point","coordinates":[112.28824018,-6.99558803]}},{"type":"Feature","properties":{"Line":"R126","Tr":1088,"X":"642300.5","Y":"9226531.5","Rotation":0,"NAMOBJ":"Maduran","WADMKC":"Maduran","WADMKK":"Lamongan"},"geometry":{"type":"Point","coordinates":[112.28824049,-6.99570107]}},{"type":"Feature","properties":{"Line":"R126","Tr":1089,"X":"642300.5","Y":"9226519.0","Rotation":0,"NAMOBJ":"Maduran","WADMKC":"Maduran","WADMKK":"Lamongan"},"geometry":{"type":"Point","coordinates":[112.2882408,-6.99581412]}},{"type":"Feature","properties":{"Line":"R126","Tr":1090,"X":"642300.5","Y":"9226506.5","Rotation":0,"NAMOBJ":"Maduran","WADMKC":"Maduran","WADMKK":"Lamongan"},"geometry":{"type":"Point","coordinates":[112.28824111,-6.99592717]}},{"type":"Feature","properties":{"Line":"R126","Tr":1091,"X":"642300.5","Y":"9226494.0","Rotation":0,"NAMOBJ":"Maduran","WADMKC":"Maduran","WADMKK":"Lamongan"},"geometry":{"type":"Point","coordinates":[112.28824142,-6.99604021]}},{"type":"Feature","properties":{"Line":"R126","Tr":1092,"X":"642300.5","Y":"9226481.5","Rotation":0,"NAMOBJ":"Maduran","WADMKC":"Maduran","WADMKK":"Lamongan"},"geometry":{"type":"Point","coordinates":[112.28824173,-6.99615326]}},{"type":"Feature","properties":{"Line":"R126","Tr":1093,"X":"642300.5","Y":"9226469.0","Rotation":0,"NAMOBJ":"Maduran","WADMKC":"Maduran","WADMKK":"Lamongan"},"geometry":{"type":"Point","coordinates":[112.28824204,-6.9962663]}},{"type":"Feature","properties":{"Line":"R126","Tr":1094,"X":"642300.5","Y":"9226456.5","Rotation":0,"NAMOBJ":"Maduran","WADMKC":"Maduran","WADMKK":"Lamongan"},"geometry":{"type":"Point","coordinates":[112.28824235,-6.99637935]}},{"type":"Feature","properties":{"Line":"R126","Tr":1095,"X":"642300.5","Y":"9226444.0","Rotation":0,"NAMOBJ":"Maduran","WADMKC":"Maduran","WADMKK":"Lamongan"},"geometry":{"type":"Point","coordinates":[112.28824266,-6.9964924]}},{"type":"Feature","properties":{"Line":"R126","Tr":1096,"X":"642300.5","Y":"9226431.5","Rotation":0,"NAMOBJ":"Maduran","WADMKC":"Maduran","WADMKK":"Lamongan"},"geometry":{"type":"Point","coordinates":[112.28824297,-6.99660544]}},{"type":"Feature","properties":{"Line":"R126","Tr":1097,"X":"642300.5","Y":"9226419.0","Rotation":0,"NAMOBJ":"Maduran","WADMKC":"Maduran","WADMKK":"Lamongan"},"geometry":{"type":"Point","coordinates":[112.28824328,-6.99671849]}},{"type":"Feature","properties":{"Line":"R126","Tr":1098,"X":"642300.5","Y":"9226406.5","Rotation":0,"NAMOBJ":"Maduran","WADMKC":"Maduran","WADMKK":"Lamongan"},"geometry":{"type":"Point","coordinates":[112.28824359,-6.99683153]}},{"type":"Feature","properties":{"Line":"R126","Tr":1099,"X":"642300.5","Y":"9226394.0","Rotation":0,"NAMOBJ":"Maduran","WADMKC":"Maduran","WADMKK":"Lamongan"},"geometry":{"type":"Point","coordinates":[112.2882439,-6.99694458]}},{"type":"Feature","properties":{"Line":"R126","Tr":1100,"X":"642300.5","Y":"9226381.5","Rotation":0,"NAMOBJ":"Maduran","WADMKC":"Maduran","WADMKK":"Lamongan"},"geometry":{"type":"Point","coordinates":[112.28824421,-6.99705762]}},{"type":"Feature","properties":{"Line":"R126","Tr":1101,"X":"642300.5","Y":"9226369.0","Rotation":0,"NAMOBJ":"Maduran","WADMKC":"Maduran","WADMKK":"Lamongan"},"geometry":{"type":"Point","coordinates":[112.28824452,-6.99717067]}},{"type":"Feature","properties":{"Line":"R126","Tr":1102,"X":"642300.5","Y":"9226356.5","Rotation":0,"NAMOBJ":"Maduran","WADMKC":"Maduran","WADMKK":"Lamongan"},"geometry":{"type":"Point","coordinates":[112.28824483,-6.99728372]}},{"type":"Feature","properties":{"Line":"R126","Tr":1103,"X":"642300.5","Y":"9226344.0","Rotation":0,"NAMOBJ":"Maduran","WADMKC":"Maduran","WADMKK":"Lamongan"},"geometry":{"type":"Point","coordinates":[112.28824514,-6.99739676]}},{"type":"Feature","properties":{"Line":"R126","Tr":1104,"X":"642300.5","Y":"9226331.5","Rotation":0,"NAMOBJ":"Maduran","WADMKC":"Maduran","WADMKK":"Lamongan"},"geometry":{"type":"Point","coordinates":[112.28824545,-6.99750981]}},{"type":"Feature","properties":{"Line":"R126","Tr":1105,"X":"642300.5","Y":"9226319.0","Rotation":0,"NAMOBJ":"Maduran","WADMKC":"Maduran","WADMKK":"Lamongan"},"geometry":{"type":"Point","coordinates":[112.28824576,-6.99762285]}},{"type":"Feature","properties":{"Line":"R126","Tr":1106,"X":"642300.5","Y":"9226306.5","Rotation":0,"NAMOBJ":"Maduran","WADMKC":"Maduran","WADMKK":"Lamongan"},"geometry":{"type":"Point","coordinates":[112.28824607,-6.9977359]}},{"type":"Feature","properties":{"Line":"R126","Tr":1107,"X":"642300.5","Y":"9226294.0","Rotation":0,"NAMOBJ":"Maduran","WADMKC":"Maduran","WADMKK":"Lamongan"},"geometry":{"type":"Point","coordinates":[112.28824638,-6.99784894]}},{"type":"Feature","properties":{"Line":"R126","Tr":1108,"X":"642300.5","Y":"9226281.5","Rotation":0,"NAMOBJ":"Maduran","WADMKC":"Maduran","WADMKK":"Lamongan"},"geometry":{"type":"Point","coordinates":[112.28824669,-6.99796199]}},{"type":"Feature","properties":{"Line":"R126","Tr":1109,"X":"642300.5","Y":"9226269.0","Rotation":0,"NAMOBJ":"Maduran","WADMKC":"Maduran","WADMKK":"Lamongan"},"geometry":{"type":"Point","coordinates":[112.288247,-6.99807504]}},{"type":"Feature","properties":{"Line":"R126","Tr":1110,"X":"642300.5","Y":"9226256.5","Rotation":0,"NAMOBJ":"Maduran","WADMKC":"Maduran","WADMKK":"Lamongan"},"geometry":{"type":"Point","coordinates":[112.28824731,-6.99818808]}},{"type":"Feature","properties":{"Line":"R126","Tr":1111,"X":"642300.5","Y":"9226244.0","Rotation":0,"NAMOBJ":"Maduran","WADMKC":"Maduran","WADMKK":"Lamongan"},"geometry":{"type":"Point","coordinates":[112.28824762,-6.99830113]}},{"type":"Feature","properties":{"Line":"R126","Tr":1112,"X":"642300.5","Y":"9226231.5","Rotation":0,"NAMOBJ":"Maduran","WADMKC":"Maduran","WADMKK":"Lamongan"},"geometry":{"type":"Point","coordinates":[112.28824793,-6.99841417]}},{"type":"Feature","properties":{"Line":"R126","Tr":1113,"X":"642300.5","Y":"9226219.0","Rotation":0,"NAMOBJ":"Maduran","WADMKC":"Maduran","WADMKK":"Lamongan"},"geometry":{"type":"Point","coordinates":[112.28824824,-6.99852722]}},{"type":"Feature","properties":{"Line":"R126","Tr":1114,"X":"642300.5","Y":"9226206.5","Rotation":0,"NAMOBJ":"Maduran","WADMKC":"Maduran","WADMKK":"Lamongan"},"geometry":{"type":"Point","coordinates":[112.28824855,-6.99864027]}},{"type":"Feature","properties":{"Line":"R126","Tr":1115,"X":"642300.5","Y":"9226194.0","Rotation":0,"NAMOBJ":"Maduran","WADMKC":"Maduran","WADMKK":"Lamongan"},"geometry":{"type":"Point","coordinates":[112.28824886,-6.99875331]}},{"type":"Feature","properties":{"Line":"R126","Tr":1116,"X":"642300.5","Y":"9226181.5","Rotation":0,"NAMOBJ":"Maduran","WADMKC":"Maduran","WADMKK":"Lamongan"},"geometry":{"type":"Point","coordinates":[112.28824917,-6.99886636]}},{"type":"Feature","properties":{"Line":"R126","Tr":1117,"X":"642300.5","Y":"9226169.0","Rotation":0,"NAMOBJ":"Maduran","WADMKC":"Maduran","WADMKK":"Lamongan"},"geometry":{"type":"Point","coordinates":[112.28824948,-6.9989794]}},{"type":"Feature","properties":{"Line":"R126","Tr":1118,"X":"642300.5","Y":"9226156.5","Rotation":0,"NAMOBJ":"Maduran","WADMKC":"Maduran","WADMKK":"Lamongan"},"geometry":{"type":"Point","coordinates":[112.28824979,-6.99909245]}},{"type":"Feature","properties":{"Line":"R126","Tr":1119,"X":"642300.5","Y":"9226144.0","Rotation":0,"NAMOBJ":"Maduran","WADMKC":"Maduran","WADMKK":"Lamongan"},"geometry":{"type":"Point","coordinates":[112.2882501,-6.99920549]}},{"type":"Feature","properties":{"Line":"R126","Tr":1120,"X":"642300.5","Y":"9226131.5","Rotation":0,"NAMOBJ":"Maduran","WADMKC":"Maduran","WADMKK":"Lamongan"},"geometry":{"type":"Point","coordinates":[112.28825041,-6.99931854]}},{"type":"Feature","properties":{"Line":"R126","Tr":1121,"X":"642300.5","Y":"9226119.0","Rotation":0,"NAMOBJ":"Maduran","WADMKC":"Maduran","WADMKK":"Lamongan"},"geometry":{"type":"Point","coordinates":[112.28825072,-6.99943159]}},{"type":"Feature","properties":{"Line":"R126","Tr":1122,"X":"642300.5","Y":"9226106.5","Rotation":0,"NAMOBJ":"Maduran","WADMKC":"Maduran","WADMKK":"Lamongan"},"geometry":{"type":"Point","coordinates":[112.28825103,-6.99954463]}},{"type":"Feature","properties":{"Line":"R126","Tr":1123,"X":"642300.5","Y":"9226094.0","Rotation":0,"NAMOBJ":"Maduran","WADMKC":"Maduran","WADMKK":"Lamongan"},"geometry":{"type":"Point","coordinates":[112.28825134,-6.99965768]}},{"type":"Feature","properties":{"Line":"R126","Tr":1124,"X":"642300.5","Y":"9226081.5","Rotation":0,"NAMOBJ":"Maduran","WADMKC":"Maduran","WADMKK":"Lamongan"},"geometry":{"type":"Point","coordinates":[112.28825165,-6.99977072]}},{"type":"Feature","properties":{"Line":"R126","Tr":1125,"X":"642300.5","Y":"9226069.0","Rotation":0,"NAMOBJ":"Maduran","WADMKC":"Maduran","WADMKK":"Lamongan"},"geometry":{"type":"Point","coordinates":[112.28825196,-6.99988377]}},{"type":"Feature","properties":{"Line":"R126","Tr":1126,"X":"642300.5","Y":"9226056.5","Rotation":0,"NAMOBJ":"Maduran","WADMKC":"Maduran","WADMKK":"Lamongan"},"geometry":{"type":"Point","coordinates":[112.28825227,-6.99999681]}},{"type":"Feature","properties":{"Line":"R126","Tr":1001,"X":"642300.5","Y":"9227619.0","Rotation":0,"NAMOBJ":"Parengan","WADMKC":"Maduran","WADMKK":"Lamongan"},"geometry":{"type":"Point","coordinates":[112.28821355,-6.98586609]}},{"type":"Feature","properties":{"Line":"R126","Tr":1002,"X":"642300.5","Y":"9227606.5","Rotation":0,"NAMOBJ":"Parengan","WADMKC":"Maduran","WADMKK":"Lamongan"},"geometry":{"type":"Point","coordinates":[112.28821386,-6.98597913]}},{"type":"Feature","properties":{"Line":"R126","Tr":1003,"X":"642300.5","Y":"9227594.0","Rotation":0,"NAMOBJ":"Parengan","WADMKC":"Maduran","WADMKK":"Lamongan"},"geometry":{"type":"Point","coordinates":[112.28821417,-6.98609218]}},{"type":"Feature","properties":{"Line":"R126","Tr":1004,"X":"642300.5","Y":"9227581.5","Rotation":0,"NAMOBJ":"Parengan","WADMKC":"Maduran","WADMKK":"Lamongan"},"geometry":{"type":"Point","coordinates":[112.28821448,-6.98620522]}},{"type":"Feature","properties":{"Line":"R126","Tr":1005,"X":"642300.5","Y":"9227569.0","Rotation":0,"NAMOBJ":"Parengan","WADMKC":"Maduran","WADMKK":"Lamongan"},"geometry":{"type":"Point","coordinates":[112.28821479,-6.98631827]}},{"type":"Feature","properties":{"Line":"R126","Tr":1006,"X":"642300.5","Y":"9227556.5","Rotation":0,"NAMOBJ":"Parengan","WADMKC":"Maduran","WADMKK":"Lamongan"},"geometry":{"type":"Point","coordinates":[112.2882151,-6.98643132]}},{"type":"Feature","properties":{"Line":"R126","Tr":1007,"X":"642300.5","Y":"9227544.0","Rotation":0,"NAMOBJ":"Parengan","WADMKC":"Maduran","WADMKK":"Lamongan"},"geometry":{"type":"Point","coordinates":[112.28821541,-6.98654436]}},{"type":"Feature","properties":{"Line":"R126","Tr":1008,"X":"642300.5","Y":"9227531.5","Rotation":0,"NAMOBJ":"Parengan","WADMKC":"Maduran","WADMKK":"Lamongan"},"geometry":{"type":"Point","coordinates":[112.28821572,-6.98665741]}},{"type":"Feature","properties":{"Line":"R126","Tr":1009,"X":"642300.5","Y":"9227519.0","Rotation":0,"NAMOBJ":"Parengan","WADMKC":"Maduran","WADMKK":"Lamongan"},"geometry":{"type":"Point","coordinates":[112.28821602,-6.98677045]}},{"type":"Feature","properties":{"Line":"R126","Tr":1010,"X":"642300.5","Y":"9227506.5","Rotation":0,"NAMOBJ":"Parengan","WADMKC":"Maduran","WADMKK":"Lamongan"},"geometry":{"type":"Point","coordinates":[112.28821633,-6.9868835]}},{"type":"Feature","properties":{"Line":"R126","Tr":1011,"X":"642300.5","Y":"9227494.0","Rotation":0,"NAMOBJ":"Parengan","WADMKC":"Maduran","WADMKK":"Lamongan"},"geometry":{"type":"Point","coordinates":[112.28821664,-6.98699655]}},{"type":"Feature","properties":{"Line":"R126","Tr":1012,"X":"642300.5","Y":"9227481.5","Rotation":0,"NAMOBJ":"Parengan","WADMKC":"Maduran","WADMKK":"Lamongan"},"geometry":{"type":"Point","coordinates":[112.28821695,-6.98710959]}},{"type":"Feature","properties":{"Line":"R126","Tr":1013,"X":"642300.5","Y":"9227469.0","Rotation":0,"NAMOBJ":"Parengan","WADMKC":"Maduran","WADMKK":"Lamongan"},"geometry":{"type":"Point","coordinates":[112.28821726,-6.98722264]}},{"type":"Feature","properties":{"Line":"R126","Tr":1014,"X":"642300.5","Y":"9227456.5","Rotation":0,"NAMOBJ":"Parengan","WADMKC":"Maduran","WADMKK":"Lamongan"},"geometry":{"type":"Point","coordinates":[112.28821757,-6.98733568]}},{"type":"Feature","properties":{"Line":"R126","Tr":1015,"X":"642300.5","Y":"9227444.0","Rotation":0,"NAMOBJ":"Parengan","WADMKC":"Maduran","WADMKK":"Lamongan"},"geometry":{"type":"Point","coordinates":[112.28821788,-6.98744873]}},{"type":"Feature","properties":{"Line":"R126","Tr":1016,"X":"642300.5","Y":"9227431.5","Rotation":0,"NAMOBJ":"Parengan","WADMKC":"Maduran","WADMKK":"Lamongan"},"geometry":{"type":"Point","coordinates":[112.28821819,-6.98756177]}},{"type":"Feature","properties":{"Line":"R126","Tr":1017,"X":"642300.5","Y":"9227419.0","Rotation":0,"NAMOBJ":"Parengan","WADMKC":"Maduran","WADMKK":"Lamongan"},"geometry":{"type":"Point","coordinates":[112.2882185,-6.98767482]}},{"type":"Feature","properties":{"Line":"R126","Tr":1018,"X":"642300.5","Y":"9227406.5","Rotation":0,"NAMOBJ":"Parengan","WADMKC":"Maduran","WADMKK":"Lamongan"},"geometry":{"type":"Point","coordinates":[112.28821881,-6.98778787]}},{"type":"Feature","properties":{"Line":"R126","Tr":1019,"X":"642300.5","Y":"9227394.0","Rotation":0,"NAMOBJ":"Parengan","WADMKC":"Maduran","WADMKK":"Lamongan"},"geometry":{"type":"Point","coordinates":[112.28821912,-6.98790091]}},{"type":"Feature","properties":{"Line":"R126","Tr":1020,"X":"642300.5","Y":"9227381.5","Rotation":0,"NAMOBJ":"Parengan","WADMKC":"Maduran","WADMKK":"Lamongan"},"geometry":{"type":"Point","coordinates":[112.28821943,-6.98801396]}},{"type":"Feature","properties":{"Line":"R126","Tr":1021,"X":"642300.5","Y":"9227369.0","Rotation":0,"NAMOBJ":"Parengan","WADMKC":"Maduran","WADMKK":"Lamongan"},"geometry":{"type":"Point","coordinates":[112.28821974,-6.988127]}},{"type":"Feature","properties":{"Line":"R126","Tr":1022,"X":"642300.5","Y":"9227356.5","Rotation":0,"NAMOBJ":"Parengan","WADMKC":"Maduran","WADMKK":"Lamongan"},"geometry":{"type":"Point","coordinates":[112.28822005,-6.98824005]}},{"type":"Feature","properties":{"Line":"R126","Tr":1023,"X":"642300.5","Y":"9227344.0","Rotation":0,"NAMOBJ":"Parengan","WADMKC":"Maduran","WADMKK":"Lamongan"},"geometry":{"type":"Point","coordinates":[112.28822036,-6.9883531]}},{"type":"Feature","properties":{"Line":"R126","Tr":1024,"X":"642300.5","Y":"9227331.5","Rotation":0,"NAMOBJ":"Parengan","WADMKC":"Maduran","WADMKK":"Lamongan"},"geometry":{"type":"Point","coordinates":[112.28822067,-6.98846614]}},{"type":"Feature","properties":{"Line":"R126","Tr":1025,"X":"642300.5","Y":"9227319.0","Rotation":0,"NAMOBJ":"Parengan","WADMKC":"Maduran","WADMKK":"Lamongan"},"geometry":{"type":"Point","coordinates":[112.28822098,-6.98857919]}},{"type":"Feature","properties":{"Line":"R126","Tr":1026,"X":"642300.5","Y":"9227306.5","Rotation":0,"NAMOBJ":"Parengan","WADMKC":"Maduran","WADMKK":"Lamongan"},"geometry":{"type":"Point","coordinates":[112.28822129,-6.98869223]}},{"type":"Feature","properties":{"Line":"R126","Tr":1027,"X":"642300.5","Y":"9227294.0","Rotation":0,"NAMOBJ":"Parengan","WADMKC":"Maduran","WADMKK":"Lamongan"},"geometry":{"type":"Point","coordinates":[112.2882216,-6.98880528]}},{"type":"Feature","properties":{"Line":"R126","Tr":1028,"X":"642300.5","Y":"9227281.5","Rotation":0,"NAMOBJ":"Parengan","WADMKC":"Maduran","WADMKK":"Lamongan"},"geometry":{"type":"Point","coordinates":[112.28822191,-6.98891832]}},{"type":"Feature","properties":{"Line":"R126","Tr":1029,"X":"642300.5","Y":"9227269.0","Rotation":0,"NAMOBJ":"Parengan","WADMKC":"Maduran","WADMKK":"Lamongan"},"geometry":{"type":"Point","coordinates":[112.28822222,-6.98903137]}},{"type":"Feature","properties":{"Line":"R126","Tr":1030,"X":"642300.5","Y":"9227256.5","Rotation":0,"NAMOBJ":"Parengan","WADMKC":"Maduran","WADMKK":"Lamongan"},"geometry":{"type":"Point","coordinates":[112.28822252,-6.98914442]}},{"type":"Feature","properties":{"Line":"R126","Tr":1031,"X":"642300.5","Y":"9227244.0","Rotation":0,"NAMOBJ":"Parengan","WADMKC":"Maduran","WADMKK":"Lamongan"},"geometry":{"type":"Point","coordinates":[112.28822283,-6.98925746]}},{"type":"Feature","properties":{"Line":"R126","Tr":1032,"X":"642300.5","Y":"9227231.5","Rotation":0,"NAMOBJ":"Parengan","WADMKC":"Maduran","WADMKK":"Lamongan"},"geometry":{"type":"Point","coordinates":[112.28822314,-6.98937051]}},{"type":"Feature","properties":{"Line":"R126","Tr":1033,"X":"642300.5","Y":"9227219.0","Rotation":0,"NAMOBJ":"Parengan","WADMKC":"Maduran","WADMKK":"Lamongan"},"geometry":{"type":"Point","coordinates":[112.28822345,-6.98948355]}},{"type":"Feature","properties":{"Line":"R126","Tr":1034,"X":"642300.5","Y":"9227206.5","Rotation":0,"NAMOBJ":"Parengan","WADMKC":"Maduran","WADMKK":"Lamongan"},"geometry":{"type":"Point","coordinates":[112.28822376,-6.9895966]}},{"type":"Feature","properties":{"Line":"R126","Tr":1035,"X":"642300.5","Y":"9227194.0","Rotation":0,"NAMOBJ":"Parengan","WADMKC":"Maduran","WADMKK":"Lamongan"},"geometry":{"type":"Point","coordinates":[112.28822407,-6.98970965]}},{"type":"Feature","properties":{"Line":"R126","Tr":1036,"X":"642300.5","Y":"9227181.5","Rotation":0,"NAMOBJ":"Parengan","WADMKC":"Maduran","WADMKK":"Lamongan"},"geometry":{"type":"Point","coordinates":[112.28822438,-6.98982269]}},{"type":"Feature","properties":{"Line":"R126","Tr":1037,"X":"642300.5","Y":"9227169.0","Rotation":0,"NAMOBJ":"Parengan","WADMKC":"Maduran","WADMKK":"Lamongan"},"geometry":{"type":"Point","coordinates":[112.28822469,-6.98993574]}},{"type":"Feature","properties":{"Line":"R126","Tr":1038,"X":"642300.5","Y":"9227156.5","Rotation":0,"NAMOBJ":"Parengan","WADMKC":"Maduran","WADMKK":"Lamongan"},"geometry":{"type":"Point","coordinates":[112.288225,-6.99004878]}},{"type":"Feature","properties":{"Line":"R126","Tr":1039,"X":"642300.5","Y":"9227144.0","Rotation":0,"NAMOBJ":"Parengan","WADMKC":"Maduran","WADMKK":"Lamongan"},"geometry":{"type":"Point","coordinates":[112.28822531,-6.99016183]}},{"type":"Feature","properties":{"Line":"R126","Tr":1040,"X":"642300.5","Y":"9227131.5","Rotation":0,"NAMOBJ":"Parengan","WADMKC":"Maduran","WADMKK":"Lamongan"},"geometry":{"type":"Point","coordinates":[112.28822562,-6.99027488]}},{"type":"Feature","properties":{"Line":"R126","Tr":1041,"X":"642300.5","Y":"9227119.0","Rotation":0,"NAMOBJ":"Parengan","WADMKC":"Maduran","WADMKK":"Lamongan"},"geometry":{"type":"Point","coordinates":[112.28822593,-6.99038792]}},{"type":"Feature","properties":{"Line":"R126","Tr":1042,"X":"642300.5","Y":"9227106.5","Rotation":0,"NAMOBJ":"Parengan","WADMKC":"Maduran","WADMKK":"Lamongan"},"geometry":{"type":"Point","coordinates":[112.28822624,-6.99050097]}},{"type":"Feature","properties":{"Line":"R126","Tr":1043,"X":"642300.5","Y":"9227094.0","Rotation":0,"NAMOBJ":"Parengan","WADMKC":"Maduran","WADMKK":"Lamongan"},"geometry":{"type":"Point","coordinates":[112.28822655,-6.99061401]}},{"type":"Feature","properties":{"Line":"R126","Tr":1044,"X":"642300.5","Y":"9227081.5","Rotation":0,"NAMOBJ":"Parengan","WADMKC":"Maduran","WADMKK":"Lamongan"},"geometry":{"type":"Point","coordinates":[112.28822686,-6.99072706]}},{"type":"Feature","properties":{"Line":"R126","Tr":1045,"X":"642300.5","Y":"9227069.0","Rotation":0,"NAMOBJ":"Parengan","WADMKC":"Maduran","WADMKK":"Lamongan"},"geometry":{"type":"Point","coordinates":[112.28822717,-6.9908401]}},{"type":"Feature","properties":{"Line":"R126","Tr":1046,"X":"642300.5","Y":"9227056.5","Rotation":0,"NAMOBJ":"Parengan","WADMKC":"Maduran","WADMKK":"Lamongan"},"geometry":{"type":"Point","coordinates":[112.28822748,-6.99095315]}},{"type":"Feature","properties":{"Line":"R126","Tr":1047,"X":"642300.5","Y":"9227044.0","Rotation":0,"NAMOBJ":"Parengan","WADMKC":"Maduran","WADMKK":"Lamongan"},"geometry":{"type":"Point","coordinates":[112.28822779,-6.9910662]}},{"type":"Feature","properties":{"Line":"R126","Tr":1048,"X":"642300.5","Y":"9227031.5","Rotation":0,"NAMOBJ":"Parengan","WADMKC":"Maduran","WADMKK":"Lamongan"},"geometry":{"type":"Point","coordinates":[112.2882281,-6.99117924]}},{"type":"Feature","properties":{"Line":"R126","Tr":1049,"X":"642300.5","Y":"9227019.0","Rotation":0,"NAMOBJ":"Parengan","WADMKC":"Maduran","WADMKK":"Lamongan"},"geometry":{"type":"Point","coordinates":[112.28822841,-6.99129229]}},{"type":"Feature","properties":{"Line":"R126","Tr":1050,"X":"642300.5","Y":"9227006.5","Rotation":0,"NAMOBJ":"Parengan","WADMKC":"Maduran","WADMKK":"Lamongan"},"geometry":{"type":"Point","coordinates":[112.28822872,-6.99140533]}},{"type":"Feature","properties":{"Line":"R126","Tr":1051,"X":"642300.5","Y":"9226994.0","Rotation":0,"NAMOBJ":"Parengan","WADMKC":"Maduran","WADMKK":"Lamongan"},"geometry":{"type":"Point","coordinates":[112.28822903,-6.99151838]}},{"type":"Feature","properties":{"Line":"R126","Tr":1052,"X":"642300.5","Y":"9226981.5","Rotation":0,"NAMOBJ":"Parengan","WADMKC":"Maduran","WADMKK":"Lamongan"},"geometry":{"type":"Point","coordinates":[112.28822934,-6.99163143]}},{"type":"Feature","properties":{"Line":"R126","Tr":1053,"X":"642300.5","Y":"9226969.0","Rotation":0,"NAMOBJ":"Parengan","WADMKC":"Maduran","WADMKK":"Lamongan"},"geometry":{"type":"Point","coordinates":[112.28822965,-6.99174447]}},{"type":"Feature","properties":{"Line":"R126","Tr":1054,"X":"642300.5","Y":"9226956.5","Rotation":0,"NAMOBJ":"Parengan","WADMKC":"Maduran","WADMKK":"Lamongan"},"geometry":{"type":"Point","coordinates":[112.28822996,-6.99185752]}},{"type":"Feature","properties":{"Line":"R126","Tr":1055,"X":"642300.5","Y":"9226944.0","Rotation":0,"NAMOBJ":"Parengan","WADMKC":"Maduran","WADMKK":"Lamongan"},"geometry":{"type":"Point","coordinates":[112.28823027,-6.99197056]}},{"type":"Feature","properties":{"Line":"R126","Tr":1056,"X":"642300.5","Y":"9226931.5","Rotation":0,"NAMOBJ":"Parengan","WADMKC":"Maduran","WADMKK":"Lamongan"},"geometry":{"type":"Point","coordinates":[112.28823058,-6.99208361]}},{"type":"Feature","properties":{"Line":"R126","Tr":1057,"X":"642300.5","Y":"9226919.0","Rotation":0,"NAMOBJ":"Parengan","WADMKC":"Maduran","WADMKK":"Lamongan"},"geometry":{"type":"Point","coordinates":[112.28823089,-6.99219665]}},{"type":"Feature","properties":{"Line":"R126","Tr":1058,"X":"642300.5","Y":"9226906.5","Rotation":0,"NAMOBJ":"Parengan","WADMKC":"Maduran","WADMKK":"Lamongan"},"geometry":{"type":"Point","coordinates":[112.2882312,-6.9923097]}},{"type":"Feature","properties":{"Line":"R126","Tr":1059,"X":"642300.5","Y":"9226894.0","Rotation":0,"NAMOBJ":"Parengan","WADMKC":"Maduran","WADMKK":"Lamongan"},"geometry":{"type":"Point","coordinates":[112.28823151,-6.99242275]}},{"type":"Feature","properties":{"Line":"R126","Tr":1060,"X":"642300.5","Y":"9226881.5","Rotation":0,"NAMOBJ":"Parengan","WADMKC":"Maduran","WADMKK":"Lamongan"},"geometry":{"type":"Point","coordinates":[112.28823181,-6.99253579]}},{"type":"Feature","properties":{"Line":"R126","Tr":1061,"X":"642300.5","Y":"9226869.0","Rotation":0,"NAMOBJ":"Parengan","WADMKC":"Maduran","WADMKK":"Lamongan"},"geometry":{"type":"Point","coordinates":[112.28823212,-6.99264884]}},{"type":"Feature","properties":{"Line":"R126","Tr":1062,"X":"642300.5","Y":"9226856.5","Rotation":0,"NAMOBJ":"Parengan","WADMKC":"Maduran","WADMKK":"Lamongan"},"geometry":{"type":"Point","coordinates":[112.28823243,-6.99276188]}},{"type":"Feature","properties":{"Line":"R126","Tr":1063,"X":"642300.5","Y":"9226844.0","Rotation":0,"NAMOBJ":"Parengan","WADMKC":"Maduran","WADMKK":"Lamongan"},"geometry":{"type":"Point","coordinates":[112.28823274,-6.99287493]}},{"type":"Feature","properties":{"Line":"R126","Tr":1064,"X":"642300.5","Y":"9226831.5","Rotation":0,"NAMOBJ":"Parengan","WADMKC":"Maduran","WADMKK":"Lamongan"},"geometry":{"type":"Point","coordinates":[112.28823305,-6.99298797]}},{"type":"Feature","properties":{"Line":"R126","Tr":1065,"X":"642300.5","Y":"9226819.0","Rotation":0,"NAMOBJ":"Parengan","WADMKC":"Maduran","WADMKK":"Lamongan"},"geometry":{"type":"Point","coordinates":[112.28823336,-6.99310102]}},{"type":"Feature","properties":{"Line":"R126","Tr":1066,"X":"642300.5","Y":"9226806.5","Rotation":0,"NAMOBJ":"Parengan","WADMKC":"Maduran","WADMKK":"Lamongan"},"geometry":{"type":"Point","coordinates":[112.28823367,-6.99321407]}},{"type":"Feature","properties":{"Line":"R126","Tr":1067,"X":"642300.5","Y":"9226794.0","Rotation":0,"NAMOBJ":"Parengan","WADMKC":"Maduran","WADMKK":"Lamongan"},"geometry":{"type":"Point","coordinates":[112.28823398,-6.99332711]}},{"type":"Feature","properties":{"Line":"R126","Tr":1068,"X":"642300.5","Y":"9226781.5","Rotation":0,"NAMOBJ":"Parengan","WADMKC":"Maduran","WADMKK":"Lamongan"},"geometry":{"type":"Point","coordinates":[112.28823429,-6.99344016]}},{"type":"Feature","properties":{"Line":"R126","Tr":1069,"X":"642300.5","Y":"9226769.0","Rotation":0,"NAMOBJ":"Parengan","WADMKC":"Maduran","WADMKK":"Lamongan"},"geometry":{"type":"Point","coordinates":[112.2882346,-6.9935532]}},{"type":"Feature","properties":{"Line":"R126","Tr":1070,"X":"642300.5","Y":"9226756.5","Rotation":0,"NAMOBJ":"Parengan","WADMKC":"Maduran","WADMKK":"Lamongan"},"geometry":{"type":"Point","coordinates":[112.28823491,-6.99366625]}},{"type":"Feature","properties":{"Line":"R126","Tr":1071,"X":"642300.5","Y":"9226744.0","Rotation":0,"NAMOBJ":"Parengan","WADMKC":"Maduran","WADMKK":"Lamongan"},"geometry":{"type":"Point","coordinates":[112.28823522,-6.9937793]}},{"type":"Feature","properties":{"Line":"R126","Tr":1072,"X":"642300.5","Y":"9226731.5","Rotation":0,"NAMOBJ":"Parengan","WADMKC":"Maduran","WADMKK":"Lamongan"},"geometry":{"type":"Point","coordinates":[112.28823553,-6.99389234]}},{"type":"Feature","properties":{"Line":"R126","Tr":1073,"X":"642300.5","Y":"9226719.0","Rotation":0,"NAMOBJ":"Parengan","WADMKC":"Maduran","WADMKK":"Lamongan"},"geometry":{"type":"Point","coordinates":[112.28823584,-6.99400539]}},{"type":"Feature","properties":{"Line":"R126","Tr":1074,"X":"642300.5","Y":"9226706.5","Rotation":0,"NAMOBJ":"Parengan","WADMKC":"Maduran","WADMKK":"Lamongan"},"geometry":{"type":"Point","coordinates":[112.28823615,-6.99411843]}},{"type":"Feature","properties":{"Line":"R126","Tr":1075,"X":"642300.5","Y":"9226694.0","Rotation":0,"NAMOBJ":"Parengan","WADMKC":"Maduran","WADMKK":"Lamongan"},"geometry":{"type":"Point","coordinates":[112.28823646,-6.99423148]}},{"type":"Feature","properties":{"Line":"R126","Tr":1076,"X":"642300.5","Y":"9226681.5","Rotation":0,"NAMOBJ":"Parengan","WADMKC":"Maduran","WADMKK":"Lamongan"},"geometry":{"type":"Point","coordinates":[112.28823677,-6.99434452]}},{"type":"Feature","properties":{"Line":"R126","Tr":1077,"X":"642300.5","Y":"9226669.0","Rotation":0,"NAMOBJ":"Parengan","WADMKC":"Maduran","WADMKK":"Lamongan"},"geometry":{"type":"Point","coordinates":[112.28823708,-6.99445757]}}]}