{"type":"FeatureCollection","features":[{"type":"Feature","properties":{"Line":"S113","Sp":"3432.5","X":"654625.5","Y":"9214800.3","NAMOBJ":"Balun","WADMKC":"Turi","WADMKK":"Lamongan"},"geometry":{"type":"Point","coordinates":[112.40011488,-7.10147049]}},{"type":"Feature","properties":{"Line":"S113","Sp":"3436.5","X":"654675.5","Y":"9214800.3","NAMOBJ":"Balun","WADMKC":"Turi","WADMKK":"Lamongan"},"geometry":{"type":"Point","coordinates":[112.40056753,-7.10146913]}},{"type":"Feature","properties":{"Line":"S113","Sp":"3492.5","X":"655375.5","Y":"9214800.3","NAMOBJ":"Sidokumpul","WADMKC":"Lamongan","WADMKK":"Lamongan"},"geometry":{"type":"Point","coordinates":[112.40690465,-7.10144995]}},{"type":"Feature","properties":{"Line":"S113","Sp":"3496.5","X":"655425.5","Y":"9214800.3","NAMOBJ":"Sidokumpul","WADMKC":"Lamongan","WADMKK":"Lamongan"},"geometry":{"type":"Point","coordinates":[112.4073573,-7.10144858]}},{"type":"Feature","properties":{"Line":"S113","Sp":"3440.5","X":"654725.5","Y":"9214800.3","NAMOBJ":"Sukorejo","WADMKC":"Lamongan","WADMKK":"Lamongan"},"geometry":{"type":"Point","coordinates":[112.40102018,-7.10146776]}},{"type":"Feature","properties":{"Line":"S113","Sp":"3444.5","X":"654775.5","Y":"9214800.3","NAMOBJ":"Sukorejo","WADMKC":"Lamongan","WADMKK":"Lamongan"},"geometry":{"type":"Point","coordinates":[112.40147283,-7.10146639]}},{"type":"Feature","properties":{"Line":"S113","Sp":"3448.5","X":"654825.5","Y":"9214800.3","NAMOBJ":"Sukorejo","WADMKC":"Lamongan","WADMKK":"Lamongan"},"geometry":{"type":"Point","coordinates":[112.40192549,-7.10146503]}},{"type":"Feature","properties":{"Line":"S113","Sp":"3452.5","X":"654875.5","Y":"9214800.3","NAMOBJ":"Sukorejo","WADMKC":"Lamongan","WADMKK":"Lamongan"},"geometry":{"type":"Point","coordinates":[112.40237814,-7.10146366]}},{"type":"Feature","properties":{"Line":"S113","Sp":"3456.5","X":"654925.5","Y":"9214800.3","NAMOBJ":"Sukorejo","WADMKC":"Lamongan","WADMKK":"Lamongan"},"geometry":{"type":"Point","coordinates":[112.40283079,-7.10146229]}},{"type":"Feature","properties":{"Line":"S113","Sp":"3460.5","X":"654975.5","Y":"9214800.3","NAMOBJ":"Sukorejo","WADMKC":"Lamongan","WADMKK":"Lamongan"},"geometry":{"type":"Point","coordinates":[112.40328344,-7.10146092]}},{"type":"Feature","properties":{"Line":"S113","Sp":"3464.5","X":"655025.5","Y":"9214800.3","NAMOBJ":"Sukorejo","WADMKC":"Lamongan","WADMKK":"Lamongan"},"geometry":{"type":"Point","coordinates":[112.40373609,-7.10145955]}},{"type":"Feature","properties":{"Line":"S113","Sp":"3468.5","X":"655075.5","Y":"9214800.3","NAMOBJ":"Sukorejo","WADMKC":"Lamongan","WADMKK":"Lamongan"},"geometry":{"type":"Point","coordinates":[112.40418874,-7.10145818]}},{"type":"Feature","properties":{"Line":"S113","Sp":"3472.5","X":"655125.5","Y":"9214800.3","NAMOBJ":"Sukorejo","WADMKC":"Lamongan","WADMKK":"Lamongan"},"geometry":{"type":"Point","coordinates":[112.40464139,-7.10145681]}},{"type":"Feature","properties":{"Line":"S113","Sp":"3476.5","X":"655175.5","Y":"9214800.3","NAMOBJ":"Sukorejo","WADMKC":"Lamongan","WADMKK":"Lamongan"},"geometry":{"type":"Point","coordinates":[112.40509404,-7.10145544]}},{"type":"Feature","properties":{"Line":"S113","Sp":"3480.5","X":"655225.5","Y":"9214800.3","NAMOBJ":"Sukorejo","WADMKC":"Lamongan","WADMKK":"Lamongan"},"geometry":{"type":"Point","coordinates":[112.40554669,-7.10145407]}},{"type":"Feature","properties":{"Line":"S113","Sp":"3484.5","X":"655275.5","Y":"9214800.3","NAMOBJ":"Sukorejo","WADMKC":"Lamongan","WADMKK":"Lamongan"},"geometry":{"type":"Point","coordinates":[112.40599934,-7.1014527]}},{"type":"Feature","properties":{"Line":"S113","Sp":"3488.5","X":"655325.5","Y":"9214800.3","NAMOBJ":"Sukorejo","WADMKC":"Lamongan","WADMKK":"Lamongan"},"geometry":{"type":"Point","coordinates":[112.406452,-7.10145132]}}]}