{"type":"FeatureCollection","features":[{"type":"Feature","properties":{"Line":"S110","Sp":"3312.50000000000","X":"634300.50000000000","Y":"9198425.30000000075","NAMOBJ":"Girik","WADMKC":"Ngimbang","WADMKK":"Lamongan"},"geometry":{"type":"Point","coordinates":[112.2,-7.3]}},{"type":"Feature","properties":{"Line":"S110","Sp":"3316.50000000000","X":"634300.50000000000","Y":"9198375.30000000075","NAMOBJ":"Girik","WADMKC":"Ngimbang","WADMKK":"Lamongan"},"geometry":{"type":"Point","coordinates":[112.2,-7.3]}},{"type":"Feature","properties":{"Line":"S110","Sp":"3320.50000000000","X":"634300.50000000000","Y":"9198325.30000000075","NAMOBJ":"Girik","WADMKC":"Ngimbang","WADMKK":"Lamongan"},"geometry":{"type":"Point","coordinates":[112.2,-7.3]}},{"type":"Feature","properties":{"Line":"S110","Sp":"3324.50000000000","X":"634300.50000000000","Y":"9198275.30000000075","NAMOBJ":"Girik","WADMKC":"Ngimbang","WADMKK":"Lamongan"},"geometry":{"type":"Point","coordinates":[112.2,-7.3]}},{"type":"Feature","properties":{"Line":"S110","Sp":"3328.50000000000","X":"634300.50000000000","Y":"9198225.30000000075","NAMOBJ":"Girik","WADMKC":"Ngimbang","WADMKK":"Lamongan"},"geometry":{"type":"Point","coordinates":[112.2,-7.3]}},{"type":"Feature","properties":{"Line":"S110","Sp":"3332.50000000000","X":"634300.50000000000","Y":"9198175.30000000075","NAMOBJ":"Girik","WADMKC":"Ngimbang","WADMKK":"Lamongan"},"geometry":{"type":"Point","coordinates":[112.2,-7.3]}},{"type":"Feature","properties":{"Line":"S110","Sp":"3336.50000000000","X":"634300.50000000000","Y":"9198125.30000000075","NAMOBJ":"Girik","WADMKC":"Ngimbang","WADMKK":"Lamongan"},"geometry":{"type":"Point","coordinates":[112.2,-7.3]}},{"type":"Feature","properties":{"Line":"S110","Sp":"3340.50000000000","X":"634300.50000000000","Y":"9198075.30000000075","NAMOBJ":"Girik","WADMKC":"Ngimbang","WADMKK":"Lamongan"},"geometry":{"type":"Point","coordinates":[112.2,-7.3]}},{"type":"Feature","properties":{"Line":"S110","Sp":"3344.50000000000","X":"634300.50000000000","Y":"9198025.30000000075","NAMOBJ":"Girik","WADMKC":"Ngimbang","WADMKK":"Lamongan"},"geometry":{"type":"Point","coordinates":[112.2,-7.3]}},{"type":"Feature","properties":{"Line":"S110","Sp":"3348.50000000000","X":"634300.50000000000","Y":"9197975.30000000075","NAMOBJ":"Girik","WADMKC":"Ngimbang","WADMKK":"Lamongan"},"geometry":{"type":"Point","coordinates":[112.2,-7.3]}},{"type":"Feature","properties":{"Line":"S110","Sp":"3352.50000000000","X":"634300.50000000000","Y":"9197925.30000000075","NAMOBJ":"Girik","WADMKC":"Ngimbang","WADMKK":"Lamongan"},"geometry":{"type":"Point","coordinates":[112.2,-7.3]}},{"type":"Feature","properties":{"Line":"S110","Sp":"3356.50000000000","X":"634300.50000000000","Y":"9197875.30000000075","NAMOBJ":"Girik","WADMKC":"Ngimbang","WADMKK":"Lamongan"},"geometry":{"type":"Point","coordinates":[112.2,-7.3]}},{"type":"Feature","properties":{"Line":"S110","Sp":"3360.50000000000","X":"634300.50000000000","Y":"9197825.30000000075","NAMOBJ":"Girik","WADMKC":"Ngimbang","WADMKK":"Lamongan"},"geometry":{"type":"Point","coordinates":[112.2,-7.3]}},{"type":"Feature","properties":{"Line":"S110","Sp":"3364.50000000000","X":"634300.50000000000","Y":"9197775.30000000075","NAMOBJ":"Girik","WADMKC":"Ngimbang","WADMKK":"Lamongan"},"geometry":{"type":"Point","coordinates":[112.2,-7.3]}},{"type":"Feature","properties":{"Line":"S110","Sp":"3368.50000000000","X":"634300.50000000000","Y":"9197725.30000000075","NAMOBJ":"Girik","WADMKC":"Ngimbang","WADMKK":"Lamongan"},"geometry":{"type":"Point","coordinates":[112.2,-7.3]}},{"type":"Feature","properties":{"Line":"S110","Sp":"3372.50000000000","X":"634300.50000000000","Y":"9197675.30000000075","NAMOBJ":"Girik","WADMKC":"Ngimbang","WADMKK":"Lamongan"},"geometry":{"type":"Point","coordinates":[112.2,-7.3]}},{"type":"Feature","properties":{"Line":"S110","Sp":"3376.50000000000","X":"634300.50000000000","Y":"9197625.30000000075","NAMOBJ":"Girik","WADMKC":"Ngimbang","WADMKK":"Lamongan"},"geometry":{"type":"Point","coordinates":[112.2,-7.3]}},{"type":"Feature","properties":{"Line":"S110","Sp":"3380.50000000000","X":"634300.50000000000","Y":"9197575.30000000075","NAMOBJ":"Girik","WADMKC":"Ngimbang","WADMKK":"Lamongan"},"geometry":{"type":"Point","coordinates":[112.2,-7.3]}},{"type":"Feature","properties":{"Line":"S110","Sp":"3384.50000000000","X":"634300.50000000000","Y":"9197525.30000000075","NAMOBJ":"Girik","WADMKC":"Ngimbang","WADMKK":"Lamongan"},"geometry":{"type":"Point","coordinates":[112.2,-7.3]}},{"type":"Feature","properties":{"Line":"S110","Sp":"3388.50000000000","X":"634300.50000000000","Y":"9197475.30000000075","NAMOBJ":"Girik","WADMKC":"Ngimbang","WADMKK":"Lamongan"},"geometry":{"type":"Point","coordinates":[112.2,-7.3]}},{"type":"Feature","properties":{"Line":"S110","Sp":"3392.50000000000","X":"634300.50000000000","Y":"9197425.30000000075","NAMOBJ":"Girik","WADMKC":"Ngimbang","WADMKK":"Lamongan"},"geometry":{"type":"Point","coordinates":[112.2,-7.3]}},{"type":"Feature","properties":{"Line":"S110","Sp":"3396.50000000000","X":"634300.50000000000","Y":"9197375.30000000075","NAMOBJ":"Girik","WADMKC":"Ngimbang","WADMKK":"Lamongan"},"geometry":{"type":"Point","coordinates":[112.2,-7.3]}},{"type":"Feature","properties":{"Line":"S110","Sp":"3400.50000000000","X":"634300.50000000000","Y":"9197325.30000000075","NAMOBJ":"Girik","WADMKC":"Ngimbang","WADMKK":"Lamongan"},"geometry":{"type":"Point","coordinates":[112.2,-7.3]}},{"type":"Feature","properties":{"Line":"S110","Sp":"3404.50000000000","X":"634300.50000000000","Y":"9197275.30000000075","NAMOBJ":"Girik","WADMKC":"Ngimbang","WADMKK":"Lamongan"},"geometry":{"type":"Point","coordinates":[112.2,-7.3]}},{"type":"Feature","properties":{"Line":"S110","Sp":"3408.50000000000","X":"634300.50000000000","Y":"9197225.30000000075","NAMOBJ":"Girik","WADMKC":"Ngimbang","WADMKK":"Lamongan"},"geometry":{"type":"Point","coordinates":[112.2,-7.3]}},{"type":"Feature","properties":{"Line":"S110","Sp":"3412.50000000000","X":"634300.50000000000","Y":"9197175.30000000075","NAMOBJ":"Girik","WADMKC":"Ngimbang","WADMKK":"Lamongan"},"geometry":{"type":"Point","coordinates":[112.2,-7.3]}},{"type":"Feature","properties":{"Line":"S110","Sp":"3416.50000000000","X":"634300.50000000000","Y":"9197125.30000000075","NAMOBJ":"Girik","WADMKC":"Ngimbang","WADMKK":"Lamongan"},"geometry":{"type":"Point","coordinates":[112.2,-7.3]}},{"type":"Feature","properties":{"Line":"S110","Sp":"3420.50000000000","X":"634300.50000000000","Y":"9197075.30000000075","NAMOBJ":"Girik","WADMKC":"Ngimbang","WADMKK":"Lamongan"},"geometry":{"type":"Point","coordinates":[112.2,-7.3]}},{"type":"Feature","properties":{"Line":"S110","Sp":"3424.50000000000","X":"634300.50000000000","Y":"9197025.30000000075","NAMOBJ":"Girik","WADMKC":"Ngimbang","WADMKK":"Lamongan"},"geometry":{"type":"Point","coordinates":[112.2,-7.3]}},{"type":"Feature","properties":{"Line":"S110","Sp":"3428.50000000000","X":"634300.50000000000","Y":"9196975.30000000075","NAMOBJ":"Girik","WADMKC":"Ngimbang","WADMKK":"Lamongan"},"geometry":{"type":"Point","coordinates":[112.2,-7.3]}},{"type":"Feature","properties":{"Line":"S110","Sp":"3432.50000000000","X":"634300.50000000000","Y":"9196925.30000000075","NAMOBJ":"Girik","WADMKC":"Ngimbang","WADMKK":"Lamongan"},"geometry":{"type":"Point","coordinates":[112.2,-7.3]}},{"type":"Feature","properties":{"Line":"S110","Sp":"3436.50000000000","X":"634300.50000000000","Y":"9196875.30000000075","NAMOBJ":"Girik","WADMKC":"Ngimbang","WADMKK":"Lamongan"},"geometry":{"type":"Point","coordinates":[112.2,-7.3]}},{"type":"Feature","properties":{"Line":"S110","Sp":"3460.50000000000","X":"634300.50000000000","Y":"9196575.30000000075","NAMOBJ":"Girik","WADMKC":"Ngimbang","WADMKK":"Lamongan"},"geometry":{"type":"Point","coordinates":[112.2,-7.3]}},{"type":"Feature","properties":{"Line":"S110","Sp":"3464.50000000000","X":"634300.50000000000","Y":"9196525.30000000075","NAMOBJ":"Girik","WADMKC":"Ngimbang","WADMKK":"Lamongan"},"geometry":{"type":"Point","coordinates":[112.2,-7.3]}},{"type":"Feature","properties":{"Line":"S110","Sp":"3440.50000000000","X":"634300.50000000000","Y":"9196825.30000000075","NAMOBJ":"Sendangrejo","WADMKC":"Ngimbang","WADMKK":"Lamongan"},"geometry":{"type":"Point","coordinates":[112.2,-7.3]}},{"type":"Feature","properties":{"Line":"S110","Sp":"3444.50000000000","X":"634300.50000000000","Y":"9196775.30000000075","NAMOBJ":"Sendangrejo","WADMKC":"Ngimbang","WADMKK":"Lamongan"},"geometry":{"type":"Point","coordinates":[112.2,-7.3]}},{"type":"Feature","properties":{"Line":"S110","Sp":"3448.50000000000","X":"634300.50000000000","Y":"9196725.30000000075","NAMOBJ":"Sendangrejo","WADMKC":"Ngimbang","WADMKK":"Lamongan"},"geometry":{"type":"Point","coordinates":[112.2,-7.3]}},{"type":"Feature","properties":{"Line":"S110","Sp":"3452.50000000000","X":"634300.50000000000","Y":"9196675.30000000075","NAMOBJ":"Sendangrejo","WADMKC":"Ngimbang","WADMKK":"Lamongan"},"geometry":{"type":"Point","coordinates":[112.2,-7.3]}},{"type":"Feature","properties":{"Line":"S110","Sp":"3456.50000000000","X":"634300.50000000000","Y":"9196625.30000000075","NAMOBJ":"Sendangrejo","WADMKC":"Ngimbang","WADMKK":"Lamongan"},"geometry":{"type":"Point","coordinates":[112.2,-7.3]}},{"type":"Feature","properties":{"Line":"S110","Sp":"3468.50000000000","X":"634300.50000000000","Y":"9196475.30000000075","NAMOBJ":"Sendangrejo","WADMKC":"Ngimbang","WADMKK":"Lamongan"},"geometry":{"type":"Point","coordinates":[112.2,-7.3]}},{"type":"Feature","properties":{"Line":"S110","Sp":"3472.50000000000","X":"634300.50000000000","Y":"9196425.30000000075","NAMOBJ":"Sendangrejo","WADMKC":"Ngimbang","WADMKK":"Lamongan"},"geometry":{"type":"Point","coordinates":[112.2,-7.3]}},{"type":"Feature","properties":{"Line":"S110","Sp":"3476.50000000000","X":"634300.50000000000","Y":"9196375.30000000075","NAMOBJ":"Sendangrejo","WADMKC":"Ngimbang","WADMKK":"Lamongan"},"geometry":{"type":"Point","coordinates":[112.2,-7.3]}},{"type":"Feature","properties":{"Line":"S110","Sp":"3480.50000000000","X":"634300.50000000000","Y":"9196325.30000000075","NAMOBJ":"Sendangrejo","WADMKC":"Ngimbang","WADMKK":"Lamongan"},"geometry":{"type":"Point","coordinates":[112.2,-7.3]}},{"type":"Feature","properties":{"Line":"S110","Sp":"3484.50000000000","X":"634300.50000000000","Y":"9196275.30000000075","NAMOBJ":"Sendangrejo","WADMKC":"Ngimbang","WADMKK":"Lamongan"},"geometry":{"type":"Point","coordinates":[112.2,-7.3]}},{"type":"Feature","properties":{"Line":"S110","Sp":"3488.50000000000","X":"634300.50000000000","Y":"9196225.30000000075","NAMOBJ":"Sendangrejo","WADMKC":"Ngimbang","WADMKK":"Lamongan"},"geometry":{"type":"Point","coordinates":[112.2,-7.3]}},{"type":"Feature","properties":{"Line":"S110","Sp":"3492.50000000000","X":"634300.50000000000","Y":"9196175.30000000075","NAMOBJ":"Sendangrejo","WADMKC":"Ngimbang","WADMKK":"Lamongan"},"geometry":{"type":"Point","coordinates":[112.2,-7.3]}},{"type":"Feature","properties":{"Line":"S110","Sp":"3496.50000000000","X":"634300.50000000000","Y":"9196125.30000000075","NAMOBJ":"Sendangrejo","WADMKC":"Ngimbang","WADMKK":"Lamongan"},"geometry":{"type":"Point","coordinates":[112.2,-7.3]}},{"type":"Feature","properties":{"Line":"S110","Sp":"3500.50000000000","X":"634300.50000000000","Y":"9196075.30000000075","NAMOBJ":"Sendangrejo","WADMKC":"Ngimbang","WADMKK":"Lamongan"},"geometry":{"type":"Point","coordinates":[112.2,-7.3]}},{"type":"Feature","properties":{"Line":"S110","Sp":"3504.50000000000","X":"634300.50000000000","Y":"9196025.30000000075","NAMOBJ":"Sendangrejo","WADMKC":"Ngimbang","WADMKK":"Lamongan"},"geometry":{"type":"Point","coordinates":[112.2,-7.3]}},{"type":"Feature","properties":{"Line":"S110","Sp":"3508.50000000000","X":"634300.50000000000","Y":"9195975.30000000075","NAMOBJ":"Sendangrejo","WADMKC":"Ngimbang","WADMKK":"Lamongan"},"geometry":{"type":"Point","coordinates":[112.2,-7.3]}},{"type":"Feature","properties":{"Line":"S110","Sp":"3512.50000000000","X":"634300.50000000000","Y":"9195925.30000000075","NAMOBJ":"Sendangrejo","WADMKC":"Ngimbang","WADMKK":"Lamongan"},"geometry":{"type":"Point","coordinates":[112.2,-7.3]}},{"type":"Feature","properties":{"Line":"S110","Sp":"3516.50000000000","X":"634300.50000000000","Y":"9195875.30000000075","NAMOBJ":"Sendangrejo","WADMKC":"Ngimbang","WADMKK":"Lamongan"},"geometry":{"type":"Point","coordinates":[112.2,-7.3]}},{"type":"Feature","properties":{"Line":"S110","Sp":"3520.50000000000","X":"634300.50000000000","Y":"9195825.30000000075","NAMOBJ":"Sendangrejo","WADMKC":"Ngimbang","WADMKK":"Lamongan"},"geometry":{"type":"Point","coordinates":[112.2,-7.3]}},{"type":"Feature","properties":{"Line":"S110","Sp":"3524.50000000000","X":"634300.50000000000","Y":"9195775.30000000075","NAMOBJ":"Sendangrejo","WADMKC":"Ngimbang","WADMKK":"Lamongan"},"geometry":{"type":"Point","coordinates":[112.2,-7.3]}},{"type":"Feature","properties":{"Line":"S110","Sp":"3528.50000000000","X":"634300.50000000000","Y":"9195725.30000000075","NAMOBJ":"Sendangrejo","WADMKC":"Ngimbang","WADMKK":"Lamongan"},"geometry":{"type":"Point","coordinates":[112.2,-7.3]}},{"type":"Feature","properties":{"Line":"S110","Sp":"3532.50000000000","X":"634300.50000000000","Y":"9195675.30000000075","NAMOBJ":"Sendangrejo","WADMKC":"Ngimbang","WADMKK":"Lamongan"},"geometry":{"type":"Point","coordinates":[112.2,-7.3]}},{"type":"Feature","properties":{"Line":"S110","Sp":"3536.50000000000","X":"634300.50000000000","Y":"9195625.30000000075","NAMOBJ":"Sendangrejo","WADMKC":"Ngimbang","WADMKK":"Lamongan"},"geometry":{"type":"Point","coordinates":[112.2,-7.3]}},{"type":"Feature","properties":{"Line":"S110","Sp":"3540.50000000000","X":"634300.50000000000","Y":"9195575.30000000075","NAMOBJ":"Sendangrejo","WADMKC":"Ngimbang","WADMKK":"Lamongan"},"geometry":{"type":"Point","coordinates":[112.2,-7.3]}},{"type":"Feature","properties":{"Line":"S110","Sp":"3544.50000000000","X":"634300.50000000000","Y":"9195525.30000000075","NAMOBJ":"Sendangrejo","WADMKC":"Ngimbang","WADMKK":"Lamongan"},"geometry":{"type":"Point","coordinates":[112.2,-7.3]}},{"type":"Feature","properties":{"Line":"S110","Sp":"3548.50000000000","X":"634300.50000000000","Y":"9195475.30000000075","NAMOBJ":"Sendangrejo","WADMKC":"Ngimbang","WADMKK":"Lamongan"},"geometry":{"type":"Point","coordinates":[112.2,-7.3]}},{"type":"Feature","properties":{"Line":"S110","Sp":"3552.50000000000","X":"634300.50000000000","Y":"9195425.30000000075","NAMOBJ":"Sendangrejo","WADMKC":"Ngimbang","WADMKK":"Lamongan"},"geometry":{"type":"Point","coordinates":[112.2,-7.3]}},{"type":"Feature","properties":{"Line":"S110","Sp":"3556.50000000000","X":"634300.50000000000","Y":"9195375.30000000075","NAMOBJ":"Sendangrejo","WADMKC":"Ngimbang","WADMKK":"Lamongan"},"geometry":{"type":"Point","coordinates":[112.2,-7.3]}},{"type":"Feature","properties":{"Line":"S110","Sp":"3560.50000000000","X":"634300.50000000000","Y":"9195325.30000000075","NAMOBJ":"Sendangrejo","WADMKC":"Ngimbang","WADMKK":"Lamongan"},"geometry":{"type":"Point","coordinates":[112.2,-7.3]}},{"type":"Feature","properties":{"Line":"S110","Sp":"3564.50000000000","X":"634300.50000000000","Y":"9195275.30000000075","NAMOBJ":"Sendangrejo","WADMKC":"Ngimbang","WADMKK":"Lamongan"},"geometry":{"type":"Point","coordinates":[112.2,-7.3]}},{"type":"Feature","properties":{"Line":"S110","Sp":"3568.50000000000","X":"634300.50000000000","Y":"9195225.30000000075","NAMOBJ":"Sendangrejo","WADMKC":"Ngimbang","WADMKK":"Lamongan"},"geometry":{"type":"Point","coordinates":[112.2,-7.3]}},{"type":"Feature","properties":{"Line":"S110","Sp":"3572.50000000000","X":"634300.50000000000","Y":"9195175.30000000075","NAMOBJ":"Sendangrejo","WADMKC":"Ngimbang","WADMKK":"Lamongan"},"geometry":{"type":"Point","coordinates":[112.2,-7.3]}},{"type":"Feature","properties":{"Line":"S110","Sp":"3576.50000000000","X":"634300.50000000000","Y":"9195125.30000000075","NAMOBJ":"Sendangrejo","WADMKC":"Ngimbang","WADMKK":"Lamongan"},"geometry":{"type":"Point","coordinates":[112.2,-7.3]}},{"type":"Feature","properties":{"Line":"S110","Sp":"3580.50000000000","X":"634300.50000000000","Y":"9195075.30000000075","NAMOBJ":"Sendangrejo","WADMKC":"Ngimbang","WADMKK":"Lamongan"},"geometry":{"type":"Point","coordinates":[112.2,-7.3]}},{"type":"Feature","properties":{"Line":"S110","Sp":"3584.50000000000","X":"634300.50000000000","Y":"9195025.30000000075","NAMOBJ":"Sendangrejo","WADMKC":"Ngimbang","WADMKK":"Lamongan"},"geometry":{"type":"Point","coordinates":[112.2,-7.3]}},{"type":"Feature","properties":{"Line":"S110","Sp":"3588.50000000000","X":"634300.50000000000","Y":"9194975.30000000075","NAMOBJ":"Sendangrejo","WADMKC":"Ngimbang","WADMKK":"Lamongan"},"geometry":{"type":"Point","coordinates":[112.2,-7.3]}},{"type":"Feature","properties":{"Line":"S110","Sp":"3592.50000000000","X":"634300.50000000000","Y":"9194925.30000000075","NAMOBJ":"Sendangrejo","WADMKC":"Ngimbang","WADMKK":"Lamongan"},"geometry":{"type":"Point","coordinates":[112.2,-7.3]}},{"type":"Feature","properties":{"Line":"S110","Sp":"3596.50000000000","X":"634300.50000000000","Y":"9194875.30000000075","NAMOBJ":"Sendangrejo","WADMKC":"Ngimbang","WADMKK":"Lamongan"},"geometry":{"type":"Point","coordinates":[112.2,-7.3]}},{"type":"Feature","properties":{"Line":"S110","Sp":"3600.50000000000","X":"634300.50000000000","Y":"9194825.30000000075","NAMOBJ":"Sendangrejo","WADMKC":"Ngimbang","WADMKK":"Lamongan"},"geometry":{"type":"Point","coordinates":[112.2,-7.3]}},{"type":"Feature","properties":{"Line":"S110","Sp":"3604.50000000000","X":"634300.50000000000","Y":"9194775.30000000075","NAMOBJ":"Sendangrejo","WADMKC":"Ngimbang","WADMKK":"Lamongan"},"geometry":{"type":"Point","coordinates":[112.2,-7.3]}},{"type":"Feature","properties":{"Line":"S110","Sp":"3608.50000000000","X":"634300.50000000000","Y":"9194725.30000000075","NAMOBJ":"Sendangrejo","WADMKC":"Ngimbang","WADMKK":"Lamongan"},"geometry":{"type":"Point","coordinates":[112.2,-7.3]}},{"type":"Feature","properties":{"Line":"S110","Sp":"3612.50000000000","X":"634300.50000000000","Y":"9194675.30000000075","NAMOBJ":"Sendangrejo","WADMKC":"Ngimbang","WADMKK":"Lamongan"},"geometry":{"type":"Point","coordinates":[112.2,-7.3]}},{"type":"Feature","properties":{"Line":"S110","Sp":"3616.50000000000","X":"634300.50000000000","Y":"9194625.30000000075","NAMOBJ":"Sendangrejo","WADMKC":"Ngimbang","WADMKK":"Lamongan"},"geometry":{"type":"Point","coordinates":[112.2,-7.3]}}]}