{"type":"FeatureCollection","features":[{"type":"Feature","properties":{"Line":"R125","Tr":1001,"X":"625131.80000000005","Y":"9220800.30000000075","Rotation":90,"NAMOBJ":"Penidon","WADMKC":"Plumpang","WADMKK":"Tuban"},"geometry":{"type":"Point","coordinates":[112.1,-7.0]}},{"type":"Feature","properties":{"Line":"R125","Tr":1002,"X":"625144.30000000005","Y":"9220800.30000000075","Rotation":90,"NAMOBJ":"Penidon","WADMKC":"Plumpang","WADMKK":"Tuban"},"geometry":{"type":"Point","coordinates":[112.1,-7.0]}},{"type":"Feature","properties":{"Line":"R125","Tr":1003,"X":"625156.80000000005","Y":"9220800.30000000075","Rotation":90,"NAMOBJ":"Penidon","WADMKC":"Plumpang","WADMKK":"Tuban"},"geometry":{"type":"Point","coordinates":[112.1,-7.0]}},{"type":"Feature","properties":{"Line":"R125","Tr":1004,"X":"625169.30000000005","Y":"9220800.30000000075","Rotation":90,"NAMOBJ":"Penidon","WADMKC":"Plumpang","WADMKK":"Tuban"},"geometry":{"type":"Point","coordinates":[112.1,-7.0]}},{"type":"Feature","properties":{"Line":"R125","Tr":1005,"X":"625181.80000000005","Y":"9220800.30000000075","Rotation":90,"NAMOBJ":"Penidon","WADMKC":"Plumpang","WADMKK":"Tuban"},"geometry":{"type":"Point","coordinates":[112.1,-7.0]}},{"type":"Feature","properties":{"Line":"R125","Tr":1006,"X":"625194.30000000005","Y":"9220800.30000000075","Rotation":90,"NAMOBJ":"Penidon","WADMKC":"Plumpang","WADMKK":"Tuban"},"geometry":{"type":"Point","coordinates":[112.1,-7.0]}},{"type":"Feature","properties":{"Line":"R125","Tr":1007,"X":"625206.80000000005","Y":"9220800.30000000075","Rotation":90,"NAMOBJ":"Penidon","WADMKC":"Plumpang","WADMKK":"Tuban"},"geometry":{"type":"Point","coordinates":[112.1,-7.0]}},{"type":"Feature","properties":{"Line":"R125","Tr":1008,"X":"625219.30000000005","Y":"9220800.30000000075","Rotation":90,"NAMOBJ":"Penidon","WADMKC":"Plumpang","WADMKK":"Tuban"},"geometry":{"type":"Point","coordinates":[112.1,-7.0]}},{"type":"Feature","properties":{"Line":"R125","Tr":1009,"X":"625231.80000000005","Y":"9220800.30000000075","Rotation":90,"NAMOBJ":"Penidon","WADMKC":"Plumpang","WADMKK":"Tuban"},"geometry":{"type":"Point","coordinates":[112.1,-7.0]}},{"type":"Feature","properties":{"Line":"R125","Tr":1010,"X":"625244.30000000005","Y":"9220800.30000000075","Rotation":90,"NAMOBJ":"Penidon","WADMKC":"Plumpang","WADMKK":"Tuban"},"geometry":{"type":"Point","coordinates":[112.1,-7.0]}},{"type":"Feature","properties":{"Line":"R125","Tr":1011,"X":"625256.80000000005","Y":"9220800.30000000075","Rotation":90,"NAMOBJ":"Penidon","WADMKC":"Plumpang","WADMKK":"Tuban"},"geometry":{"type":"Point","coordinates":[112.1,-7.0]}},{"type":"Feature","properties":{"Line":"R125","Tr":1012,"X":"625269.30000000005","Y":"9220800.30000000075","Rotation":90,"NAMOBJ":"Penidon","WADMKC":"Plumpang","WADMKK":"Tuban"},"geometry":{"type":"Point","coordinates":[112.1,-7.0]}},{"type":"Feature","properties":{"Line":"R125","Tr":1013,"X":"625281.80000000005","Y":"9220800.30000000075","Rotation":90,"NAMOBJ":"Penidon","WADMKC":"Plumpang","WADMKK":"Tuban"},"geometry":{"type":"Point","coordinates":[112.1,-7.0]}},{"type":"Feature","properties":{"Line":"R125","Tr":1014,"X":"625294.30000000005","Y":"9220800.30000000075","Rotation":90,"NAMOBJ":"Penidon","WADMKC":"Plumpang","WADMKK":"Tuban"},"geometry":{"type":"Point","coordinates":[112.1,-7.0]}},{"type":"Feature","properties":{"Line":"R125","Tr":1015,"X":"625306.80000000005","Y":"9220800.30000000075","Rotation":90,"NAMOBJ":"Penidon","WADMKC":"Plumpang","WADMKK":"Tuban"},"geometry":{"type":"Point","coordinates":[112.1,-7.0]}},{"type":"Feature","properties":{"Line":"R125","Tr":1016,"X":"625319.30000000005","Y":"9220800.30000000075","Rotation":90,"NAMOBJ":"Penidon","WADMKC":"Plumpang","WADMKK":"Tuban"},"geometry":{"type":"Point","coordinates":[112.1,-7.0]}},{"type":"Feature","properties":{"Line":"R125","Tr":1017,"X":"625331.80000000005","Y":"9220800.30000000075","Rotation":90,"NAMOBJ":"Penidon","WADMKC":"Plumpang","WADMKK":"Tuban"},"geometry":{"type":"Point","coordinates":[112.1,-7.0]}},{"type":"Feature","properties":{"Line":"R125","Tr":1018,"X":"625344.30000000005","Y":"9220800.30000000075","Rotation":90,"NAMOBJ":"Penidon","WADMKC":"Plumpang","WADMKK":"Tuban"},"geometry":{"type":"Point","coordinates":[112.1,-7.0]}},{"type":"Feature","properties":{"Line":"R125","Tr":1019,"X":"625356.80000000005","Y":"9220800.30000000075","Rotation":90,"NAMOBJ":"Penidon","WADMKC":"Plumpang","WADMKK":"Tuban"},"geometry":{"type":"Point","coordinates":[112.1,-7.0]}},{"type":"Feature","properties":{"Line":"R125","Tr":1020,"X":"625369.30000000005","Y":"9220800.30000000075","Rotation":90,"NAMOBJ":"Penidon","WADMKC":"Plumpang","WADMKK":"Tuban"},"geometry":{"type":"Point","coordinates":[112.1,-7.0]}},{"type":"Feature","properties":{"Line":"R125","Tr":1021,"X":"625381.80000000005","Y":"9220800.30000000075","Rotation":90,"NAMOBJ":"Penidon","WADMKC":"Plumpang","WADMKK":"Tuban"},"geometry":{"type":"Point","coordinates":[112.1,-7.0]}},{"type":"Feature","properties":{"Line":"R125","Tr":1022,"X":"625394.30000000005","Y":"9220800.30000000075","Rotation":90,"NAMOBJ":"Penidon","WADMKC":"Plumpang","WADMKK":"Tuban"},"geometry":{"type":"Point","coordinates":[112.1,-7.0]}},{"type":"Feature","properties":{"Line":"R125","Tr":1023,"X":"625406.80000000005","Y":"9220800.30000000075","Rotation":90,"NAMOBJ":"Penidon","WADMKC":"Plumpang","WADMKK":"Tuban"},"geometry":{"type":"Point","coordinates":[112.1,-7.0]}},{"type":"Feature","properties":{"Line":"R125","Tr":1024,"X":"625419.30000000005","Y":"9220800.30000000075","Rotation":90,"NAMOBJ":"Penidon","WADMKC":"Plumpang","WADMKK":"Tuban"},"geometry":{"type":"Point","coordinates":[112.1,-7.0]}},{"type":"Feature","properties":{"Line":"R125","Tr":1025,"X":"625431.80000000005","Y":"9220800.30000000075","Rotation":90,"NAMOBJ":"Penidon","WADMKC":"Plumpang","WADMKK":"Tuban"},"geometry":{"type":"Point","coordinates":[112.1,-7.0]}},{"type":"Feature","properties":{"Line":"R125","Tr":1026,"X":"625444.30000000005","Y":"9220800.30000000075","Rotation":90,"NAMOBJ":"Penidon","WADMKC":"Plumpang","WADMKK":"Tuban"},"geometry":{"type":"Point","coordinates":[112.1,-7.0]}},{"type":"Feature","properties":{"Line":"R125","Tr":1027,"X":"625456.80000000005","Y":"9220800.30000000075","Rotation":90,"NAMOBJ":"Penidon","WADMKC":"Plumpang","WADMKK":"Tuban"},"geometry":{"type":"Point","coordinates":[112.1,-7.0]}},{"type":"Feature","properties":{"Line":"R125","Tr":1028,"X":"625469.30000000005","Y":"9220800.30000000075","Rotation":90,"NAMOBJ":"Penidon","WADMKC":"Plumpang","WADMKK":"Tuban"},"geometry":{"type":"Point","coordinates":[112.1,-7.0]}},{"type":"Feature","properties":{"Line":"R125","Tr":1029,"X":"625481.80000000005","Y":"9220800.30000000075","Rotation":90,"NAMOBJ":"Penidon","WADMKC":"Plumpang","WADMKK":"Tuban"},"geometry":{"type":"Point","coordinates":[112.1,-7.0]}},{"type":"Feature","properties":{"Line":"R125","Tr":1030,"X":"625494.30000000005","Y":"9220800.30000000075","Rotation":90,"NAMOBJ":"Penidon","WADMKC":"Plumpang","WADMKK":"Tuban"},"geometry":{"type":"Point","coordinates":[112.1,-7.0]}},{"type":"Feature","properties":{"Line":"R125","Tr":1031,"X":"625506.80000000005","Y":"9220800.30000000075","Rotation":90,"NAMOBJ":"Penidon","WADMKC":"Plumpang","WADMKK":"Tuban"},"geometry":{"type":"Point","coordinates":[112.1,-7.0]}},{"type":"Feature","properties":{"Line":"R125","Tr":1032,"X":"625519.30000000005","Y":"9220800.30000000075","Rotation":90,"NAMOBJ":"Penidon","WADMKC":"Plumpang","WADMKK":"Tuban"},"geometry":{"type":"Point","coordinates":[112.1,-7.0]}},{"type":"Feature","properties":{"Line":"R125","Tr":1033,"X":"625531.80000000005","Y":"9220800.30000000075","Rotation":90,"NAMOBJ":"Penidon","WADMKC":"Plumpang","WADMKK":"Tuban"},"geometry":{"type":"Point","coordinates":[112.1,-7.0]}},{"type":"Feature","properties":{"Line":"R125","Tr":1034,"X":"625544.30000000005","Y":"9220800.30000000075","Rotation":90,"NAMOBJ":"Penidon","WADMKC":"Plumpang","WADMKK":"Tuban"},"geometry":{"type":"Point","coordinates":[112.1,-7.0]}},{"type":"Feature","properties":{"Line":"R125","Tr":1035,"X":"625556.80000000005","Y":"9220800.30000000075","Rotation":90,"NAMOBJ":"Penidon","WADMKC":"Plumpang","WADMKK":"Tuban"},"geometry":{"type":"Point","coordinates":[112.1,-7.0]}},{"type":"Feature","properties":{"Line":"R125","Tr":1036,"X":"625569.30000000005","Y":"9220800.30000000075","Rotation":90,"NAMOBJ":"Penidon","WADMKC":"Plumpang","WADMKK":"Tuban"},"geometry":{"type":"Point","coordinates":[112.1,-7.0]}},{"type":"Feature","properties":{"Line":"R125","Tr":1037,"X":"625581.80000000005","Y":"9220800.30000000075","Rotation":90,"NAMOBJ":"Penidon","WADMKC":"Plumpang","WADMKK":"Tuban"},"geometry":{"type":"Point","coordinates":[112.1,-7.0]}},{"type":"Feature","properties":{"Line":"R125","Tr":1038,"X":"625594.30000000005","Y":"9220800.30000000075","Rotation":90,"NAMOBJ":"Penidon","WADMKC":"Plumpang","WADMKK":"Tuban"},"geometry":{"type":"Point","coordinates":[112.1,-7.0]}},{"type":"Feature","properties":{"Line":"R125","Tr":1039,"X":"625606.80000000005","Y":"9220800.30000000075","Rotation":90,"NAMOBJ":"Penidon","WADMKC":"Plumpang","WADMKK":"Tuban"},"geometry":{"type":"Point","coordinates":[112.1,-7.0]}},{"type":"Feature","properties":{"Line":"R125","Tr":1040,"X":"625619.30000000005","Y":"9220800.30000000075","Rotation":90,"NAMOBJ":"Penidon","WADMKC":"Plumpang","WADMKK":"Tuban"},"geometry":{"type":"Point","coordinates":[112.1,-7.0]}},{"type":"Feature","properties":{"Line":"R125","Tr":1041,"X":"625631.80000000005","Y":"9220800.30000000075","Rotation":90,"NAMOBJ":"Penidon","WADMKC":"Plumpang","WADMKK":"Tuban"},"geometry":{"type":"Point","coordinates":[112.1,-7.0]}},{"type":"Feature","properties":{"Line":"R125","Tr":1042,"X":"625644.30000000005","Y":"9220800.30000000075","Rotation":90,"NAMOBJ":"Penidon","WADMKC":"Plumpang","WADMKK":"Tuban"},"geometry":{"type":"Point","coordinates":[112.1,-7.0]}},{"type":"Feature","properties":{"Line":"R125","Tr":1043,"X":"625656.80000000005","Y":"9220800.30000000075","Rotation":90,"NAMOBJ":"Penidon","WADMKC":"Plumpang","WADMKK":"Tuban"},"geometry":{"type":"Point","coordinates":[112.1,-7.0]}},{"type":"Feature","properties":{"Line":"R125","Tr":1044,"X":"625669.30000000005","Y":"9220800.30000000075","Rotation":90,"NAMOBJ":"Penidon","WADMKC":"Plumpang","WADMKK":"Tuban"},"geometry":{"type":"Point","coordinates":[112.1,-7.0]}},{"type":"Feature","properties":{"Line":"R125","Tr":1045,"X":"625681.80000000005","Y":"9220800.30000000075","Rotation":90,"NAMOBJ":"Penidon","WADMKC":"Plumpang","WADMKK":"Tuban"},"geometry":{"type":"Point","coordinates":[112.1,-7.0]}},{"type":"Feature","properties":{"Line":"R125","Tr":1046,"X":"625694.30000000005","Y":"9220800.30000000075","Rotation":90,"NAMOBJ":"Penidon","WADMKC":"Plumpang","WADMKK":"Tuban"},"geometry":{"type":"Point","coordinates":[112.1,-7.0]}},{"type":"Feature","properties":{"Line":"R125","Tr":1047,"X":"625706.80000000005","Y":"9220800.30000000075","Rotation":90,"NAMOBJ":"Penidon","WADMKC":"Plumpang","WADMKK":"Tuban"},"geometry":{"type":"Point","coordinates":[112.1,-7.0]}},{"type":"Feature","properties":{"Line":"R125","Tr":1048,"X":"625719.30000000005","Y":"9220800.30000000075","Rotation":90,"NAMOBJ":"Penidon","WADMKC":"Plumpang","WADMKK":"Tuban"},"geometry":{"type":"Point","coordinates":[112.1,-7.0]}},{"type":"Feature","properties":{"Line":"R125","Tr":1049,"X":"625731.80000000005","Y":"9220800.30000000075","Rotation":90,"NAMOBJ":"Penidon","WADMKC":"Plumpang","WADMKK":"Tuban"},"geometry":{"type":"Point","coordinates":[112.1,-7.0]}},{"type":"Feature","properties":{"Line":"R125","Tr":1050,"X":"625744.30000000005","Y":"9220800.30000000075","Rotation":90,"NAMOBJ":"Penidon","WADMKC":"Plumpang","WADMKK":"Tuban"},"geometry":{"type":"Point","coordinates":[112.1,-7.0]}},{"type":"Feature","properties":{"Line":"R125","Tr":1051,"X":"625756.80000000005","Y":"9220800.30000000075","Rotation":90,"NAMOBJ":"Penidon","WADMKC":"Plumpang","WADMKK":"Tuban"},"geometry":{"type":"Point","coordinates":[112.1,-7.0]}},{"type":"Feature","properties":{"Line":"R125","Tr":1052,"X":"625769.30000000005","Y":"9220800.30000000075","Rotation":90,"NAMOBJ":"Penidon","WADMKC":"Plumpang","WADMKK":"Tuban"},"geometry":{"type":"Point","coordinates":[112.1,-7.0]}},{"type":"Feature","properties":{"Line":"R125","Tr":1053,"X":"625781.80000000005","Y":"9220800.30000000075","Rotation":90,"NAMOBJ":"Penidon","WADMKC":"Plumpang","WADMKK":"Tuban"},"geometry":{"type":"Point","coordinates":[112.1,-7.0]}},{"type":"Feature","properties":{"Line":"R125","Tr":1054,"X":"625794.30000000005","Y":"9220800.30000000075","Rotation":90,"NAMOBJ":"Penidon","WADMKC":"Plumpang","WADMKK":"Tuban"},"geometry":{"type":"Point","coordinates":[112.1,-7.0]}},{"type":"Feature","properties":{"Line":"R125","Tr":1055,"X":"625806.80000000005","Y":"9220800.30000000075","Rotation":90,"NAMOBJ":"Penidon","WADMKC":"Plumpang","WADMKK":"Tuban"},"geometry":{"type":"Point","coordinates":[112.1,-7.0]}},{"type":"Feature","properties":{"Line":"R125","Tr":1056,"X":"625819.30000000005","Y":"9220800.30000000075","Rotation":90,"NAMOBJ":"Penidon","WADMKC":"Plumpang","WADMKK":"Tuban"},"geometry":{"type":"Point","coordinates":[112.1,-7.0]}},{"type":"Feature","properties":{"Line":"R125","Tr":1057,"X":"625831.80000000005","Y":"9220800.30000000075","Rotation":90,"NAMOBJ":"Penidon","WADMKC":"Plumpang","WADMKK":"Tuban"},"geometry":{"type":"Point","coordinates":[112.1,-7.0]}},{"type":"Feature","properties":{"Line":"R125","Tr":1058,"X":"625844.30000000005","Y":"9220800.30000000075","Rotation":90,"NAMOBJ":"Penidon","WADMKC":"Plumpang","WADMKK":"Tuban"},"geometry":{"type":"Point","coordinates":[112.1,-7.0]}},{"type":"Feature","properties":{"Line":"R125","Tr":1059,"X":"625856.80000000005","Y":"9220800.30000000075","Rotation":90,"NAMOBJ":"Penidon","WADMKC":"Plumpang","WADMKK":"Tuban"},"geometry":{"type":"Point","coordinates":[112.1,-7.0]}},{"type":"Feature","properties":{"Line":"R125","Tr":1060,"X":"625869.30000000005","Y":"9220800.30000000075","Rotation":90,"NAMOBJ":"Penidon","WADMKC":"Plumpang","WADMKK":"Tuban"},"geometry":{"type":"Point","coordinates":[112.1,-7.0]}},{"type":"Feature","properties":{"Line":"R125","Tr":1061,"X":"625881.80000000005","Y":"9220800.30000000075","Rotation":90,"NAMOBJ":"Penidon","WADMKC":"Plumpang","WADMKK":"Tuban"},"geometry":{"type":"Point","coordinates":[112.1,-7.0]}},{"type":"Feature","properties":{"Line":"R125","Tr":1062,"X":"625894.30000000005","Y":"9220800.30000000075","Rotation":90,"NAMOBJ":"Penidon","WADMKC":"Plumpang","WADMKK":"Tuban"},"geometry":{"type":"Point","coordinates":[112.1,-7.0]}},{"type":"Feature","properties":{"Line":"R125","Tr":1063,"X":"625906.80000000005","Y":"9220800.30000000075","Rotation":90,"NAMOBJ":"Penidon","WADMKC":"Plumpang","WADMKK":"Tuban"},"geometry":{"type":"Point","coordinates":[112.1,-7.0]}},{"type":"Feature","properties":{"Line":"R125","Tr":1064,"X":"625919.30000000005","Y":"9220800.30000000075","Rotation":90,"NAMOBJ":"Penidon","WADMKC":"Plumpang","WADMKK":"Tuban"},"geometry":{"type":"Point","coordinates":[112.1,-7.0]}},{"type":"Feature","properties":{"Line":"R125","Tr":1065,"X":"625931.80000000005","Y":"9220800.30000000075","Rotation":90,"NAMOBJ":"Penidon","WADMKC":"Plumpang","WADMKK":"Tuban"},"geometry":{"type":"Point","coordinates":[112.1,-7.0]}},{"type":"Feature","properties":{"Line":"R125","Tr":1066,"X":"625944.30000000005","Y":"9220800.30000000075","Rotation":90,"NAMOBJ":"Penidon","WADMKC":"Plumpang","WADMKK":"Tuban"},"geometry":{"type":"Point","coordinates":[112.1,-7.0]}},{"type":"Feature","properties":{"Line":"R125","Tr":1067,"X":"625956.80000000005","Y":"9220800.30000000075","Rotation":90,"NAMOBJ":"Penidon","WADMKC":"Plumpang","WADMKK":"Tuban"},"geometry":{"type":"Point","coordinates":[112.1,-7.0]}},{"type":"Feature","properties":{"Line":"R125","Tr":1068,"X":"625969.30000000005","Y":"9220800.30000000075","Rotation":90,"NAMOBJ":"Penidon","WADMKC":"Plumpang","WADMKK":"Tuban"},"geometry":{"type":"Point","coordinates":[112.1,-7.0]}},{"type":"Feature","properties":{"Line":"R125","Tr":1069,"X":"625981.80000000005","Y":"9220800.30000000075","Rotation":90,"NAMOBJ":"Penidon","WADMKC":"Plumpang","WADMKK":"Tuban"},"geometry":{"type":"Point","coordinates":[112.1,-7.0]}},{"type":"Feature","properties":{"Line":"R125","Tr":1070,"X":"625994.30000000005","Y":"9220800.30000000075","Rotation":90,"NAMOBJ":"Penidon","WADMKC":"Plumpang","WADMKK":"Tuban"},"geometry":{"type":"Point","coordinates":[112.1,-7.0]}},{"type":"Feature","properties":{"Line":"R125","Tr":1071,"X":"626006.80000000005","Y":"9220800.30000000075","Rotation":90,"NAMOBJ":"Penidon","WADMKC":"Plumpang","WADMKK":"Tuban"},"geometry":{"type":"Point","coordinates":[112.1,-7.0]}},{"type":"Feature","properties":{"Line":"R125","Tr":1072,"X":"626019.30000000005","Y":"9220800.30000000075","Rotation":90,"NAMOBJ":"Penidon","WADMKC":"Plumpang","WADMKK":"Tuban"},"geometry":{"type":"Point","coordinates":[112.1,-7.0]}},{"type":"Feature","properties":{"Line":"R125","Tr":1073,"X":"626031.80000000005","Y":"9220800.30000000075","Rotation":90,"NAMOBJ":"Penidon","WADMKC":"Plumpang","WADMKK":"Tuban"},"geometry":{"type":"Point","coordinates":[112.1,-7.0]}},{"type":"Feature","properties":{"Line":"R125","Tr":1074,"X":"626044.30000000005","Y":"9220800.30000000075","Rotation":90,"NAMOBJ":"Penidon","WADMKC":"Plumpang","WADMKK":"Tuban"},"geometry":{"type":"Point","coordinates":[112.1,-7.0]}},{"type":"Feature","properties":{"Line":"R125","Tr":1075,"X":"626056.80000000005","Y":"9220800.30000000075","Rotation":90,"NAMOBJ":"Penidon","WADMKC":"Plumpang","WADMKK":"Tuban"},"geometry":{"type":"Point","coordinates":[112.1,-7.0]}},{"type":"Feature","properties":{"Line":"R125","Tr":1076,"X":"626069.30000000005","Y":"9220800.30000000075","Rotation":90,"NAMOBJ":"Penidon","WADMKC":"Plumpang","WADMKK":"Tuban"},"geometry":{"type":"Point","coordinates":[112.1,-7.0]}},{"type":"Feature","properties":{"Line":"R125","Tr":1077,"X":"626081.80000000005","Y":"9220800.30000000075","Rotation":90,"NAMOBJ":"Penidon","WADMKC":"Plumpang","WADMKK":"Tuban"},"geometry":{"type":"Point","coordinates":[112.1,-7.0]}},{"type":"Feature","properties":{"Line":"R125","Tr":1078,"X":"626094.30000000005","Y":"9220800.30000000075","Rotation":90,"NAMOBJ":"Penidon","WADMKC":"Plumpang","WADMKK":"Tuban"},"geometry":{"type":"Point","coordinates":[112.1,-7.0]}},{"type":"Feature","properties":{"Line":"R125","Tr":1079,"X":"626106.80000000005","Y":"9220800.30000000075","Rotation":90,"NAMOBJ":"Penidon","WADMKC":"Plumpang","WADMKK":"Tuban"},"geometry":{"type":"Point","coordinates":[112.1,-7.0]}},{"type":"Feature","properties":{"Line":"R125","Tr":1080,"X":"626119.30000000005","Y":"9220800.30000000075","Rotation":90,"NAMOBJ":"Penidon","WADMKC":"Plumpang","WADMKK":"Tuban"},"geometry":{"type":"Point","coordinates":[112.1,-7.0]}},{"type":"Feature","properties":{"Line":"R125","Tr":1081,"X":"626131.80000000005","Y":"9220800.30000000075","Rotation":90,"NAMOBJ":"Penidon","WADMKC":"Plumpang","WADMKK":"Tuban"},"geometry":{"type":"Point","coordinates":[112.1,-7.0]}},{"type":"Feature","properties":{"Line":"R125","Tr":1082,"X":"626144.30000000005","Y":"9220800.30000000075","Rotation":90,"NAMOBJ":"Penidon","WADMKC":"Plumpang","WADMKK":"Tuban"},"geometry":{"type":"Point","coordinates":[112.1,-7.0]}},{"type":"Feature","properties":{"Line":"R125","Tr":1083,"X":"626156.80000000005","Y":"9220800.30000000075","Rotation":90,"NAMOBJ":"Penidon","WADMKC":"Plumpang","WADMKK":"Tuban"},"geometry":{"type":"Point","coordinates":[112.1,-7.0]}},{"type":"Feature","properties":{"Line":"R125","Tr":1084,"X":"626169.30000000005","Y":"9220800.30000000075","Rotation":90,"NAMOBJ":"Penidon","WADMKC":"Plumpang","WADMKK":"Tuban"},"geometry":{"type":"Point","coordinates":[112.1,-7.0]}},{"type":"Feature","properties":{"Line":"R125","Tr":1085,"X":"626181.80000000005","Y":"9220800.30000000075","Rotation":90,"NAMOBJ":"Penidon","WADMKC":"Plumpang","WADMKK":"Tuban"},"geometry":{"type":"Point","coordinates":[112.1,-7.0]}},{"type":"Feature","properties":{"Line":"R125","Tr":1086,"X":"626194.30000000005","Y":"9220800.30000000075","Rotation":90,"NAMOBJ":"Penidon","WADMKC":"Plumpang","WADMKK":"Tuban"},"geometry":{"type":"Point","coordinates":[112.1,-7.0]}},{"type":"Feature","properties":{"Line":"R125","Tr":1087,"X":"626206.80000000005","Y":"9220800.30000000075","Rotation":90,"NAMOBJ":"Penidon","WADMKC":"Plumpang","WADMKK":"Tuban"},"geometry":{"type":"Point","coordinates":[112.1,-7.0]}},{"type":"Feature","properties":{"Line":"R125","Tr":1088,"X":"626219.30000000005","Y":"9220800.30000000075","Rotation":90,"NAMOBJ":"Penidon","WADMKC":"Plumpang","WADMKK":"Tuban"},"geometry":{"type":"Point","coordinates":[112.1,-7.0]}},{"type":"Feature","properties":{"Line":"R125","Tr":1089,"X":"626231.80000000005","Y":"9220800.30000000075","Rotation":90,"NAMOBJ":"Penidon","WADMKC":"Plumpang","WADMKK":"Tuban"},"geometry":{"type":"Point","coordinates":[112.1,-7.0]}},{"type":"Feature","properties":{"Line":"R125","Tr":1090,"X":"626244.30000000005","Y":"9220800.30000000075","Rotation":90,"NAMOBJ":"Penidon","WADMKC":"Plumpang","WADMKK":"Tuban"},"geometry":{"type":"Point","coordinates":[112.1,-7.0]}},{"type":"Feature","properties":{"Line":"R125","Tr":1091,"X":"626256.80000000005","Y":"9220800.30000000075","Rotation":90,"NAMOBJ":"Penidon","WADMKC":"Plumpang","WADMKK":"Tuban"},"geometry":{"type":"Point","coordinates":[112.1,-7.0]}},{"type":"Feature","properties":{"Line":"R125","Tr":1092,"X":"626269.30000000005","Y":"9220800.30000000075","Rotation":90,"NAMOBJ":"Penidon","WADMKC":"Plumpang","WADMKK":"Tuban"},"geometry":{"type":"Point","coordinates":[112.1,-7.0]}},{"type":"Feature","properties":{"Line":"R125","Tr":1093,"X":"626281.80000000005","Y":"9220800.30000000075","Rotation":90,"NAMOBJ":"Penidon","WADMKC":"Plumpang","WADMKK":"Tuban"},"geometry":{"type":"Point","coordinates":[112.1,-7.0]}},{"type":"Feature","properties":{"Line":"R125","Tr":1094,"X":"626294.30000000005","Y":"9220800.30000000075","Rotation":90,"NAMOBJ":"Penidon","WADMKC":"Plumpang","WADMKK":"Tuban"},"geometry":{"type":"Point","coordinates":[112.1,-7.0]}},{"type":"Feature","properties":{"Line":"R125","Tr":1095,"X":"626306.80000000005","Y":"9220800.30000000075","Rotation":90,"NAMOBJ":"Penidon","WADMKC":"Plumpang","WADMKK":"Tuban"},"geometry":{"type":"Point","coordinates":[112.1,-7.0]}},{"type":"Feature","properties":{"Line":"R125","Tr":1096,"X":"626319.30000000005","Y":"9220800.30000000075","Rotation":90,"NAMOBJ":"Penidon","WADMKC":"Plumpang","WADMKK":"Tuban"},"geometry":{"type":"Point","coordinates":[112.1,-7.0]}},{"type":"Feature","properties":{"Line":"R125","Tr":1097,"X":"626331.80000000005","Y":"9220800.30000000075","Rotation":90,"NAMOBJ":"Penidon","WADMKC":"Plumpang","WADMKK":"Tuban"},"geometry":{"type":"Point","coordinates":[112.1,-7.0]}},{"type":"Feature","properties":{"Line":"R125","Tr":1098,"X":"626344.30000000005","Y":"9220800.30000000075","Rotation":90,"NAMOBJ":"Penidon","WADMKC":"Plumpang","WADMKK":"Tuban"},"geometry":{"type":"Point","coordinates":[112.1,-7.0]}},{"type":"Feature","properties":{"Line":"R125","Tr":1099,"X":"626356.80000000005","Y":"9220800.30000000075","Rotation":90,"NAMOBJ":"Penidon","WADMKC":"Plumpang","WADMKK":"Tuban"},"geometry":{"type":"Point","coordinates":[112.1,-7.0]}},{"type":"Feature","properties":{"Line":"R125","Tr":1100,"X":"626369.30000000005","Y":"9220800.30000000075","Rotation":90,"NAMOBJ":"Penidon","WADMKC":"Plumpang","WADMKK":"Tuban"},"geometry":{"type":"Point","coordinates":[112.1,-7.0]}},{"type":"Feature","properties":{"Line":"R125","Tr":1101,"X":"626381.80000000005","Y":"9220800.30000000075","Rotation":90,"NAMOBJ":"Penidon","WADMKC":"Plumpang","WADMKK":"Tuban"},"geometry":{"type":"Point","coordinates":[112.1,-7.0]}},{"type":"Feature","properties":{"Line":"R125","Tr":1102,"X":"626394.30000000005","Y":"9220800.30000000075","Rotation":90,"NAMOBJ":"Penidon","WADMKC":"Plumpang","WADMKK":"Tuban"},"geometry":{"type":"Point","coordinates":[112.1,-7.0]}},{"type":"Feature","properties":{"Line":"R125","Tr":1103,"X":"626406.80000000005","Y":"9220800.30000000075","Rotation":90,"NAMOBJ":"Penidon","WADMKC":"Plumpang","WADMKK":"Tuban"},"geometry":{"type":"Point","coordinates":[112.1,-7.0]}},{"type":"Feature","properties":{"Line":"R125","Tr":1104,"X":"626419.30000000005","Y":"9220800.30000000075","Rotation":90,"NAMOBJ":"Penidon","WADMKC":"Plumpang","WADMKK":"Tuban"},"geometry":{"type":"Point","coordinates":[112.1,-7.0]}},{"type":"Feature","properties":{"Line":"R125","Tr":1105,"X":"626431.80000000005","Y":"9220800.30000000075","Rotation":90,"NAMOBJ":"Penidon","WADMKC":"Plumpang","WADMKK":"Tuban"},"geometry":{"type":"Point","coordinates":[112.1,-7.0]}},{"type":"Feature","properties":{"Line":"R125","Tr":1106,"X":"626444.30000000005","Y":"9220800.30000000075","Rotation":90,"NAMOBJ":"Penidon","WADMKC":"Plumpang","WADMKK":"Tuban"},"geometry":{"type":"Point","coordinates":[112.1,-7.0]}},{"type":"Feature","properties":{"Line":"R125","Tr":1107,"X":"626456.80000000005","Y":"9220800.30000000075","Rotation":90,"NAMOBJ":"Penidon","WADMKC":"Plumpang","WADMKK":"Tuban"},"geometry":{"type":"Point","coordinates":[112.1,-7.0]}},{"type":"Feature","properties":{"Line":"R125","Tr":1108,"X":"626469.30000000005","Y":"9220800.30000000075","Rotation":90,"NAMOBJ":"Penidon","WADMKC":"Plumpang","WADMKK":"Tuban"},"geometry":{"type":"Point","coordinates":[112.1,-7.0]}},{"type":"Feature","properties":{"Line":"R125","Tr":1109,"X":"626481.80000000005","Y":"9220800.30000000075","Rotation":90,"NAMOBJ":"Penidon","WADMKC":"Plumpang","WADMKK":"Tuban"},"geometry":{"type":"Point","coordinates":[112.1,-7.0]}},{"type":"Feature","properties":{"Line":"R125","Tr":1110,"X":"626494.30000000005","Y":"9220800.30000000075","Rotation":90,"NAMOBJ":"Penidon","WADMKC":"Plumpang","WADMKK":"Tuban"},"geometry":{"type":"Point","coordinates":[112.1,-7.0]}},{"type":"Feature","properties":{"Line":"R125","Tr":1111,"X":"626506.80000000005","Y":"9220800.30000000075","Rotation":90,"NAMOBJ":"Penidon","WADMKC":"Plumpang","WADMKK":"Tuban"},"geometry":{"type":"Point","coordinates":[112.1,-7.0]}},{"type":"Feature","properties":{"Line":"R125","Tr":1112,"X":"626519.30000000005","Y":"9220800.30000000075","Rotation":90,"NAMOBJ":"Penidon","WADMKC":"Plumpang","WADMKK":"Tuban"},"geometry":{"type":"Point","coordinates":[112.1,-7.0]}},{"type":"Feature","properties":{"Line":"R125","Tr":1113,"X":"626531.80000000005","Y":"9220800.30000000075","Rotation":90,"NAMOBJ":"Penidon","WADMKC":"Plumpang","WADMKK":"Tuban"},"geometry":{"type":"Point","coordinates":[112.1,-7.0]}},{"type":"Feature","properties":{"Line":"R125","Tr":1114,"X":"626544.30000000005","Y":"9220800.30000000075","Rotation":90,"NAMOBJ":"Penidon","WADMKC":"Plumpang","WADMKK":"Tuban"},"geometry":{"type":"Point","coordinates":[112.1,-7.0]}},{"type":"Feature","properties":{"Line":"R125","Tr":1115,"X":"626556.80000000005","Y":"9220800.30000000075","Rotation":90,"NAMOBJ":"Penidon","WADMKC":"Plumpang","WADMKK":"Tuban"},"geometry":{"type":"Point","coordinates":[112.1,-7.0]}},{"type":"Feature","properties":{"Line":"R125","Tr":1116,"X":"626569.30000000005","Y":"9220800.30000000075","Rotation":90,"NAMOBJ":"Penidon","WADMKC":"Plumpang","WADMKK":"Tuban"},"geometry":{"type":"Point","coordinates":[112.1,-7.0]}},{"type":"Feature","properties":{"Line":"R125","Tr":1117,"X":"626581.80000000005","Y":"9220800.30000000075","Rotation":90,"NAMOBJ":"Penidon","WADMKC":"Plumpang","WADMKK":"Tuban"},"geometry":{"type":"Point","coordinates":[112.1,-7.0]}},{"type":"Feature","properties":{"Line":"R125","Tr":1118,"X":"626594.30000000005","Y":"9220800.30000000075","Rotation":90,"NAMOBJ":"Penidon","WADMKC":"Plumpang","WADMKK":"Tuban"},"geometry":{"type":"Point","coordinates":[112.1,-7.0]}},{"type":"Feature","properties":{"Line":"R125","Tr":1119,"X":"626606.80000000005","Y":"9220800.30000000075","Rotation":90,"NAMOBJ":"Penidon","WADMKC":"Plumpang","WADMKK":"Tuban"},"geometry":{"type":"Point","coordinates":[112.1,-7.0]}},{"type":"Feature","properties":{"Line":"R125","Tr":1120,"X":"626619.30000000005","Y":"9220800.30000000075","Rotation":90,"NAMOBJ":"Penidon","WADMKC":"Plumpang","WADMKK":"Tuban"},"geometry":{"type":"Point","coordinates":[112.1,-7.0]}},{"type":"Feature","properties":{"Line":"R125","Tr":1121,"X":"626631.80000000005","Y":"9220800.30000000075","Rotation":90,"NAMOBJ":"Penidon","WADMKC":"Plumpang","WADMKK":"Tuban"},"geometry":{"type":"Point","coordinates":[112.1,-7.0]}},{"type":"Feature","properties":{"Line":"R125","Tr":1122,"X":"626644.30000000005","Y":"9220800.30000000075","Rotation":90,"NAMOBJ":"Penidon","WADMKC":"Plumpang","WADMKK":"Tuban"},"geometry":{"type":"Point","coordinates":[112.1,-7.0]}},{"type":"Feature","properties":{"Line":"R125","Tr":1123,"X":"626656.80000000005","Y":"9220800.30000000075","Rotation":90,"NAMOBJ":"Penidon","WADMKC":"Plumpang","WADMKK":"Tuban"},"geometry":{"type":"Point","coordinates":[112.1,-7.0]}},{"type":"Feature","properties":{"Line":"R125","Tr":1124,"X":"626669.30000000005","Y":"9220800.30000000075","Rotation":90,"NAMOBJ":"Penidon","WADMKC":"Plumpang","WADMKK":"Tuban"},"geometry":{"type":"Point","coordinates":[112.1,-7.0]}},{"type":"Feature","properties":{"Line":"R125","Tr":1125,"X":"626681.80000000005","Y":"9220800.30000000075","Rotation":90,"NAMOBJ":"Penidon","WADMKC":"Plumpang","WADMKK":"Tuban"},"geometry":{"type":"Point","coordinates":[112.1,-7.0]}},{"type":"Feature","properties":{"Line":"R125","Tr":1126,"X":"626694.30000000005","Y":"9220800.30000000075","Rotation":90,"NAMOBJ":"Penidon","WADMKC":"Plumpang","WADMKK":"Tuban"},"geometry":{"type":"Point","coordinates":[112.1,-7.0]}},{"type":"Feature","properties":{"Line":"R125","Tr":1127,"X":"626706.80000000005","Y":"9220800.30000000075","Rotation":90,"NAMOBJ":"Penidon","WADMKC":"Plumpang","WADMKK":"Tuban"},"geometry":{"type":"Point","coordinates":[112.1,-7.0]}},{"type":"Feature","properties":{"Line":"R125","Tr":1128,"X":"626719.30000000005","Y":"9220800.30000000075","Rotation":90,"NAMOBJ":"Penidon","WADMKC":"Plumpang","WADMKK":"Tuban"},"geometry":{"type":"Point","coordinates":[112.1,-7.0]}},{"type":"Feature","properties":{"Line":"R125","Tr":1129,"X":"626731.80000000005","Y":"9220800.30000000075","Rotation":90,"NAMOBJ":"Penidon","WADMKC":"Plumpang","WADMKK":"Tuban"},"geometry":{"type":"Point","coordinates":[112.1,-7.0]}},{"type":"Feature","properties":{"Line":"R125","Tr":1130,"X":"626744.30000000005","Y":"9220800.30000000075","Rotation":90,"NAMOBJ":"Penidon","WADMKC":"Plumpang","WADMKK":"Tuban"},"geometry":{"type":"Point","coordinates":[112.1,-7.0]}},{"type":"Feature","properties":{"Line":"R125","Tr":1131,"X":"626756.80000000005","Y":"9220800.30000000075","Rotation":90,"NAMOBJ":"Penidon","WADMKC":"Plumpang","WADMKK":"Tuban"},"geometry":{"type":"Point","coordinates":[112.1,-7.0]}},{"type":"Feature","properties":{"Line":"R125","Tr":1132,"X":"626769.30000000005","Y":"9220800.30000000075","Rotation":90,"NAMOBJ":"Penidon","WADMKC":"Plumpang","WADMKK":"Tuban"},"geometry":{"type":"Point","coordinates":[112.1,-7.0]}},{"type":"Feature","properties":{"Line":"R125","Tr":1133,"X":"626781.80000000005","Y":"9220800.30000000075","Rotation":90,"NAMOBJ":"Penidon","WADMKC":"Plumpang","WADMKK":"Tuban"},"geometry":{"type":"Point","coordinates":[112.1,-7.0]}},{"type":"Feature","properties":{"Line":"R125","Tr":1134,"X":"626794.30000000005","Y":"9220800.30000000075","Rotation":90,"NAMOBJ":"Penidon","WADMKC":"Plumpang","WADMKK":"Tuban"},"geometry":{"type":"Point","coordinates":[112.1,-7.0]}},{"type":"Feature","properties":{"Line":"R125","Tr":1135,"X":"626806.80000000005","Y":"9220800.30000000075","Rotation":90,"NAMOBJ":"Penidon","WADMKC":"Plumpang","WADMKK":"Tuban"},"geometry":{"type":"Point","coordinates":[112.1,-7.0]}},{"type":"Feature","properties":{"Line":"R125","Tr":1136,"X":"626819.30000000005","Y":"9220800.30000000075","Rotation":90,"NAMOBJ":"Penidon","WADMKC":"Plumpang","WADMKK":"Tuban"},"geometry":{"type":"Point","coordinates":[112.1,-7.0]}},{"type":"Feature","properties":{"Line":"R125","Tr":1137,"X":"626831.80000000005","Y":"9220800.30000000075","Rotation":90,"NAMOBJ":"Penidon","WADMKC":"Plumpang","WADMKK":"Tuban"},"geometry":{"type":"Point","coordinates":[112.1,-7.0]}},{"type":"Feature","properties":{"Line":"R125","Tr":1138,"X":"626844.30000000005","Y":"9220800.30000000075","Rotation":90,"NAMOBJ":"Penidon","WADMKC":"Plumpang","WADMKK":"Tuban"},"geometry":{"type":"Point","coordinates":[112.1,-7.0]}},{"type":"Feature","properties":{"Line":"R125","Tr":1139,"X":"626856.80000000005","Y":"9220800.30000000075","Rotation":90,"NAMOBJ":"Penidon","WADMKC":"Plumpang","WADMKK":"Tuban"},"geometry":{"type":"Point","coordinates":[112.1,-7.0]}},{"type":"Feature","properties":{"Line":"R125","Tr":1140,"X":"626869.30000000005","Y":"9220800.30000000075","Rotation":90,"NAMOBJ":"Penidon","WADMKC":"Plumpang","WADMKK":"Tuban"},"geometry":{"type":"Point","coordinates":[112.1,-7.0]}},{"type":"Feature","properties":{"Line":"R125","Tr":1141,"X":"626881.80000000005","Y":"9220800.30000000075","Rotation":90,"NAMOBJ":"Penidon","WADMKC":"Plumpang","WADMKK":"Tuban"},"geometry":{"type":"Point","coordinates":[112.1,-7.0]}},{"type":"Feature","properties":{"Line":"R125","Tr":1142,"X":"626894.30000000005","Y":"9220800.30000000075","Rotation":90,"NAMOBJ":"Penidon","WADMKC":"Plumpang","WADMKK":"Tuban"},"geometry":{"type":"Point","coordinates":[112.1,-7.0]}},{"type":"Feature","properties":{"Line":"R125","Tr":1143,"X":"626906.80000000005","Y":"9220800.30000000075","Rotation":90,"NAMOBJ":"Penidon","WADMKC":"Plumpang","WADMKK":"Tuban"},"geometry":{"type":"Point","coordinates":[112.1,-7.0]}},{"type":"Feature","properties":{"Line":"R125","Tr":1144,"X":"626919.30000000005","Y":"9220800.30000000075","Rotation":90,"NAMOBJ":"Penidon","WADMKC":"Plumpang","WADMKK":"Tuban"},"geometry":{"type":"Point","coordinates":[112.1,-7.0]}},{"type":"Feature","properties":{"Line":"R125","Tr":1145,"X":"626931.80000000005","Y":"9220800.30000000075","Rotation":90,"NAMOBJ":"Penidon","WADMKC":"Plumpang","WADMKK":"Tuban"},"geometry":{"type":"Point","coordinates":[112.1,-7.0]}},{"type":"Feature","properties":{"Line":"R125","Tr":1146,"X":"626944.30000000005","Y":"9220800.30000000075","Rotation":90,"NAMOBJ":"Penidon","WADMKC":"Plumpang","WADMKK":"Tuban"},"geometry":{"type":"Point","coordinates":[112.1,-7.0]}},{"type":"Feature","properties":{"Line":"R125","Tr":1147,"X":"626956.80000000005","Y":"9220800.30000000075","Rotation":90,"NAMOBJ":"Penidon","WADMKC":"Plumpang","WADMKK":"Tuban"},"geometry":{"type":"Point","coordinates":[112.1,-7.0]}},{"type":"Feature","properties":{"Line":"R125","Tr":1148,"X":"626969.30000000005","Y":"9220800.30000000075","Rotation":90,"NAMOBJ":"Penidon","WADMKC":"Plumpang","WADMKK":"Tuban"},"geometry":{"type":"Point","coordinates":[112.1,-7.0]}},{"type":"Feature","properties":{"Line":"R125","Tr":1149,"X":"626981.80000000005","Y":"9220800.30000000075","Rotation":90,"NAMOBJ":"Penidon","WADMKC":"Plumpang","WADMKK":"Tuban"},"geometry":{"type":"Point","coordinates":[112.1,-7.0]}},{"type":"Feature","properties":{"Line":"R125","Tr":1150,"X":"626994.30000000005","Y":"9220800.30000000075","Rotation":90,"NAMOBJ":"Penidon","WADMKC":"Plumpang","WADMKK":"Tuban"},"geometry":{"type":"Point","coordinates":[112.1,-7.0]}},{"type":"Feature","properties":{"Line":"R125","Tr":1151,"X":"627006.80000000005","Y":"9220800.30000000075","Rotation":90,"NAMOBJ":"Penidon","WADMKC":"Plumpang","WADMKK":"Tuban"},"geometry":{"type":"Point","coordinates":[112.1,-7.0]}}]}