{"type":"FeatureCollection","features":[{"type":"Feature","properties":{"Line":"R110","Tr":3873,"X":"634300.5","Y":"9191419.0","Rotation":0,"NAMOBJ":"Lamongrejo","WADMKC":"Ngimbang","WADMKK":"Lamongan"},"geometry":{"type":"Point","coordinates":[112.21666896,-7.31344595]}},{"type":"Feature","properties":{"Line":"R110","Tr":3874,"X":"634300.5","Y":"9191406.5","Rotation":0,"NAMOBJ":"Lamongrejo","WADMKC":"Ngimbang","WADMKK":"Lamongan"},"geometry":{"type":"Point","coordinates":[112.21666927,-7.313559]}},{"type":"Feature","properties":{"Line":"R110","Tr":3875,"X":"634300.5","Y":"9191394.0","Rotation":0,"NAMOBJ":"Lamongrejo","WADMKC":"Ngimbang","WADMKK":"Lamongan"},"geometry":{"type":"Point","coordinates":[112.21666957,-7.31367205]}},{"type":"Feature","properties":{"Line":"R110","Tr":3876,"X":"634300.5","Y":"9191381.5","Rotation":0,"NAMOBJ":"Lamongrejo","WADMKC":"Ngimbang","WADMKK":"Lamongan"},"geometry":{"type":"Point","coordinates":[112.21666988,-7.31378509]}},{"type":"Feature","properties":{"Line":"R110","Tr":3877,"X":"634300.5","Y":"9191369.0","Rotation":0,"NAMOBJ":"Lamongrejo","WADMKC":"Ngimbang","WADMKK":"Lamongan"},"geometry":{"type":"Point","coordinates":[112.21667019,-7.31389814]}},{"type":"Feature","properties":{"Line":"R110","Tr":3878,"X":"634300.5","Y":"9191356.5","Rotation":0,"NAMOBJ":"Lamongrejo","WADMKC":"Ngimbang","WADMKK":"Lamongan"},"geometry":{"type":"Point","coordinates":[112.21667049,-7.31401119]}},{"type":"Feature","properties":{"Line":"R110","Tr":3879,"X":"634300.5","Y":"9191344.0","Rotation":0,"NAMOBJ":"Lamongrejo","WADMKC":"Ngimbang","WADMKK":"Lamongan"},"geometry":{"type":"Point","coordinates":[112.2166708,-7.31412424]}},{"type":"Feature","properties":{"Line":"R110","Tr":3880,"X":"634300.5","Y":"9191331.5","Rotation":0,"NAMOBJ":"Lamongrejo","WADMKC":"Ngimbang","WADMKK":"Lamongan"},"geometry":{"type":"Point","coordinates":[112.2166711,-7.31423728]}},{"type":"Feature","properties":{"Line":"R110","Tr":3881,"X":"634300.5","Y":"9191319.0","Rotation":0,"NAMOBJ":"Lamongrejo","WADMKC":"Ngimbang","WADMKK":"Lamongan"},"geometry":{"type":"Point","coordinates":[112.21667141,-7.31435033]}},{"type":"Feature","properties":{"Line":"R110","Tr":3882,"X":"634300.5","Y":"9191306.5","Rotation":0,"NAMOBJ":"Lamongrejo","WADMKC":"Ngimbang","WADMKK":"Lamongan"},"geometry":{"type":"Point","coordinates":[112.21667172,-7.31446338]}},{"type":"Feature","properties":{"Line":"R110","Tr":3883,"X":"634300.5","Y":"9191294.0","Rotation":0,"NAMOBJ":"Lamongrejo","WADMKC":"Ngimbang","WADMKK":"Lamongan"},"geometry":{"type":"Point","coordinates":[112.21667202,-7.31457643]}},{"type":"Feature","properties":{"Line":"R110","Tr":3884,"X":"634300.5","Y":"9191281.5","Rotation":0,"NAMOBJ":"Lamongrejo","WADMKC":"Ngimbang","WADMKK":"Lamongan"},"geometry":{"type":"Point","coordinates":[112.21667233,-7.31468947]}},{"type":"Feature","properties":{"Line":"R110","Tr":3911,"X":"634300.5","Y":"9190944.0","Rotation":0,"NAMOBJ":"Lamongrejo","WADMKC":"Ngimbang","WADMKK":"Lamongan"},"geometry":{"type":"Point","coordinates":[112.2166806,-7.31774175]}},{"type":"Feature","properties":{"Line":"R110","Tr":3912,"X":"634300.5","Y":"9190931.5","Rotation":0,"NAMOBJ":"Lamongrejo","WADMKC":"Ngimbang","WADMKK":"Lamongan"},"geometry":{"type":"Point","coordinates":[112.2166809,-7.3178548]}},{"type":"Feature","properties":{"Line":"R110","Tr":3913,"X":"634300.5","Y":"9190919.0","Rotation":0,"NAMOBJ":"Lamongrejo","WADMKC":"Ngimbang","WADMKK":"Lamongan"},"geometry":{"type":"Point","coordinates":[112.21668121,-7.31796785]}},{"type":"Feature","properties":{"Line":"R110","Tr":3914,"X":"634300.5","Y":"9190906.5","Rotation":0,"NAMOBJ":"Lamongrejo","WADMKC":"Ngimbang","WADMKK":"Lamongan"},"geometry":{"type":"Point","coordinates":[112.21668152,-7.31808089]}},{"type":"Feature","properties":{"Line":"R110","Tr":3915,"X":"634300.5","Y":"9190894.0","Rotation":0,"NAMOBJ":"Lamongrejo","WADMKC":"Ngimbang","WADMKK":"Lamongan"},"geometry":{"type":"Point","coordinates":[112.21668182,-7.31819394]}},{"type":"Feature","properties":{"Line":"R110","Tr":3916,"X":"634300.5","Y":"9190881.5","Rotation":0,"NAMOBJ":"Lamongrejo","WADMKC":"Ngimbang","WADMKK":"Lamongan"},"geometry":{"type":"Point","coordinates":[112.21668213,-7.31830699]}},{"type":"Feature","properties":{"Line":"R110","Tr":3917,"X":"634300.5","Y":"9190869.0","Rotation":0,"NAMOBJ":"Lamongrejo","WADMKC":"Ngimbang","WADMKK":"Lamongan"},"geometry":{"type":"Point","coordinates":[112.21668243,-7.31842004]}},{"type":"Feature","properties":{"Line":"R110","Tr":3918,"X":"634300.5","Y":"9190856.5","Rotation":0,"NAMOBJ":"Lamongrejo","WADMKC":"Ngimbang","WADMKK":"Lamongan"},"geometry":{"type":"Point","coordinates":[112.21668274,-7.31853308]}},{"type":"Feature","properties":{"Line":"R110","Tr":3919,"X":"634300.5","Y":"9190844.0","Rotation":0,"NAMOBJ":"Lamongrejo","WADMKC":"Ngimbang","WADMKK":"Lamongan"},"geometry":{"type":"Point","coordinates":[112.21668305,-7.31864613]}},{"type":"Feature","properties":{"Line":"R110","Tr":3920,"X":"634300.5","Y":"9190831.5","Rotation":0,"NAMOBJ":"Lamongrejo","WADMKC":"Ngimbang","WADMKK":"Lamongan"},"geometry":{"type":"Point","coordinates":[112.21668335,-7.31875918]}},{"type":"Feature","properties":{"Line":"R110","Tr":3921,"X":"634300.5","Y":"9190819.0","Rotation":0,"NAMOBJ":"Lamongrejo","WADMKC":"Ngimbang","WADMKK":"Lamongan"},"geometry":{"type":"Point","coordinates":[112.21668366,-7.31887223]}},{"type":"Feature","properties":{"Line":"R110","Tr":3922,"X":"634300.5","Y":"9190806.5","Rotation":0,"NAMOBJ":"Lamongrejo","WADMKC":"Ngimbang","WADMKK":"Lamongan"},"geometry":{"type":"Point","coordinates":[112.21668397,-7.31898527]}},{"type":"Feature","properties":{"Line":"R110","Tr":3923,"X":"634300.5","Y":"9190794.0","Rotation":0,"NAMOBJ":"Lamongrejo","WADMKC":"Ngimbang","WADMKK":"Lamongan"},"geometry":{"type":"Point","coordinates":[112.21668427,-7.31909832]}},{"type":"Feature","properties":{"Line":"R110","Tr":3924,"X":"634300.5","Y":"9190781.5","Rotation":0,"NAMOBJ":"Lamongrejo","WADMKC":"Ngimbang","WADMKK":"Lamongan"},"geometry":{"type":"Point","coordinates":[112.21668458,-7.31921137]}},{"type":"Feature","properties":{"Line":"R110","Tr":3925,"X":"634300.5","Y":"9190769.0","Rotation":0,"NAMOBJ":"Lamongrejo","WADMKC":"Ngimbang","WADMKK":"Lamongan"},"geometry":{"type":"Point","coordinates":[112.21668489,-7.31932441]}},{"type":"Feature","properties":{"Line":"R110","Tr":3926,"X":"634300.5","Y":"9190756.5","Rotation":0,"NAMOBJ":"Lamongrejo","WADMKC":"Ngimbang","WADMKK":"Lamongan"},"geometry":{"type":"Point","coordinates":[112.21668519,-7.31943746]}},{"type":"Feature","properties":{"Line":"R110","Tr":3927,"X":"634300.5","Y":"9190744.0","Rotation":0,"NAMOBJ":"Lamongrejo","WADMKC":"Ngimbang","WADMKK":"Lamongan"},"geometry":{"type":"Point","coordinates":[112.2166855,-7.31955051]}},{"type":"Feature","properties":{"Line":"R110","Tr":3928,"X":"634300.5","Y":"9190731.5","Rotation":0,"NAMOBJ":"Lamongrejo","WADMKC":"Ngimbang","WADMKK":"Lamongan"},"geometry":{"type":"Point","coordinates":[112.2166858,-7.31966356]}},{"type":"Feature","properties":{"Line":"R110","Tr":3929,"X":"634300.5","Y":"9190719.0","Rotation":0,"NAMOBJ":"Lamongrejo","WADMKC":"Ngimbang","WADMKK":"Lamongan"},"geometry":{"type":"Point","coordinates":[112.21668611,-7.3197766]}},{"type":"Feature","properties":{"Line":"R110","Tr":3930,"X":"634300.5","Y":"9190706.5","Rotation":0,"NAMOBJ":"Lamongrejo","WADMKC":"Ngimbang","WADMKK":"Lamongan"},"geometry":{"type":"Point","coordinates":[112.21668642,-7.31988965]}},{"type":"Feature","properties":{"Line":"R110","Tr":3931,"X":"634300.5","Y":"9190694.0","Rotation":0,"NAMOBJ":"Lamongrejo","WADMKC":"Ngimbang","WADMKK":"Lamongan"},"geometry":{"type":"Point","coordinates":[112.21668672,-7.3200027]}},{"type":"Feature","properties":{"Line":"R110","Tr":3932,"X":"634300.5","Y":"9190681.5","Rotation":0,"NAMOBJ":"Lamongrejo","WADMKC":"Ngimbang","WADMKK":"Lamongan"},"geometry":{"type":"Point","coordinates":[112.21668703,-7.32011575]}},{"type":"Feature","properties":{"Line":"R110","Tr":3933,"X":"634300.5","Y":"9190669.0","Rotation":0,"NAMOBJ":"Lamongrejo","WADMKC":"Ngimbang","WADMKK":"Lamongan"},"geometry":{"type":"Point","coordinates":[112.21668734,-7.32022879]}},{"type":"Feature","properties":{"Line":"R110","Tr":3934,"X":"634300.5","Y":"9190656.5","Rotation":0,"NAMOBJ":"Lamongrejo","WADMKC":"Ngimbang","WADMKK":"Lamongan"},"geometry":{"type":"Point","coordinates":[112.21668764,-7.32034184]}},{"type":"Feature","properties":{"Line":"R110","Tr":3935,"X":"634300.5","Y":"9190644.0","Rotation":0,"NAMOBJ":"Lamongrejo","WADMKC":"Ngimbang","WADMKK":"Lamongan"},"geometry":{"type":"Point","coordinates":[112.21668795,-7.32045489]}},{"type":"Feature","properties":{"Line":"R110","Tr":3936,"X":"634300.5","Y":"9190631.5","Rotation":0,"NAMOBJ":"Lamongrejo","WADMKC":"Ngimbang","WADMKK":"Lamongan"},"geometry":{"type":"Point","coordinates":[112.21668826,-7.32056794]}},{"type":"Feature","properties":{"Line":"R110","Tr":3937,"X":"634300.5","Y":"9190619.0","Rotation":0,"NAMOBJ":"Lamongrejo","WADMKC":"Ngimbang","WADMKK":"Lamongan"},"geometry":{"type":"Point","coordinates":[112.21668856,-7.32068098]}},{"type":"Feature","properties":{"Line":"R110","Tr":3938,"X":"634300.5","Y":"9190606.5","Rotation":0,"NAMOBJ":"Lamongrejo","WADMKC":"Ngimbang","WADMKK":"Lamongan"},"geometry":{"type":"Point","coordinates":[112.21668887,-7.32079403]}},{"type":"Feature","properties":{"Line":"R110","Tr":3939,"X":"634300.5","Y":"9190594.0","Rotation":0,"NAMOBJ":"Lamongrejo","WADMKC":"Ngimbang","WADMKK":"Lamongan"},"geometry":{"type":"Point","coordinates":[112.21668917,-7.32090708]}},{"type":"Feature","properties":{"Line":"R110","Tr":3940,"X":"634300.5","Y":"9190581.5","Rotation":0,"NAMOBJ":"Lamongrejo","WADMKC":"Ngimbang","WADMKK":"Lamongan"},"geometry":{"type":"Point","coordinates":[112.21668948,-7.32102012]}},{"type":"Feature","properties":{"Line":"R110","Tr":3941,"X":"634300.5","Y":"9190569.0","Rotation":0,"NAMOBJ":"Lamongrejo","WADMKC":"Ngimbang","WADMKK":"Lamongan"},"geometry":{"type":"Point","coordinates":[112.21668979,-7.32113317]}},{"type":"Feature","properties":{"Line":"R110","Tr":3942,"X":"634300.5","Y":"9190556.5","Rotation":0,"NAMOBJ":"Lamongrejo","WADMKC":"Ngimbang","WADMKK":"Lamongan"},"geometry":{"type":"Point","coordinates":[112.21669009,-7.32124622]}},{"type":"Feature","properties":{"Line":"R110","Tr":3943,"X":"634300.5","Y":"9190544.0","Rotation":0,"NAMOBJ":"Lamongrejo","WADMKC":"Ngimbang","WADMKK":"Lamongan"},"geometry":{"type":"Point","coordinates":[112.2166904,-7.32135927]}},{"type":"Feature","properties":{"Line":"R110","Tr":3944,"X":"634300.5","Y":"9190531.5","Rotation":0,"NAMOBJ":"Lamongrejo","WADMKC":"Ngimbang","WADMKK":"Lamongan"},"geometry":{"type":"Point","coordinates":[112.21669071,-7.32147231]}},{"type":"Feature","properties":{"Line":"R110","Tr":3945,"X":"634300.5","Y":"9190519.0","Rotation":0,"NAMOBJ":"Lamongrejo","WADMKC":"Ngimbang","WADMKK":"Lamongan"},"geometry":{"type":"Point","coordinates":[112.21669101,-7.32158536]}},{"type":"Feature","properties":{"Line":"R110","Tr":3946,"X":"634300.5","Y":"9190506.5","Rotation":0,"NAMOBJ":"Lamongrejo","WADMKC":"Ngimbang","WADMKK":"Lamongan"},"geometry":{"type":"Point","coordinates":[112.21669132,-7.32169841]}},{"type":"Feature","properties":{"Line":"R110","Tr":3947,"X":"634300.5","Y":"9190494.0","Rotation":0,"NAMOBJ":"Lamongrejo","WADMKC":"Ngimbang","WADMKK":"Lamongan"},"geometry":{"type":"Point","coordinates":[112.21669163,-7.32181146]}},{"type":"Feature","properties":{"Line":"R110","Tr":3948,"X":"634300.5","Y":"9190481.5","Rotation":0,"NAMOBJ":"Lamongrejo","WADMKC":"Ngimbang","WADMKK":"Lamongan"},"geometry":{"type":"Point","coordinates":[112.21669193,-7.3219245]}},{"type":"Feature","properties":{"Line":"R110","Tr":3949,"X":"634300.5","Y":"9190469.0","Rotation":0,"NAMOBJ":"Lamongrejo","WADMKC":"Ngimbang","WADMKK":"Lamongan"},"geometry":{"type":"Point","coordinates":[112.21669224,-7.32203755]}},{"type":"Feature","properties":{"Line":"R110","Tr":3950,"X":"634300.5","Y":"9190456.5","Rotation":0,"NAMOBJ":"Lamongrejo","WADMKC":"Ngimbang","WADMKK":"Lamongan"},"geometry":{"type":"Point","coordinates":[112.21669255,-7.3221506]}},{"type":"Feature","properties":{"Line":"R110","Tr":3951,"X":"634300.5","Y":"9190444.0","Rotation":0,"NAMOBJ":"Lamongrejo","WADMKC":"Ngimbang","WADMKK":"Lamongan"},"geometry":{"type":"Point","coordinates":[112.21669285,-7.32226365]}},{"type":"Feature","properties":{"Line":"R110","Tr":3952,"X":"634300.5","Y":"9190431.5","Rotation":0,"NAMOBJ":"Lamongrejo","WADMKC":"Ngimbang","WADMKK":"Lamongan"},"geometry":{"type":"Point","coordinates":[112.21669316,-7.32237669]}},{"type":"Feature","properties":{"Line":"R110","Tr":3953,"X":"634300.5","Y":"9190419.0","Rotation":0,"NAMOBJ":"Lamongrejo","WADMKC":"Ngimbang","WADMKK":"Lamongan"},"geometry":{"type":"Point","coordinates":[112.21669347,-7.32248974]}},{"type":"Feature","properties":{"Line":"R110","Tr":3954,"X":"634300.5","Y":"9190406.5","Rotation":0,"NAMOBJ":"Lamongrejo","WADMKC":"Ngimbang","WADMKK":"Lamongan"},"geometry":{"type":"Point","coordinates":[112.21669377,-7.32260279]}},{"type":"Feature","properties":{"Line":"R110","Tr":3955,"X":"634300.5","Y":"9190394.0","Rotation":0,"NAMOBJ":"Lamongrejo","WADMKC":"Ngimbang","WADMKK":"Lamongan"},"geometry":{"type":"Point","coordinates":[112.21669408,-7.32271583]}},{"type":"Feature","properties":{"Line":"R110","Tr":3956,"X":"634300.5","Y":"9190381.5","Rotation":0,"NAMOBJ":"Lamongrejo","WADMKC":"Ngimbang","WADMKK":"Lamongan"},"geometry":{"type":"Point","coordinates":[112.21669438,-7.32282888]}},{"type":"Feature","properties":{"Line":"R110","Tr":3957,"X":"634300.5","Y":"9190369.0","Rotation":0,"NAMOBJ":"Lamongrejo","WADMKC":"Ngimbang","WADMKK":"Lamongan"},"geometry":{"type":"Point","coordinates":[112.21669469,-7.32294193]}},{"type":"Feature","properties":{"Line":"R110","Tr":3958,"X":"634300.5","Y":"9190356.5","Rotation":0,"NAMOBJ":"Lamongrejo","WADMKC":"Ngimbang","WADMKK":"Lamongan"},"geometry":{"type":"Point","coordinates":[112.216695,-7.32305498]}},{"type":"Feature","properties":{"Line":"R110","Tr":3959,"X":"634300.5","Y":"9190344.0","Rotation":0,"NAMOBJ":"Lamongrejo","WADMKC":"Ngimbang","WADMKK":"Lamongan"},"geometry":{"type":"Point","coordinates":[112.2166953,-7.32316802]}},{"type":"Feature","properties":{"Line":"R110","Tr":3960,"X":"634300.5","Y":"9190331.5","Rotation":0,"NAMOBJ":"Lamongrejo","WADMKC":"Ngimbang","WADMKK":"Lamongan"},"geometry":{"type":"Point","coordinates":[112.21669561,-7.32328107]}},{"type":"Feature","properties":{"Line":"R110","Tr":3961,"X":"634300.5","Y":"9190319.0","Rotation":0,"NAMOBJ":"Lamongrejo","WADMKC":"Ngimbang","WADMKK":"Lamongan"},"geometry":{"type":"Point","coordinates":[112.21669592,-7.32339412]}},{"type":"Feature","properties":{"Line":"R110","Tr":3962,"X":"634300.5","Y":"9190306.5","Rotation":0,"NAMOBJ":"Lamongrejo","WADMKC":"Ngimbang","WADMKK":"Lamongan"},"geometry":{"type":"Point","coordinates":[112.21669622,-7.32350717]}},{"type":"Feature","properties":{"Line":"R110","Tr":3963,"X":"634300.5","Y":"9190294.0","Rotation":0,"NAMOBJ":"Lamongrejo","WADMKC":"Ngimbang","WADMKK":"Lamongan"},"geometry":{"type":"Point","coordinates":[112.21669653,-7.32362021]}},{"type":"Feature","properties":{"Line":"R110","Tr":3964,"X":"634300.5","Y":"9190281.5","Rotation":0,"NAMOBJ":"Lamongrejo","WADMKC":"Ngimbang","WADMKK":"Lamongan"},"geometry":{"type":"Point","coordinates":[112.21669684,-7.32373326]}},{"type":"Feature","properties":{"Line":"R110","Tr":3965,"X":"634300.5","Y":"9190269.0","Rotation":0,"NAMOBJ":"Lamongrejo","WADMKC":"Ngimbang","WADMKK":"Lamongan"},"geometry":{"type":"Point","coordinates":[112.21669714,-7.32384631]}},{"type":"Feature","properties":{"Line":"R110","Tr":3966,"X":"634300.5","Y":"9190256.5","Rotation":0,"NAMOBJ":"Lamongrejo","WADMKC":"Ngimbang","WADMKK":"Lamongan"},"geometry":{"type":"Point","coordinates":[112.21669745,-7.32395935]}},{"type":"Feature","properties":{"Line":"R110","Tr":3967,"X":"634300.5","Y":"9190244.0","Rotation":0,"NAMOBJ":"Lamongrejo","WADMKC":"Ngimbang","WADMKK":"Lamongan"},"geometry":{"type":"Point","coordinates":[112.21669776,-7.3240724]}},{"type":"Feature","properties":{"Line":"R110","Tr":3968,"X":"634300.5","Y":"9190231.5","Rotation":0,"NAMOBJ":"Lamongrejo","WADMKC":"Ngimbang","WADMKK":"Lamongan"},"geometry":{"type":"Point","coordinates":[112.21669806,-7.32418545]}},{"type":"Feature","properties":{"Line":"R110","Tr":3969,"X":"634300.5","Y":"9190219.0","Rotation":0,"NAMOBJ":"Lamongrejo","WADMKC":"Ngimbang","WADMKK":"Lamongan"},"geometry":{"type":"Point","coordinates":[112.21669837,-7.3242985]}},{"type":"Feature","properties":{"Line":"R110","Tr":3970,"X":"634300.5","Y":"9190206.5","Rotation":0,"NAMOBJ":"Lamongrejo","WADMKC":"Ngimbang","WADMKK":"Lamongan"},"geometry":{"type":"Point","coordinates":[112.21669868,-7.32441154]}},{"type":"Feature","properties":{"Line":"R110","Tr":3971,"X":"634300.5","Y":"9190194.0","Rotation":0,"NAMOBJ":"Lamongrejo","WADMKC":"Ngimbang","WADMKK":"Lamongan"},"geometry":{"type":"Point","coordinates":[112.21669898,-7.32452459]}},{"type":"Feature","properties":{"Line":"R110","Tr":3972,"X":"634300.5","Y":"9190181.5","Rotation":0,"NAMOBJ":"Lamongrejo","WADMKC":"Ngimbang","WADMKK":"Lamongan"},"geometry":{"type":"Point","coordinates":[112.21669929,-7.32463764]}},{"type":"Feature","properties":{"Line":"R110","Tr":3973,"X":"634300.5","Y":"9190169.0","Rotation":0,"NAMOBJ":"Lamongrejo","WADMKC":"Ngimbang","WADMKK":"Lamongan"},"geometry":{"type":"Point","coordinates":[112.2166996,-7.32475069]}},{"type":"Feature","properties":{"Line":"R110","Tr":3974,"X":"634300.5","Y":"9190156.5","Rotation":0,"NAMOBJ":"Lamongrejo","WADMKC":"Ngimbang","WADMKK":"Lamongan"},"geometry":{"type":"Point","coordinates":[112.2166999,-7.32486373]}},{"type":"Feature","properties":{"Line":"R110","Tr":3975,"X":"634300.5","Y":"9190144.0","Rotation":0,"NAMOBJ":"Lamongrejo","WADMKC":"Ngimbang","WADMKK":"Lamongan"},"geometry":{"type":"Point","coordinates":[112.21670021,-7.32497678]}},{"type":"Feature","properties":{"Line":"R110","Tr":3976,"X":"634300.5","Y":"9190131.5","Rotation":0,"NAMOBJ":"Lamongrejo","WADMKC":"Ngimbang","WADMKK":"Lamongan"},"geometry":{"type":"Point","coordinates":[112.21670052,-7.32508983]}},{"type":"Feature","properties":{"Line":"R110","Tr":3795,"X":"634300.5","Y":"9192394.0","Rotation":0,"NAMOBJ":"Munungrejo","WADMKC":"Ngimbang","WADMKK":"Lamongan"},"geometry":{"type":"Point","coordinates":[112.2166451,-7.30462826]}},{"type":"Feature","properties":{"Line":"R110","Tr":3796,"X":"634300.5","Y":"9192381.5","Rotation":0,"NAMOBJ":"Munungrejo","WADMKC":"Ngimbang","WADMKK":"Lamongan"},"geometry":{"type":"Point","coordinates":[112.21664541,-7.3047413]}},{"type":"Feature","properties":{"Line":"R110","Tr":3797,"X":"634300.5","Y":"9192369.0","Rotation":0,"NAMOBJ":"Munungrejo","WADMKC":"Ngimbang","WADMKK":"Lamongan"},"geometry":{"type":"Point","coordinates":[112.21664571,-7.30485435]}},{"type":"Feature","properties":{"Line":"R110","Tr":3798,"X":"634300.5","Y":"9192356.5","Rotation":0,"NAMOBJ":"Munungrejo","WADMKC":"Ngimbang","WADMKK":"Lamongan"},"geometry":{"type":"Point","coordinates":[112.21664602,-7.3049674]}},{"type":"Feature","properties":{"Line":"R110","Tr":3799,"X":"634300.5","Y":"9192344.0","Rotation":0,"NAMOBJ":"Munungrejo","WADMKC":"Ngimbang","WADMKK":"Lamongan"},"geometry":{"type":"Point","coordinates":[112.21664632,-7.30508045]}},{"type":"Feature","properties":{"Line":"R110","Tr":3800,"X":"634300.5","Y":"9192331.5","Rotation":0,"NAMOBJ":"Munungrejo","WADMKC":"Ngimbang","WADMKK":"Lamongan"},"geometry":{"type":"Point","coordinates":[112.21664663,-7.30519349]}},{"type":"Feature","properties":{"Line":"R110","Tr":3801,"X":"634300.5","Y":"9192319.0","Rotation":0,"NAMOBJ":"Munungrejo","WADMKC":"Ngimbang","WADMKK":"Lamongan"},"geometry":{"type":"Point","coordinates":[112.21664693,-7.30530654]}},{"type":"Feature","properties":{"Line":"R110","Tr":3802,"X":"634300.5","Y":"9192306.5","Rotation":0,"NAMOBJ":"Munungrejo","WADMKC":"Ngimbang","WADMKK":"Lamongan"},"geometry":{"type":"Point","coordinates":[112.21664724,-7.30541959]}},{"type":"Feature","properties":{"Line":"R110","Tr":3803,"X":"634300.5","Y":"9192294.0","Rotation":0,"NAMOBJ":"Munungrejo","WADMKC":"Ngimbang","WADMKK":"Lamongan"},"geometry":{"type":"Point","coordinates":[112.21664755,-7.30553264]}},{"type":"Feature","properties":{"Line":"R110","Tr":3804,"X":"634300.5","Y":"9192281.5","Rotation":0,"NAMOBJ":"Munungrejo","WADMKC":"Ngimbang","WADMKK":"Lamongan"},"geometry":{"type":"Point","coordinates":[112.21664785,-7.30564568]}},{"type":"Feature","properties":{"Line":"R110","Tr":3805,"X":"634300.5","Y":"9192269.0","Rotation":0,"NAMOBJ":"Munungrejo","WADMKC":"Ngimbang","WADMKK":"Lamongan"},"geometry":{"type":"Point","coordinates":[112.21664816,-7.30575873]}},{"type":"Feature","properties":{"Line":"R110","Tr":3806,"X":"634300.5","Y":"9192256.5","Rotation":0,"NAMOBJ":"Munungrejo","WADMKC":"Ngimbang","WADMKK":"Lamongan"},"geometry":{"type":"Point","coordinates":[112.21664846,-7.30587178]}},{"type":"Feature","properties":{"Line":"R110","Tr":3807,"X":"634300.5","Y":"9192244.0","Rotation":0,"NAMOBJ":"Munungrejo","WADMKC":"Ngimbang","WADMKK":"Lamongan"},"geometry":{"type":"Point","coordinates":[112.21664877,-7.30598483]}},{"type":"Feature","properties":{"Line":"R110","Tr":3808,"X":"634300.5","Y":"9192231.5","Rotation":0,"NAMOBJ":"Munungrejo","WADMKC":"Ngimbang","WADMKK":"Lamongan"},"geometry":{"type":"Point","coordinates":[112.21664907,-7.30609787]}},{"type":"Feature","properties":{"Line":"R110","Tr":3809,"X":"634300.5","Y":"9192219.0","Rotation":0,"NAMOBJ":"Munungrejo","WADMKC":"Ngimbang","WADMKK":"Lamongan"},"geometry":{"type":"Point","coordinates":[112.21664938,-7.30621092]}},{"type":"Feature","properties":{"Line":"R110","Tr":3810,"X":"634300.5","Y":"9192206.5","Rotation":0,"NAMOBJ":"Munungrejo","WADMKC":"Ngimbang","WADMKK":"Lamongan"},"geometry":{"type":"Point","coordinates":[112.21664969,-7.30632397]}},{"type":"Feature","properties":{"Line":"R110","Tr":3811,"X":"634300.5","Y":"9192194.0","Rotation":0,"NAMOBJ":"Munungrejo","WADMKC":"Ngimbang","WADMKK":"Lamongan"},"geometry":{"type":"Point","coordinates":[112.21664999,-7.30643702]}},{"type":"Feature","properties":{"Line":"R110","Tr":3812,"X":"634300.5","Y":"9192181.5","Rotation":0,"NAMOBJ":"Munungrejo","WADMKC":"Ngimbang","WADMKK":"Lamongan"},"geometry":{"type":"Point","coordinates":[112.2166503,-7.30655006]}},{"type":"Feature","properties":{"Line":"R110","Tr":3813,"X":"634300.5","Y":"9192169.0","Rotation":0,"NAMOBJ":"Munungrejo","WADMKC":"Ngimbang","WADMKK":"Lamongan"},"geometry":{"type":"Point","coordinates":[112.2166506,-7.30666311]}},{"type":"Feature","properties":{"Line":"R110","Tr":3814,"X":"634300.5","Y":"9192156.5","Rotation":0,"NAMOBJ":"Munungrejo","WADMKC":"Ngimbang","WADMKK":"Lamongan"},"geometry":{"type":"Point","coordinates":[112.21665091,-7.30677616]}},{"type":"Feature","properties":{"Line":"R110","Tr":3764,"X":"634300.5","Y":"9192781.5","Rotation":0,"NAMOBJ":"Pasarlegi","WADMKC":"Sambeng","WADMKK":"Lamongan"},"geometry":{"type":"Point","coordinates":[112.21663562,-7.30112379]}},{"type":"Feature","properties":{"Line":"R110","Tr":3765,"X":"634300.5","Y":"9192769.0","Rotation":0,"NAMOBJ":"Pasarlegi","WADMKC":"Sambeng","WADMKK":"Lamongan"},"geometry":{"type":"Point","coordinates":[112.21663593,-7.30123683]}},{"type":"Feature","properties":{"Line":"R110","Tr":3766,"X":"634300.5","Y":"9192756.5","Rotation":0,"NAMOBJ":"Pasarlegi","WADMKC":"Sambeng","WADMKK":"Lamongan"},"geometry":{"type":"Point","coordinates":[112.21663624,-7.30134988]}},{"type":"Feature","properties":{"Line":"R110","Tr":3767,"X":"634300.5","Y":"9192744.0","Rotation":0,"NAMOBJ":"Pasarlegi","WADMKC":"Sambeng","WADMKK":"Lamongan"},"geometry":{"type":"Point","coordinates":[112.21663654,-7.30146293]}},{"type":"Feature","properties":{"Line":"R110","Tr":3768,"X":"634300.5","Y":"9192731.5","Rotation":0,"NAMOBJ":"Pasarlegi","WADMKC":"Sambeng","WADMKK":"Lamongan"},"geometry":{"type":"Point","coordinates":[112.21663685,-7.30157598]}},{"type":"Feature","properties":{"Line":"R110","Tr":3769,"X":"634300.5","Y":"9192719.0","Rotation":0,"NAMOBJ":"Pasarlegi","WADMKC":"Sambeng","WADMKK":"Lamongan"},"geometry":{"type":"Point","coordinates":[112.21663715,-7.30168902]}},{"type":"Feature","properties":{"Line":"R110","Tr":3770,"X":"634300.5","Y":"9192706.5","Rotation":0,"NAMOBJ":"Pasarlegi","WADMKC":"Sambeng","WADMKK":"Lamongan"},"geometry":{"type":"Point","coordinates":[112.21663746,-7.30180207]}},{"type":"Feature","properties":{"Line":"R110","Tr":3771,"X":"634300.5","Y":"9192694.0","Rotation":0,"NAMOBJ":"Pasarlegi","WADMKC":"Sambeng","WADMKK":"Lamongan"},"geometry":{"type":"Point","coordinates":[112.21663776,-7.30191512]}},{"type":"Feature","properties":{"Line":"R110","Tr":3772,"X":"634300.5","Y":"9192681.5","Rotation":0,"NAMOBJ":"Pasarlegi","WADMKC":"Sambeng","WADMKK":"Lamongan"},"geometry":{"type":"Point","coordinates":[112.21663807,-7.30202817]}},{"type":"Feature","properties":{"Line":"R110","Tr":3773,"X":"634300.5","Y":"9192669.0","Rotation":0,"NAMOBJ":"Pasarlegi","WADMKC":"Sambeng","WADMKK":"Lamongan"},"geometry":{"type":"Point","coordinates":[112.21663837,-7.30214121]}},{"type":"Feature","properties":{"Line":"R110","Tr":3774,"X":"634300.5","Y":"9192656.5","Rotation":0,"NAMOBJ":"Pasarlegi","WADMKC":"Sambeng","WADMKK":"Lamongan"},"geometry":{"type":"Point","coordinates":[112.21663868,-7.30225426]}},{"type":"Feature","properties":{"Line":"R110","Tr":3775,"X":"634300.5","Y":"9192644.0","Rotation":0,"NAMOBJ":"Pasarlegi","WADMKC":"Sambeng","WADMKK":"Lamongan"},"geometry":{"type":"Point","coordinates":[112.21663899,-7.30236731]}},{"type":"Feature","properties":{"Line":"R110","Tr":3776,"X":"634300.5","Y":"9192631.5","Rotation":0,"NAMOBJ":"Pasarlegi","WADMKC":"Sambeng","WADMKK":"Lamongan"},"geometry":{"type":"Point","coordinates":[112.21663929,-7.30248036]}},{"type":"Feature","properties":{"Line":"R110","Tr":3777,"X":"634300.5","Y":"9192619.0","Rotation":0,"NAMOBJ":"Pasarlegi","WADMKC":"Sambeng","WADMKK":"Lamongan"},"geometry":{"type":"Point","coordinates":[112.2166396,-7.3025934]}},{"type":"Feature","properties":{"Line":"R110","Tr":3778,"X":"634300.5","Y":"9192606.5","Rotation":0,"NAMOBJ":"Pasarlegi","WADMKC":"Sambeng","WADMKK":"Lamongan"},"geometry":{"type":"Point","coordinates":[112.2166399,-7.30270645]}},{"type":"Feature","properties":{"Line":"R110","Tr":3779,"X":"634300.5","Y":"9192594.0","Rotation":0,"NAMOBJ":"Pasarlegi","WADMKC":"Sambeng","WADMKK":"Lamongan"},"geometry":{"type":"Point","coordinates":[112.21664021,-7.3028195]}},{"type":"Feature","properties":{"Line":"R110","Tr":3780,"X":"634300.5","Y":"9192581.5","Rotation":0,"NAMOBJ":"Pasarlegi","WADMKC":"Sambeng","WADMKK":"Lamongan"},"geometry":{"type":"Point","coordinates":[112.21664051,-7.30293255]}},{"type":"Feature","properties":{"Line":"R110","Tr":3781,"X":"634300.5","Y":"9192569.0","Rotation":0,"NAMOBJ":"Pasarlegi","WADMKC":"Sambeng","WADMKK":"Lamongan"},"geometry":{"type":"Point","coordinates":[112.21664082,-7.30304559]}},{"type":"Feature","properties":{"Line":"R110","Tr":3782,"X":"634300.5","Y":"9192556.5","Rotation":0,"NAMOBJ":"Pasarlegi","WADMKC":"Sambeng","WADMKK":"Lamongan"},"geometry":{"type":"Point","coordinates":[112.21664113,-7.30315864]}},{"type":"Feature","properties":{"Line":"R110","Tr":3783,"X":"634300.5","Y":"9192544.0","Rotation":0,"NAMOBJ":"Pasarlegi","WADMKC":"Sambeng","WADMKK":"Lamongan"},"geometry":{"type":"Point","coordinates":[112.21664143,-7.30327169]}},{"type":"Feature","properties":{"Line":"R110","Tr":3784,"X":"634300.5","Y":"9192531.5","Rotation":0,"NAMOBJ":"Pasarlegi","WADMKC":"Sambeng","WADMKK":"Lamongan"},"geometry":{"type":"Point","coordinates":[112.21664174,-7.30338474]}},{"type":"Feature","properties":{"Line":"R110","Tr":3785,"X":"634300.5","Y":"9192519.0","Rotation":0,"NAMOBJ":"Pasarlegi","WADMKC":"Sambeng","WADMKK":"Lamongan"},"geometry":{"type":"Point","coordinates":[112.21664204,-7.30349778]}},{"type":"Feature","properties":{"Line":"R110","Tr":3786,"X":"634300.5","Y":"9192506.5","Rotation":0,"NAMOBJ":"Pasarlegi","WADMKC":"Sambeng","WADMKK":"Lamongan"},"geometry":{"type":"Point","coordinates":[112.21664235,-7.30361083]}},{"type":"Feature","properties":{"Line":"R110","Tr":3787,"X":"634300.5","Y":"9192494.0","Rotation":0,"NAMOBJ":"Pasarlegi","WADMKC":"Sambeng","WADMKK":"Lamongan"},"geometry":{"type":"Point","coordinates":[112.21664265,-7.30372388]}},{"type":"Feature","properties":{"Line":"R110","Tr":3788,"X":"634300.5","Y":"9192481.5","Rotation":0,"NAMOBJ":"Pasarlegi","WADMKC":"Sambeng","WADMKK":"Lamongan"},"geometry":{"type":"Point","coordinates":[112.21664296,-7.30383693]}},{"type":"Feature","properties":{"Line":"R110","Tr":3789,"X":"634300.5","Y":"9192469.0","Rotation":0,"NAMOBJ":"Pasarlegi","WADMKC":"Sambeng","WADMKK":"Lamongan"},"geometry":{"type":"Point","coordinates":[112.21664327,-7.30394997]}},{"type":"Feature","properties":{"Line":"R110","Tr":3790,"X":"634300.5","Y":"9192456.5","Rotation":0,"NAMOBJ":"Pasarlegi","WADMKC":"Sambeng","WADMKK":"Lamongan"},"geometry":{"type":"Point","coordinates":[112.21664357,-7.30406302]}},{"type":"Feature","properties":{"Line":"R110","Tr":3791,"X":"634300.5","Y":"9192444.0","Rotation":0,"NAMOBJ":"Pasarlegi","WADMKC":"Sambeng","WADMKK":"Lamongan"},"geometry":{"type":"Point","coordinates":[112.21664388,-7.30417607]}},{"type":"Feature","properties":{"Line":"R110","Tr":3792,"X":"634300.5","Y":"9192431.5","Rotation":0,"NAMOBJ":"Pasarlegi","WADMKC":"Sambeng","WADMKK":"Lamongan"},"geometry":{"type":"Point","coordinates":[112.21664418,-7.30428911]}},{"type":"Feature","properties":{"Line":"R110","Tr":3793,"X":"634300.5","Y":"9192419.0","Rotation":0,"NAMOBJ":"Pasarlegi","WADMKC":"Sambeng","WADMKK":"Lamongan"},"geometry":{"type":"Point","coordinates":[112.21664449,-7.30440216]}},{"type":"Feature","properties":{"Line":"R110","Tr":3794,"X":"634300.5","Y":"9192406.5","Rotation":0,"NAMOBJ":"Pasarlegi","WADMKC":"Sambeng","WADMKK":"Lamongan"},"geometry":{"type":"Point","coordinates":[112.21664479,-7.30451521]}},{"type":"Feature","properties":{"Line":"R110","Tr":3755,"X":"634300.5","Y":"9192894.0","Rotation":0,"NAMOBJ":"Sendangrejo","WADMKC":"Ngimbang","WADMKK":"Lamongan"},"geometry":{"type":"Point","coordinates":[112.21663287,-7.30010636]}},{"type":"Feature","properties":{"Line":"R110","Tr":3756,"X":"634300.5","Y":"9192881.5","Rotation":0,"NAMOBJ":"Sendangrejo","WADMKC":"Ngimbang","WADMKK":"Lamongan"},"geometry":{"type":"Point","coordinates":[112.21663318,-7.30021941]}},{"type":"Feature","properties":{"Line":"R110","Tr":3757,"X":"634300.5","Y":"9192869.0","Rotation":0,"NAMOBJ":"Sendangrejo","WADMKC":"Ngimbang","WADMKK":"Lamongan"},"geometry":{"type":"Point","coordinates":[112.21663349,-7.30033246]}},{"type":"Feature","properties":{"Line":"R110","Tr":3758,"X":"634300.5","Y":"9192856.5","Rotation":0,"NAMOBJ":"Sendangrejo","WADMKC":"Ngimbang","WADMKK":"Lamongan"},"geometry":{"type":"Point","coordinates":[112.21663379,-7.3004455]}},{"type":"Feature","properties":{"Line":"R110","Tr":3759,"X":"634300.5","Y":"9192844.0","Rotation":0,"NAMOBJ":"Sendangrejo","WADMKC":"Ngimbang","WADMKK":"Lamongan"},"geometry":{"type":"Point","coordinates":[112.2166341,-7.30055855]}},{"type":"Feature","properties":{"Line":"R110","Tr":3760,"X":"634300.5","Y":"9192831.5","Rotation":0,"NAMOBJ":"Sendangrejo","WADMKC":"Ngimbang","WADMKK":"Lamongan"},"geometry":{"type":"Point","coordinates":[112.2166344,-7.3006716]}},{"type":"Feature","properties":{"Line":"R110","Tr":3761,"X":"634300.5","Y":"9192819.0","Rotation":0,"NAMOBJ":"Sendangrejo","WADMKC":"Ngimbang","WADMKK":"Lamongan"},"geometry":{"type":"Point","coordinates":[112.21663471,-7.30078464]}},{"type":"Feature","properties":{"Line":"R110","Tr":3762,"X":"634300.5","Y":"9192806.5","Rotation":0,"NAMOBJ":"Sendangrejo","WADMKC":"Ngimbang","WADMKK":"Lamongan"},"geometry":{"type":"Point","coordinates":[112.21663501,-7.30089769]}},{"type":"Feature","properties":{"Line":"R110","Tr":3763,"X":"634300.5","Y":"9192794.0","Rotation":0,"NAMOBJ":"Sendangrejo","WADMKC":"Ngimbang","WADMKK":"Lamongan"},"geometry":{"type":"Point","coordinates":[112.21663532,-7.30101074]}},{"type":"Feature","properties":{"Line":"R110","Tr":3815,"X":"634300.5","Y":"9192144.0","Rotation":0,"NAMOBJ":"Sidokumpul","WADMKC":"Sambeng","WADMKK":"Lamongan"},"geometry":{"type":"Point","coordinates":[112.21665122,-7.3068892]}},{"type":"Feature","properties":{"Line":"R110","Tr":3816,"X":"634300.5","Y":"9192131.5","Rotation":0,"NAMOBJ":"Sidokumpul","WADMKC":"Sambeng","WADMKK":"Lamongan"},"geometry":{"type":"Point","coordinates":[112.21665152,-7.30700225]}},{"type":"Feature","properties":{"Line":"R110","Tr":3817,"X":"634300.5","Y":"9192119.0","Rotation":0,"NAMOBJ":"Sidokumpul","WADMKC":"Sambeng","WADMKK":"Lamongan"},"geometry":{"type":"Point","coordinates":[112.21665183,-7.3071153]}},{"type":"Feature","properties":{"Line":"R110","Tr":3818,"X":"634300.5","Y":"9192106.5","Rotation":0,"NAMOBJ":"Sidokumpul","WADMKC":"Sambeng","WADMKK":"Lamongan"},"geometry":{"type":"Point","coordinates":[112.21665213,-7.30722835]}},{"type":"Feature","properties":{"Line":"R110","Tr":3819,"X":"634300.5","Y":"9192094.0","Rotation":0,"NAMOBJ":"Sidokumpul","WADMKC":"Sambeng","WADMKK":"Lamongan"},"geometry":{"type":"Point","coordinates":[112.21665244,-7.30734139]}},{"type":"Feature","properties":{"Line":"R110","Tr":3820,"X":"634300.5","Y":"9192081.5","Rotation":0,"NAMOBJ":"Sidokumpul","WADMKC":"Sambeng","WADMKK":"Lamongan"},"geometry":{"type":"Point","coordinates":[112.21665274,-7.30745444]}},{"type":"Feature","properties":{"Line":"R110","Tr":3821,"X":"634300.5","Y":"9192069.0","Rotation":0,"NAMOBJ":"Sidokumpul","WADMKC":"Sambeng","WADMKK":"Lamongan"},"geometry":{"type":"Point","coordinates":[112.21665305,-7.30756749]}},{"type":"Feature","properties":{"Line":"R110","Tr":3822,"X":"634300.5","Y":"9192056.5","Rotation":0,"NAMOBJ":"Sidokumpul","WADMKC":"Sambeng","WADMKK":"Lamongan"},"geometry":{"type":"Point","coordinates":[112.21665336,-7.30768054]}},{"type":"Feature","properties":{"Line":"R110","Tr":3823,"X":"634300.5","Y":"9192044.0","Rotation":0,"NAMOBJ":"Sidokumpul","WADMKC":"Sambeng","WADMKK":"Lamongan"},"geometry":{"type":"Point","coordinates":[112.21665366,-7.30779358]}},{"type":"Feature","properties":{"Line":"R110","Tr":3824,"X":"634300.5","Y":"9192031.5","Rotation":0,"NAMOBJ":"Sidokumpul","WADMKC":"Sambeng","WADMKK":"Lamongan"},"geometry":{"type":"Point","coordinates":[112.21665397,-7.30790663]}},{"type":"Feature","properties":{"Line":"R110","Tr":3825,"X":"634300.5","Y":"9192019.0","Rotation":0,"NAMOBJ":"Sidokumpul","WADMKC":"Sambeng","WADMKK":"Lamongan"},"geometry":{"type":"Point","coordinates":[112.21665427,-7.30801968]}},{"type":"Feature","properties":{"Line":"R110","Tr":3826,"X":"634300.5","Y":"9192006.5","Rotation":0,"NAMOBJ":"Sidokumpul","WADMKC":"Sambeng","WADMKK":"Lamongan"},"geometry":{"type":"Point","coordinates":[112.21665458,-7.30813273]}},{"type":"Feature","properties":{"Line":"R110","Tr":3827,"X":"634300.5","Y":"9191994.0","Rotation":0,"NAMOBJ":"Sidokumpul","WADMKC":"Sambeng","WADMKK":"Lamongan"},"geometry":{"type":"Point","coordinates":[112.21665489,-7.30824577]}},{"type":"Feature","properties":{"Line":"R110","Tr":3828,"X":"634300.5","Y":"9191981.5","Rotation":0,"NAMOBJ":"Sidokumpul","WADMKC":"Sambeng","WADMKK":"Lamongan"},"geometry":{"type":"Point","coordinates":[112.21665519,-7.30835882]}},{"type":"Feature","properties":{"Line":"R110","Tr":3829,"X":"634300.5","Y":"9191969.0","Rotation":0,"NAMOBJ":"Sidokumpul","WADMKC":"Sambeng","WADMKK":"Lamongan"},"geometry":{"type":"Point","coordinates":[112.2166555,-7.30847187]}},{"type":"Feature","properties":{"Line":"R110","Tr":3830,"X":"634300.5","Y":"9191956.5","Rotation":0,"NAMOBJ":"Sidokumpul","WADMKC":"Sambeng","WADMKK":"Lamongan"},"geometry":{"type":"Point","coordinates":[112.2166558,-7.30858492]}},{"type":"Feature","properties":{"Line":"R110","Tr":3831,"X":"634300.5","Y":"9191944.0","Rotation":0,"NAMOBJ":"Sidokumpul","WADMKC":"Sambeng","WADMKK":"Lamongan"},"geometry":{"type":"Point","coordinates":[112.21665611,-7.30869796]}},{"type":"Feature","properties":{"Line":"R110","Tr":3832,"X":"634300.5","Y":"9191931.5","Rotation":0,"NAMOBJ":"Sidokumpul","WADMKC":"Sambeng","WADMKK":"Lamongan"},"geometry":{"type":"Point","coordinates":[112.21665641,-7.30881101]}},{"type":"Feature","properties":{"Line":"R110","Tr":3833,"X":"634300.5","Y":"9191919.0","Rotation":0,"NAMOBJ":"Sidokumpul","WADMKC":"Sambeng","WADMKK":"Lamongan"},"geometry":{"type":"Point","coordinates":[112.21665672,-7.30892406]}},{"type":"Feature","properties":{"Line":"R110","Tr":3834,"X":"634300.5","Y":"9191906.5","Rotation":0,"NAMOBJ":"Sidokumpul","WADMKC":"Sambeng","WADMKK":"Lamongan"},"geometry":{"type":"Point","coordinates":[112.21665703,-7.30903711]}},{"type":"Feature","properties":{"Line":"R110","Tr":3835,"X":"634300.5","Y":"9191894.0","Rotation":0,"NAMOBJ":"Sidokumpul","WADMKC":"Sambeng","WADMKK":"Lamongan"},"geometry":{"type":"Point","coordinates":[112.21665733,-7.30915015]}},{"type":"Feature","properties":{"Line":"R110","Tr":3836,"X":"634300.5","Y":"9191881.5","Rotation":0,"NAMOBJ":"Sidokumpul","WADMKC":"Sambeng","WADMKK":"Lamongan"},"geometry":{"type":"Point","coordinates":[112.21665764,-7.3092632]}},{"type":"Feature","properties":{"Line":"R110","Tr":3837,"X":"634300.5","Y":"9191869.0","Rotation":0,"NAMOBJ":"Sidokumpul","WADMKC":"Sambeng","WADMKK":"Lamongan"},"geometry":{"type":"Point","coordinates":[112.21665794,-7.30937625]}},{"type":"Feature","properties":{"Line":"R110","Tr":3838,"X":"634300.5","Y":"9191856.5","Rotation":0,"NAMOBJ":"Sidokumpul","WADMKC":"Sambeng","WADMKK":"Lamongan"},"geometry":{"type":"Point","coordinates":[112.21665825,-7.30948929]}},{"type":"Feature","properties":{"Line":"R110","Tr":3839,"X":"634300.5","Y":"9191844.0","Rotation":0,"NAMOBJ":"Sidokumpul","WADMKC":"Sambeng","WADMKK":"Lamongan"},"geometry":{"type":"Point","coordinates":[112.21665856,-7.30960234]}},{"type":"Feature","properties":{"Line":"R110","Tr":3840,"X":"634300.5","Y":"9191831.5","Rotation":0,"NAMOBJ":"Sidokumpul","WADMKC":"Sambeng","WADMKK":"Lamongan"},"geometry":{"type":"Point","coordinates":[112.21665886,-7.30971539]}},{"type":"Feature","properties":{"Line":"R110","Tr":3841,"X":"634300.5","Y":"9191819.0","Rotation":0,"NAMOBJ":"Sidokumpul","WADMKC":"Sambeng","WADMKK":"Lamongan"},"geometry":{"type":"Point","coordinates":[112.21665917,-7.30982844]}},{"type":"Feature","properties":{"Line":"R110","Tr":3842,"X":"634300.5","Y":"9191806.5","Rotation":0,"NAMOBJ":"Sidokumpul","WADMKC":"Sambeng","WADMKK":"Lamongan"},"geometry":{"type":"Point","coordinates":[112.21665947,-7.30994148]}},{"type":"Feature","properties":{"Line":"R110","Tr":3843,"X":"634300.5","Y":"9191794.0","Rotation":0,"NAMOBJ":"Sidokumpul","WADMKC":"Sambeng","WADMKK":"Lamongan"},"geometry":{"type":"Point","coordinates":[112.21665978,-7.31005453]}},{"type":"Feature","properties":{"Line":"R110","Tr":3844,"X":"634300.5","Y":"9191781.5","Rotation":0,"NAMOBJ":"Sidokumpul","WADMKC":"Sambeng","WADMKK":"Lamongan"},"geometry":{"type":"Point","coordinates":[112.21666009,-7.31016758]}},{"type":"Feature","properties":{"Line":"R110","Tr":3845,"X":"634300.5","Y":"9191769.0","Rotation":0,"NAMOBJ":"Sidokumpul","WADMKC":"Sambeng","WADMKK":"Lamongan"},"geometry":{"type":"Point","coordinates":[112.21666039,-7.31028063]}},{"type":"Feature","properties":{"Line":"R110","Tr":3846,"X":"634300.5","Y":"9191756.5","Rotation":0,"NAMOBJ":"Sidokumpul","WADMKC":"Sambeng","WADMKK":"Lamongan"},"geometry":{"type":"Point","coordinates":[112.2166607,-7.31039367]}},{"type":"Feature","properties":{"Line":"R110","Tr":3847,"X":"634300.5","Y":"9191744.0","Rotation":0,"NAMOBJ":"Sidokumpul","WADMKC":"Sambeng","WADMKK":"Lamongan"},"geometry":{"type":"Point","coordinates":[112.216661,-7.31050672]}},{"type":"Feature","properties":{"Line":"R110","Tr":3848,"X":"634300.5","Y":"9191731.5","Rotation":0,"NAMOBJ":"Sidokumpul","WADMKC":"Sambeng","WADMKK":"Lamongan"},"geometry":{"type":"Point","coordinates":[112.21666131,-7.31061977]}},{"type":"Feature","properties":{"Line":"R110","Tr":3849,"X":"634300.5","Y":"9191719.0","Rotation":0,"NAMOBJ":"Sidokumpul","WADMKC":"Sambeng","WADMKK":"Lamongan"},"geometry":{"type":"Point","coordinates":[112.21666162,-7.31073282]}},{"type":"Feature","properties":{"Line":"R110","Tr":3850,"X":"634300.5","Y":"9191706.5","Rotation":0,"NAMOBJ":"Sidokumpul","WADMKC":"Sambeng","WADMKK":"Lamongan"},"geometry":{"type":"Point","coordinates":[112.21666192,-7.31084586]}},{"type":"Feature","properties":{"Line":"R110","Tr":3851,"X":"634300.5","Y":"9191694.0","Rotation":0,"NAMOBJ":"Sidokumpul","WADMKC":"Sambeng","WADMKK":"Lamongan"},"geometry":{"type":"Point","coordinates":[112.21666223,-7.31095891]}},{"type":"Feature","properties":{"Line":"R110","Tr":3852,"X":"634300.5","Y":"9191681.5","Rotation":0,"NAMOBJ":"Sidokumpul","WADMKC":"Sambeng","WADMKK":"Lamongan"},"geometry":{"type":"Point","coordinates":[112.21666253,-7.31107196]}},{"type":"Feature","properties":{"Line":"R110","Tr":3853,"X":"634300.5","Y":"9191669.0","Rotation":0,"NAMOBJ":"Sidokumpul","WADMKC":"Sambeng","WADMKK":"Lamongan"},"geometry":{"type":"Point","coordinates":[112.21666284,-7.31118501]}},{"type":"Feature","properties":{"Line":"R110","Tr":3854,"X":"634300.5","Y":"9191656.5","Rotation":0,"NAMOBJ":"Sidokumpul","WADMKC":"Sambeng","WADMKK":"Lamongan"},"geometry":{"type":"Point","coordinates":[112.21666315,-7.31129805]}},{"type":"Feature","properties":{"Line":"R110","Tr":3855,"X":"634300.5","Y":"9191644.0","Rotation":0,"NAMOBJ":"Sidokumpul","WADMKC":"Sambeng","WADMKK":"Lamongan"},"geometry":{"type":"Point","coordinates":[112.21666345,-7.3114111]}},{"type":"Feature","properties":{"Line":"R110","Tr":3856,"X":"634300.5","Y":"9191631.5","Rotation":0,"NAMOBJ":"Sidokumpul","WADMKC":"Sambeng","WADMKK":"Lamongan"},"geometry":{"type":"Point","coordinates":[112.21666376,-7.31152415]}},{"type":"Feature","properties":{"Line":"R110","Tr":3857,"X":"634300.5","Y":"9191619.0","Rotation":0,"NAMOBJ":"Sidokumpul","WADMKC":"Sambeng","WADMKK":"Lamongan"},"geometry":{"type":"Point","coordinates":[112.21666406,-7.31163719]}},{"type":"Feature","properties":{"Line":"R110","Tr":3858,"X":"634300.5","Y":"9191606.5","Rotation":0,"NAMOBJ":"Sidokumpul","WADMKC":"Sambeng","WADMKK":"Lamongan"},"geometry":{"type":"Point","coordinates":[112.21666437,-7.31175024]}},{"type":"Feature","properties":{"Line":"R110","Tr":3859,"X":"634300.5","Y":"9191594.0","Rotation":0,"NAMOBJ":"Sidokumpul","WADMKC":"Sambeng","WADMKK":"Lamongan"},"geometry":{"type":"Point","coordinates":[112.21666468,-7.31186329]}},{"type":"Feature","properties":{"Line":"R110","Tr":3860,"X":"634300.5","Y":"9191581.5","Rotation":0,"NAMOBJ":"Sidokumpul","WADMKC":"Sambeng","WADMKK":"Lamongan"},"geometry":{"type":"Point","coordinates":[112.21666498,-7.31197634]}},{"type":"Feature","properties":{"Line":"R110","Tr":3861,"X":"634300.5","Y":"9191569.0","Rotation":0,"NAMOBJ":"Sidokumpul","WADMKC":"Sambeng","WADMKK":"Lamongan"},"geometry":{"type":"Point","coordinates":[112.21666529,-7.31208938]}},{"type":"Feature","properties":{"Line":"R110","Tr":3862,"X":"634300.5","Y":"9191556.5","Rotation":0,"NAMOBJ":"Sidokumpul","WADMKC":"Sambeng","WADMKK":"Lamongan"},"geometry":{"type":"Point","coordinates":[112.21666559,-7.31220243]}},{"type":"Feature","properties":{"Line":"R110","Tr":3863,"X":"634300.5","Y":"9191544.0","Rotation":0,"NAMOBJ":"Sidokumpul","WADMKC":"Sambeng","WADMKK":"Lamongan"},"geometry":{"type":"Point","coordinates":[112.2166659,-7.31231548]}},{"type":"Feature","properties":{"Line":"R110","Tr":3864,"X":"634300.5","Y":"9191531.5","Rotation":0,"NAMOBJ":"Sidokumpul","WADMKC":"Sambeng","WADMKK":"Lamongan"},"geometry":{"type":"Point","coordinates":[112.21666621,-7.31242853]}},{"type":"Feature","properties":{"Line":"R110","Tr":3865,"X":"634300.5","Y":"9191519.0","Rotation":0,"NAMOBJ":"Sidokumpul","WADMKC":"Sambeng","WADMKK":"Lamongan"},"geometry":{"type":"Point","coordinates":[112.21666651,-7.31254157]}},{"type":"Feature","properties":{"Line":"R110","Tr":3866,"X":"634300.5","Y":"9191506.5","Rotation":0,"NAMOBJ":"Sidokumpul","WADMKC":"Sambeng","WADMKK":"Lamongan"},"geometry":{"type":"Point","coordinates":[112.21666682,-7.31265462]}},{"type":"Feature","properties":{"Line":"R110","Tr":3867,"X":"634300.5","Y":"9191494.0","Rotation":0,"NAMOBJ":"Sidokumpul","WADMKC":"Sambeng","WADMKK":"Lamongan"},"geometry":{"type":"Point","coordinates":[112.21666712,-7.31276767]}},{"type":"Feature","properties":{"Line":"R110","Tr":3868,"X":"634300.5","Y":"9191481.5","Rotation":0,"NAMOBJ":"Sidokumpul","WADMKC":"Sambeng","WADMKK":"Lamongan"},"geometry":{"type":"Point","coordinates":[112.21666743,-7.31288072]}},{"type":"Feature","properties":{"Line":"R110","Tr":3869,"X":"634300.5","Y":"9191469.0","Rotation":0,"NAMOBJ":"Sidokumpul","WADMKC":"Sambeng","WADMKK":"Lamongan"},"geometry":{"type":"Point","coordinates":[112.21666774,-7.31299376]}},{"type":"Feature","properties":{"Line":"R110","Tr":3870,"X":"634300.5","Y":"9191456.5","Rotation":0,"NAMOBJ":"Sidokumpul","WADMKC":"Sambeng","WADMKK":"Lamongan"},"geometry":{"type":"Point","coordinates":[112.21666804,-7.31310681]}},{"type":"Feature","properties":{"Line":"R110","Tr":3871,"X":"634300.5","Y":"9191444.0","Rotation":0,"NAMOBJ":"Sidokumpul","WADMKC":"Sambeng","WADMKK":"Lamongan"},"geometry":{"type":"Point","coordinates":[112.21666835,-7.31321986]}},{"type":"Feature","properties":{"Line":"R110","Tr":3872,"X":"634300.5","Y":"9191431.5","Rotation":0,"NAMOBJ":"Sidokumpul","WADMKC":"Sambeng","WADMKK":"Lamongan"},"geometry":{"type":"Point","coordinates":[112.21666866,-7.31333291]}},{"type":"Feature","properties":{"Line":"R110","Tr":3885,"X":"634300.5","Y":"9191269.0","Rotation":0,"NAMOBJ":"Sidokumpul","WADMKC":"Sambeng","WADMKK":"Lamongan"},"geometry":{"type":"Point","coordinates":[112.21667263,-7.31480252]}},{"type":"Feature","properties":{"Line":"R110","Tr":3886,"X":"634300.5","Y":"9191256.5","Rotation":0,"NAMOBJ":"Sidokumpul","WADMKC":"Sambeng","WADMKK":"Lamongan"},"geometry":{"type":"Point","coordinates":[112.21667294,-7.31491557]}},{"type":"Feature","properties":{"Line":"R110","Tr":3887,"X":"634300.5","Y":"9191244.0","Rotation":0,"NAMOBJ":"Sidokumpul","WADMKC":"Sambeng","WADMKK":"Lamongan"},"geometry":{"type":"Point","coordinates":[112.21667325,-7.31502862]}},{"type":"Feature","properties":{"Line":"R110","Tr":3888,"X":"634300.5","Y":"9191231.5","Rotation":0,"NAMOBJ":"Sidokumpul","WADMKC":"Sambeng","WADMKK":"Lamongan"},"geometry":{"type":"Point","coordinates":[112.21667355,-7.31514166]}},{"type":"Feature","properties":{"Line":"R110","Tr":3889,"X":"634300.5","Y":"9191219.0","Rotation":0,"NAMOBJ":"Sidokumpul","WADMKC":"Sambeng","WADMKK":"Lamongan"},"geometry":{"type":"Point","coordinates":[112.21667386,-7.31525471]}},{"type":"Feature","properties":{"Line":"R110","Tr":3890,"X":"634300.5","Y":"9191206.5","Rotation":0,"NAMOBJ":"Sidokumpul","WADMKC":"Sambeng","WADMKK":"Lamongan"},"geometry":{"type":"Point","coordinates":[112.21667417,-7.31536776]}},{"type":"Feature","properties":{"Line":"R110","Tr":3891,"X":"634300.5","Y":"9191194.0","Rotation":0,"NAMOBJ":"Sidokumpul","WADMKC":"Sambeng","WADMKK":"Lamongan"},"geometry":{"type":"Point","coordinates":[112.21667447,-7.31548081]}},{"type":"Feature","properties":{"Line":"R110","Tr":3892,"X":"634300.5","Y":"9191181.5","Rotation":0,"NAMOBJ":"Sidokumpul","WADMKC":"Sambeng","WADMKK":"Lamongan"},"geometry":{"type":"Point","coordinates":[112.21667478,-7.31559385]}},{"type":"Feature","properties":{"Line":"R110","Tr":3893,"X":"634300.5","Y":"9191169.0","Rotation":0,"NAMOBJ":"Sidokumpul","WADMKC":"Sambeng","WADMKK":"Lamongan"},"geometry":{"type":"Point","coordinates":[112.21667508,-7.3157069]}},{"type":"Feature","properties":{"Line":"R110","Tr":3894,"X":"634300.5","Y":"9191156.5","Rotation":0,"NAMOBJ":"Sidokumpul","WADMKC":"Sambeng","WADMKK":"Lamongan"},"geometry":{"type":"Point","coordinates":[112.21667539,-7.31581995]}},{"type":"Feature","properties":{"Line":"R110","Tr":3895,"X":"634300.5","Y":"9191144.0","Rotation":0,"NAMOBJ":"Sidokumpul","WADMKC":"Sambeng","WADMKK":"Lamongan"},"geometry":{"type":"Point","coordinates":[112.2166757,-7.31593299]}},{"type":"Feature","properties":{"Line":"R110","Tr":3896,"X":"634300.5","Y":"9191131.5","Rotation":0,"NAMOBJ":"Sidokumpul","WADMKC":"Sambeng","WADMKK":"Lamongan"},"geometry":{"type":"Point","coordinates":[112.216676,-7.31604604]}},{"type":"Feature","properties":{"Line":"R110","Tr":3897,"X":"634300.5","Y":"9191119.0","Rotation":0,"NAMOBJ":"Sidokumpul","WADMKC":"Sambeng","WADMKK":"Lamongan"},"geometry":{"type":"Point","coordinates":[112.21667631,-7.31615909]}},{"type":"Feature","properties":{"Line":"R110","Tr":3898,"X":"634300.5","Y":"9191106.5","Rotation":0,"NAMOBJ":"Sidokumpul","WADMKC":"Sambeng","WADMKK":"Lamongan"},"geometry":{"type":"Point","coordinates":[112.21667662,-7.31627214]}},{"type":"Feature","properties":{"Line":"R110","Tr":3899,"X":"634300.5","Y":"9191094.0","Rotation":0,"NAMOBJ":"Sidokumpul","WADMKC":"Sambeng","WADMKK":"Lamongan"},"geometry":{"type":"Point","coordinates":[112.21667692,-7.31638518]}},{"type":"Feature","properties":{"Line":"R110","Tr":3900,"X":"634300.5","Y":"9191081.5","Rotation":0,"NAMOBJ":"Sidokumpul","WADMKC":"Sambeng","WADMKK":"Lamongan"},"geometry":{"type":"Point","coordinates":[112.21667723,-7.31649823]}},{"type":"Feature","properties":{"Line":"R110","Tr":3901,"X":"634300.5","Y":"9191069.0","Rotation":0,"NAMOBJ":"Sidokumpul","WADMKC":"Sambeng","WADMKK":"Lamongan"},"geometry":{"type":"Point","coordinates":[112.21667753,-7.31661128]}},{"type":"Feature","properties":{"Line":"R110","Tr":3902,"X":"634300.5","Y":"9191056.5","Rotation":0,"NAMOBJ":"Sidokumpul","WADMKC":"Sambeng","WADMKK":"Lamongan"},"geometry":{"type":"Point","coordinates":[112.21667784,-7.31672433]}},{"type":"Feature","properties":{"Line":"R110","Tr":3903,"X":"634300.5","Y":"9191044.0","Rotation":0,"NAMOBJ":"Sidokumpul","WADMKC":"Sambeng","WADMKK":"Lamongan"},"geometry":{"type":"Point","coordinates":[112.21667815,-7.31683737]}},{"type":"Feature","properties":{"Line":"R110","Tr":3904,"X":"634300.5","Y":"9191031.5","Rotation":0,"NAMOBJ":"Sidokumpul","WADMKC":"Sambeng","WADMKK":"Lamongan"},"geometry":{"type":"Point","coordinates":[112.21667845,-7.31695042]}},{"type":"Feature","properties":{"Line":"R110","Tr":3905,"X":"634300.5","Y":"9191019.0","Rotation":0,"NAMOBJ":"Sidokumpul","WADMKC":"Sambeng","WADMKK":"Lamongan"},"geometry":{"type":"Point","coordinates":[112.21667876,-7.31706347]}},{"type":"Feature","properties":{"Line":"R110","Tr":3906,"X":"634300.5","Y":"9191006.5","Rotation":0,"NAMOBJ":"Sidokumpul","WADMKC":"Sambeng","WADMKK":"Lamongan"},"geometry":{"type":"Point","coordinates":[112.21667907,-7.31717652]}},{"type":"Feature","properties":{"Line":"R110","Tr":3907,"X":"634300.5","Y":"9190994.0","Rotation":0,"NAMOBJ":"Sidokumpul","WADMKC":"Sambeng","WADMKK":"Lamongan"},"geometry":{"type":"Point","coordinates":[112.21667937,-7.31728956]}},{"type":"Feature","properties":{"Line":"R110","Tr":3908,"X":"634300.5","Y":"9190981.5","Rotation":0,"NAMOBJ":"Sidokumpul","WADMKC":"Sambeng","WADMKK":"Lamongan"},"geometry":{"type":"Point","coordinates":[112.21667968,-7.31740261]}},{"type":"Feature","properties":{"Line":"R110","Tr":3909,"X":"634300.5","Y":"9190969.0","Rotation":0,"NAMOBJ":"Sidokumpul","WADMKC":"Sambeng","WADMKK":"Lamongan"},"geometry":{"type":"Point","coordinates":[112.21667998,-7.31751566]}},{"type":"Feature","properties":{"Line":"R110","Tr":3910,"X":"634300.5","Y":"9190956.5","Rotation":0,"NAMOBJ":"Sidokumpul","WADMKC":"Sambeng","WADMKK":"Lamongan"},"geometry":{"type":"Point","coordinates":[112.21668029,-7.3176287]}}]}