{"type":"FeatureCollection","features":[{"type":"Feature","properties":{"Line":"S118","Sp":"1376.50000000000","X":"638300.50000000000","Y":"9223175.30000000075","NAMOBJ":"Brumbun","WADMKC":"Maduran","WADMKK":"Lamongan"},"geometry":{"type":"Point","coordinates":[112.3,-7.0]}},{"type":"Feature","properties":{"Line":"S118","Sp":"1380.50000000000","X":"638300.50000000000","Y":"9223125.30000000075","NAMOBJ":"Brumbun","WADMKC":"Maduran","WADMKK":"Lamongan"},"geometry":{"type":"Point","coordinates":[112.3,-7.0]}},{"type":"Feature","properties":{"Line":"S118","Sp":"1384.50000000000","X":"638300.50000000000","Y":"9223075.30000000075","NAMOBJ":"Brumbun","WADMKC":"Maduran","WADMKK":"Lamongan"},"geometry":{"type":"Point","coordinates":[112.3,-7.0]}},{"type":"Feature","properties":{"Line":"S118","Sp":"1388.50000000000","X":"638300.50000000000","Y":"9223025.30000000075","NAMOBJ":"Brumbun","WADMKC":"Maduran","WADMKK":"Lamongan"},"geometry":{"type":"Point","coordinates":[112.3,-7.0]}},{"type":"Feature","properties":{"Line":"S118","Sp":"1392.50000000000","X":"638300.50000000000","Y":"9222975.30000000075","NAMOBJ":"Brumbun","WADMKC":"Maduran","WADMKK":"Lamongan"},"geometry":{"type":"Point","coordinates":[112.3,-7.0]}},{"type":"Feature","properties":{"Line":"S118","Sp":"1396.50000000000","X":"638300.50000000000","Y":"9222925.30000000075","NAMOBJ":"Brumbun","WADMKC":"Maduran","WADMKK":"Lamongan"},"geometry":{"type":"Point","coordinates":[112.3,-7.0]}},{"type":"Feature","properties":{"Line":"S118","Sp":"1400.50000000000","X":"638300.50000000000","Y":"9222875.30000000075","NAMOBJ":"Brumbun","WADMKC":"Maduran","WADMKK":"Lamongan"},"geometry":{"type":"Point","coordinates":[112.3,-7.0]}},{"type":"Feature","properties":{"Line":"S118","Sp":"1404.50000000000","X":"638300.50000000000","Y":"9222825.30000000075","NAMOBJ":"Brumbun","WADMKC":"Maduran","WADMKK":"Lamongan"},"geometry":{"type":"Point","coordinates":[112.3,-7.0]}},{"type":"Feature","properties":{"Line":"S118","Sp":"1408.50000000000","X":"638300.50000000000","Y":"9222775.30000000075","NAMOBJ":"Brumbun","WADMKC":"Maduran","WADMKK":"Lamongan"},"geometry":{"type":"Point","coordinates":[112.3,-7.0]}},{"type":"Feature","properties":{"Line":"S118","Sp":"1412.50000000000","X":"638300.50000000000","Y":"9222725.30000000075","NAMOBJ":"Brumbun","WADMKC":"Maduran","WADMKK":"Lamongan"},"geometry":{"type":"Point","coordinates":[112.3,-7.0]}},{"type":"Feature","properties":{"Line":"S118","Sp":"1416.50000000000","X":"638300.50000000000","Y":"9222675.30000000075","NAMOBJ":"Brumbun","WADMKC":"Maduran","WADMKK":"Lamongan"},"geometry":{"type":"Point","coordinates":[112.3,-7.0]}},{"type":"Feature","properties":{"Line":"S118","Sp":"1420.50000000000","X":"638300.50000000000","Y":"9222625.30000000075","NAMOBJ":"Brumbun","WADMKC":"Maduran","WADMKK":"Lamongan"},"geometry":{"type":"Point","coordinates":[112.3,-7.0]}},{"type":"Feature","properties":{"Line":"S118","Sp":"1424.50000000000","X":"638300.50000000000","Y":"9222575.30000000075","NAMOBJ":"Brumbun","WADMKC":"Maduran","WADMKK":"Lamongan"},"geometry":{"type":"Point","coordinates":[112.3,-7.0]}},{"type":"Feature","properties":{"Line":"S118","Sp":"1428.50000000000","X":"638300.50000000000","Y":"9222525.30000000075","NAMOBJ":"Brumbun","WADMKC":"Maduran","WADMKK":"Lamongan"},"geometry":{"type":"Point","coordinates":[112.3,-7.0]}},{"type":"Feature","properties":{"Line":"S118","Sp":"1432.50000000000","X":"638300.50000000000","Y":"9222475.30000000075","NAMOBJ":"Brumbun","WADMKC":"Maduran","WADMKK":"Lamongan"},"geometry":{"type":"Point","coordinates":[112.3,-7.0]}},{"type":"Feature","properties":{"Line":"S118","Sp":"1436.50000000000","X":"638300.50000000000","Y":"9222425.30000000075","NAMOBJ":"Brumbun","WADMKC":"Maduran","WADMKK":"Lamongan"},"geometry":{"type":"Point","coordinates":[112.3,-7.0]}},{"type":"Feature","properties":{"Line":"S118","Sp":"1440.50000000000","X":"638300.50000000000","Y":"9222375.30000000075","NAMOBJ":"Brumbun","WADMKC":"Maduran","WADMKK":"Lamongan"},"geometry":{"type":"Point","coordinates":[112.3,-7.0]}},{"type":"Feature","properties":{"Line":"S118","Sp":"1444.50000000000","X":"638300.50000000000","Y":"9222325.30000000075","NAMOBJ":"Brumbun","WADMKC":"Maduran","WADMKK":"Lamongan"},"geometry":{"type":"Point","coordinates":[112.3,-7.0]}},{"type":"Feature","properties":{"Line":"S118","Sp":"1448.50000000000","X":"638300.50000000000","Y":"9222275.30000000075","NAMOBJ":"Brumbun","WADMKC":"Maduran","WADMKK":"Lamongan"},"geometry":{"type":"Point","coordinates":[112.3,-7.0]}},{"type":"Feature","properties":{"Line":"S118","Sp":"1452.50000000000","X":"638300.50000000000","Y":"9222225.30000000075","NAMOBJ":"Brumbun","WADMKC":"Maduran","WADMKK":"Lamongan"},"geometry":{"type":"Point","coordinates":[112.3,-7.0]}},{"type":"Feature","properties":{"Line":"S118","Sp":"1456.50000000000","X":"638300.50000000000","Y":"9222175.30000000075","NAMOBJ":"Brumbun","WADMKC":"Maduran","WADMKK":"Lamongan"},"geometry":{"type":"Point","coordinates":[112.3,-7.0]}},{"type":"Feature","properties":{"Line":"S118","Sp":"1460.50000000000","X":"638300.50000000000","Y":"9222125.30000000075","NAMOBJ":"Brumbun","WADMKC":"Maduran","WADMKK":"Lamongan"},"geometry":{"type":"Point","coordinates":[112.3,-7.0]}},{"type":"Feature","properties":{"Line":"S118","Sp":"1464.50000000000","X":"638300.50000000000","Y":"9222075.30000000075","NAMOBJ":"Brumbun","WADMKC":"Maduran","WADMKK":"Lamongan"},"geometry":{"type":"Point","coordinates":[112.3,-7.0]}},{"type":"Feature","properties":{"Line":"S118","Sp":"1468.50000000000","X":"638300.50000000000","Y":"9222025.30000000075","NAMOBJ":"Brumbun","WADMKC":"Maduran","WADMKK":"Lamongan"},"geometry":{"type":"Point","coordinates":[112.3,-7.0]}},{"type":"Feature","properties":{"Line":"S118","Sp":"1472.50000000000","X":"638300.50000000000","Y":"9221975.30000000075","NAMOBJ":"Brumbun","WADMKC":"Maduran","WADMKK":"Lamongan"},"geometry":{"type":"Point","coordinates":[112.3,-7.0]}},{"type":"Feature","properties":{"Line":"S118","Sp":"1476.50000000000","X":"638300.50000000000","Y":"9221925.30000000075","NAMOBJ":"Brumbun","WADMKC":"Maduran","WADMKK":"Lamongan"},"geometry":{"type":"Point","coordinates":[112.3,-7.0]}},{"type":"Feature","properties":{"Line":"S118","Sp":"1480.50000000000","X":"638300.50000000000","Y":"9221875.30000000075","NAMOBJ":"Brumbun","WADMKC":"Maduran","WADMKK":"Lamongan"},"geometry":{"type":"Point","coordinates":[112.3,-7.0]}},{"type":"Feature","properties":{"Line":"S118","Sp":"1484.50000000000","X":"638300.50000000000","Y":"9221825.30000000075","NAMOBJ":"Brumbun","WADMKC":"Maduran","WADMKK":"Lamongan"},"geometry":{"type":"Point","coordinates":[112.3,-7.0]}},{"type":"Feature","properties":{"Line":"S118","Sp":"1488.50000000000","X":"638300.50000000000","Y":"9221775.30000000075","NAMOBJ":"Brumbun","WADMKC":"Maduran","WADMKK":"Lamongan"},"geometry":{"type":"Point","coordinates":[112.3,-7.0]}},{"type":"Feature","properties":{"Line":"S118","Sp":"1492.50000000000","X":"638300.50000000000","Y":"9221725.30000000075","NAMOBJ":"Brumbun","WADMKC":"Maduran","WADMKK":"Lamongan"},"geometry":{"type":"Point","coordinates":[112.3,-7.0]}},{"type":"Feature","properties":{"Line":"S118","Sp":"1496.50000000000","X":"638300.50000000000","Y":"9221675.30000000075","NAMOBJ":"Brumbun","WADMKC":"Maduran","WADMKK":"Lamongan"},"geometry":{"type":"Point","coordinates":[112.3,-7.0]}},{"type":"Feature","properties":{"Line":"S118","Sp":"1500.50000000000","X":"638300.50000000000","Y":"9221625.30000000075","NAMOBJ":"Brumbun","WADMKC":"Maduran","WADMKK":"Lamongan"},"geometry":{"type":"Point","coordinates":[112.3,-7.0]}},{"type":"Feature","properties":{"Line":"S118","Sp":"1504.50000000000","X":"638300.50000000000","Y":"9221575.30000000075","NAMOBJ":"Brumbun","WADMKC":"Maduran","WADMKK":"Lamongan"},"geometry":{"type":"Point","coordinates":[112.3,-7.0]}},{"type":"Feature","properties":{"Line":"S118","Sp":"1508.50000000000","X":"638300.50000000000","Y":"9221525.30000000075","NAMOBJ":"Brumbun","WADMKC":"Maduran","WADMKK":"Lamongan"},"geometry":{"type":"Point","coordinates":[112.3,-7.0]}},{"type":"Feature","properties":{"Line":"S118","Sp":"1512.50000000000","X":"638300.50000000000","Y":"9221475.30000000075","NAMOBJ":"Brumbun","WADMKC":"Maduran","WADMKK":"Lamongan"},"geometry":{"type":"Point","coordinates":[112.3,-7.0]}},{"type":"Feature","properties":{"Line":"S118","Sp":"1516.50000000000","X":"638300.50000000000","Y":"9221425.30000000075","NAMOBJ":"Brumbun","WADMKC":"Maduran","WADMKK":"Lamongan"},"geometry":{"type":"Point","coordinates":[112.3,-7.0]}},{"type":"Feature","properties":{"Line":"S118","Sp":"1520.50000000000","X":"638300.50000000000","Y":"9221375.30000000075","NAMOBJ":"Brumbun","WADMKC":"Maduran","WADMKK":"Lamongan"},"geometry":{"type":"Point","coordinates":[112.3,-7.0]}},{"type":"Feature","properties":{"Line":"S118","Sp":"1524.50000000000","X":"638300.50000000000","Y":"9221325.30000000075","NAMOBJ":"Brumbun","WADMKC":"Maduran","WADMKK":"Lamongan"},"geometry":{"type":"Point","coordinates":[112.3,-7.0]}},{"type":"Feature","properties":{"Line":"S120","Sp":"1384.50000000000","X":"639300.50000000000","Y":"9223025.30000000075","NAMOBJ":"Brumbun","WADMKC":"Maduran","WADMKK":"Lamongan"},"geometry":{"type":"Point","coordinates":[112.3,-7.0]}},{"type":"Feature","properties":{"Line":"S120","Sp":"1388.50000000000","X":"639300.50000000000","Y":"9222975.30000000075","NAMOBJ":"Brumbun","WADMKC":"Maduran","WADMKK":"Lamongan"},"geometry":{"type":"Point","coordinates":[112.3,-7.0]}},{"type":"Feature","properties":{"Line":"S120","Sp":"1392.50000000000","X":"639300.50000000000","Y":"9222925.30000000075","NAMOBJ":"Brumbun","WADMKC":"Maduran","WADMKK":"Lamongan"},"geometry":{"type":"Point","coordinates":[112.3,-7.0]}},{"type":"Feature","properties":{"Line":"S120","Sp":"1396.50000000000","X":"639300.50000000000","Y":"9222875.30000000075","NAMOBJ":"Brumbun","WADMKC":"Maduran","WADMKK":"Lamongan"},"geometry":{"type":"Point","coordinates":[112.3,-7.0]}},{"type":"Feature","properties":{"Line":"S120","Sp":"1400.50000000000","X":"639300.50000000000","Y":"9222825.30000000075","NAMOBJ":"Brumbun","WADMKC":"Maduran","WADMKK":"Lamongan"},"geometry":{"type":"Point","coordinates":[112.3,-7.0]}},{"type":"Feature","properties":{"Line":"S118","Sp":"1528.50000000000","X":"638300.50000000000","Y":"9221275.30000000075","NAMOBJ":"Jugo","WADMKC":"Sekaran","WADMKK":"Lamongan"},"geometry":{"type":"Point","coordinates":[112.3,-7.0]}},{"type":"Feature","properties":{"Line":"S118","Sp":"1532.50000000000","X":"638300.50000000000","Y":"9221225.30000000075","NAMOBJ":"Jugo","WADMKC":"Sekaran","WADMKK":"Lamongan"},"geometry":{"type":"Point","coordinates":[112.3,-7.0]}},{"type":"Feature","properties":{"Line":"S118","Sp":"1536.50000000000","X":"638300.50000000000","Y":"9221175.30000000075","NAMOBJ":"Jugo","WADMKC":"Sekaran","WADMKK":"Lamongan"},"geometry":{"type":"Point","coordinates":[112.3,-7.0]}},{"type":"Feature","properties":{"Line":"S118","Sp":"1540.50000000000","X":"638300.50000000000","Y":"9221125.30000000075","NAMOBJ":"Jugo","WADMKC":"Sekaran","WADMKK":"Lamongan"},"geometry":{"type":"Point","coordinates":[112.3,-7.0]}},{"type":"Feature","properties":{"Line":"S118","Sp":"1544.50000000000","X":"638300.50000000000","Y":"9221075.30000000075","NAMOBJ":"Jugo","WADMKC":"Sekaran","WADMKK":"Lamongan"},"geometry":{"type":"Point","coordinates":[112.3,-7.0]}},{"type":"Feature","properties":{"Line":"S118","Sp":"1548.50000000000","X":"638300.50000000000","Y":"9221025.30000000075","NAMOBJ":"Jugo","WADMKC":"Sekaran","WADMKK":"Lamongan"},"geometry":{"type":"Point","coordinates":[112.3,-7.0]}},{"type":"Feature","properties":{"Line":"S118","Sp":"1552.50000000000","X":"638300.50000000000","Y":"9220975.30000000075","NAMOBJ":"Jugo","WADMKC":"Sekaran","WADMKK":"Lamongan"},"geometry":{"type":"Point","coordinates":[112.3,-7.0]}},{"type":"Feature","properties":{"Line":"S118","Sp":"1556.50000000000","X":"638300.50000000000","Y":"9220925.30000000075","NAMOBJ":"Jugo","WADMKC":"Sekaran","WADMKK":"Lamongan"},"geometry":{"type":"Point","coordinates":[112.3,-7.0]}},{"type":"Feature","properties":{"Line":"S125","Sp":"2036.50000000000","X":"638075.50000000000","Y":"9220800.30000000075","NAMOBJ":"Jugo","WADMKC":"Sekaran","WADMKK":"Lamongan"},"geometry":{"type":"Point","coordinates":[112.3,-7.0]}},{"type":"Feature","properties":{"Line":"S125","Sp":"2040.50000000000","X":"638125.50000000000","Y":"9220800.30000000075","NAMOBJ":"Jugo","WADMKC":"Sekaran","WADMKK":"Lamongan"},"geometry":{"type":"Point","coordinates":[112.3,-7.0]}},{"type":"Feature","properties":{"Line":"S125","Sp":"2044.50000000000","X":"638175.50000000000","Y":"9220800.30000000075","NAMOBJ":"Jugo","WADMKC":"Sekaran","WADMKK":"Lamongan"},"geometry":{"type":"Point","coordinates":[112.3,-7.0]}},{"type":"Feature","properties":{"Line":"S125","Sp":"2048.50000000000","X":"638225.50000000000","Y":"9220800.30000000075","NAMOBJ":"Jugo","WADMKC":"Sekaran","WADMKK":"Lamongan"},"geometry":{"type":"Point","coordinates":[112.3,-7.0]}},{"type":"Feature","properties":{"Line":"S125","Sp":"2052.50000000000","X":"638275.50000000000","Y":"9220800.30000000075","NAMOBJ":"Jugo","WADMKC":"Sekaran","WADMKK":"Lamongan"},"geometry":{"type":"Point","coordinates":[112.3,-7.0]}},{"type":"Feature","properties":{"Line":"S122","Sp":"1536.50000000000","X":"640300.50000000000","Y":"9221675.30000000075","NAMOBJ":"Karang","WADMKC":"Sekaran","WADMKK":"Lamongan"},"geometry":{"type":"Point","coordinates":[112.3,-7.0]}},{"type":"Feature","properties":{"Line":"S122","Sp":"1540.50000000000","X":"640300.50000000000","Y":"9221625.30000000075","NAMOBJ":"Karang","WADMKC":"Sekaran","WADMKK":"Lamongan"},"geometry":{"type":"Point","coordinates":[112.3,-7.0]}},{"type":"Feature","properties":{"Line":"S122","Sp":"1544.50000000000","X":"640300.50000000000","Y":"9221575.30000000075","NAMOBJ":"Karang","WADMKC":"Sekaran","WADMKK":"Lamongan"},"geometry":{"type":"Point","coordinates":[112.3,-7.0]}},{"type":"Feature","properties":{"Line":"S122","Sp":"1548.50000000000","X":"640300.50000000000","Y":"9221525.30000000075","NAMOBJ":"Karang","WADMKC":"Sekaran","WADMKK":"Lamongan"},"geometry":{"type":"Point","coordinates":[112.3,-7.0]}},{"type":"Feature","properties":{"Line":"S122","Sp":"1552.50000000000","X":"640300.50000000000","Y":"9221475.30000000075","NAMOBJ":"Karang","WADMKC":"Sekaran","WADMKK":"Lamongan"},"geometry":{"type":"Point","coordinates":[112.3,-7.0]}},{"type":"Feature","properties":{"Line":"S122","Sp":"1556.50000000000","X":"640300.50000000000","Y":"9221425.30000000075","NAMOBJ":"Karang","WADMKC":"Sekaran","WADMKK":"Lamongan"},"geometry":{"type":"Point","coordinates":[112.3,-7.0]}},{"type":"Feature","properties":{"Line":"S124","Sp":"1576.50000000000","X":"641300.50000000000","Y":"9221725.30000000075","NAMOBJ":"Karang","WADMKC":"Sekaran","WADMKK":"Lamongan"},"geometry":{"type":"Point","coordinates":[112.3,-7.0]}},{"type":"Feature","properties":{"Line":"S124","Sp":"1580.50000000000","X":"641300.50000000000","Y":"9221675.30000000075","NAMOBJ":"Karang","WADMKC":"Sekaran","WADMKK":"Lamongan"},"geometry":{"type":"Point","coordinates":[112.3,-7.0]}},{"type":"Feature","properties":{"Line":"S124","Sp":"1584.50000000000","X":"641300.50000000000","Y":"9221625.30000000075","NAMOBJ":"Karang","WADMKC":"Sekaran","WADMKK":"Lamongan"},"geometry":{"type":"Point","coordinates":[112.3,-7.0]}},{"type":"Feature","properties":{"Line":"S124","Sp":"1588.50000000000","X":"641300.50000000000","Y":"9221575.30000000075","NAMOBJ":"Karang","WADMKC":"Sekaran","WADMKK":"Lamongan"},"geometry":{"type":"Point","coordinates":[112.3,-7.0]}},{"type":"Feature","properties":{"Line":"S124","Sp":"1592.50000000000","X":"641300.50000000000","Y":"9221525.30000000075","NAMOBJ":"Karang","WADMKC":"Sekaran","WADMKK":"Lamongan"},"geometry":{"type":"Point","coordinates":[112.3,-7.0]}},{"type":"Feature","properties":{"Line":"S122","Sp":"1560.50000000000","X":"640300.50000000000","Y":"9221375.30000000075","NAMOBJ":"Kembangan","WADMKC":"Sekaran","WADMKK":"Lamongan"},"geometry":{"type":"Point","coordinates":[112.3,-7.0]}},{"type":"Feature","properties":{"Line":"S122","Sp":"1564.50000000000","X":"640300.50000000000","Y":"9221325.30000000075","NAMOBJ":"Kembangan","WADMKC":"Sekaran","WADMKK":"Lamongan"},"geometry":{"type":"Point","coordinates":[112.3,-7.0]}},{"type":"Feature","properties":{"Line":"S122","Sp":"1568.50000000000","X":"640300.50000000000","Y":"9221275.30000000075","NAMOBJ":"Kembangan","WADMKC":"Sekaran","WADMKK":"Lamongan"},"geometry":{"type":"Point","coordinates":[112.3,-7.0]}},{"type":"Feature","properties":{"Line":"S124","Sp":"1596.50000000000","X":"641300.50000000000","Y":"9221475.30000000075","NAMOBJ":"Kembangan","WADMKC":"Sekaran","WADMKK":"Lamongan"},"geometry":{"type":"Point","coordinates":[112.3,-7.0]}},{"type":"Feature","properties":{"Line":"S124","Sp":"1600.50000000000","X":"641300.50000000000","Y":"9221425.30000000075","NAMOBJ":"Kembangan","WADMKC":"Sekaran","WADMKK":"Lamongan"},"geometry":{"type":"Point","coordinates":[112.3,-7.0]}},{"type":"Feature","properties":{"Line":"S124","Sp":"1604.50000000000","X":"641300.50000000000","Y":"9221375.30000000075","NAMOBJ":"Kembangan","WADMKC":"Sekaran","WADMKK":"Lamongan"},"geometry":{"type":"Point","coordinates":[112.3,-7.0]}},{"type":"Feature","properties":{"Line":"S124","Sp":"1608.50000000000","X":"641300.50000000000","Y":"9221325.30000000075","NAMOBJ":"Kembangan","WADMKC":"Sekaran","WADMKK":"Lamongan"},"geometry":{"type":"Point","coordinates":[112.3,-7.0]}},{"type":"Feature","properties":{"Line":"S124","Sp":"1612.50000000000","X":"641300.50000000000","Y":"9221275.30000000075","NAMOBJ":"Kembangan","WADMKC":"Sekaran","WADMKK":"Lamongan"},"geometry":{"type":"Point","coordinates":[112.3,-7.0]}},{"type":"Feature","properties":{"Line":"S124","Sp":"1616.50000000000","X":"641300.50000000000","Y":"9221225.30000000075","NAMOBJ":"Kembangan","WADMKC":"Sekaran","WADMKK":"Lamongan"},"geometry":{"type":"Point","coordinates":[112.3,-7.0]}},{"type":"Feature","properties":{"Line":"S124","Sp":"1620.50000000000","X":"641300.50000000000","Y":"9221175.30000000075","NAMOBJ":"Kembangan","WADMKC":"Sekaran","WADMKK":"Lamongan"},"geometry":{"type":"Point","coordinates":[112.3,-7.0]}},{"type":"Feature","properties":{"Line":"S120","Sp":"1360.50000000000","X":"639300.50000000000","Y":"9223325.30000000075","NAMOBJ":"Klagensrampat","WADMKC":"Maduran","WADMKK":"Lamongan"},"geometry":{"type":"Point","coordinates":[112.3,-7.0]}},{"type":"Feature","properties":{"Line":"S120","Sp":"1364.50000000000","X":"639300.50000000000","Y":"9223275.30000000075","NAMOBJ":"Klagensrampat","WADMKC":"Maduran","WADMKK":"Lamongan"},"geometry":{"type":"Point","coordinates":[112.3,-7.0]}},{"type":"Feature","properties":{"Line":"S120","Sp":"1368.50000000000","X":"639300.50000000000","Y":"9223225.30000000075","NAMOBJ":"Klagensrampat","WADMKC":"Maduran","WADMKK":"Lamongan"},"geometry":{"type":"Point","coordinates":[112.3,-7.0]}},{"type":"Feature","properties":{"Line":"S120","Sp":"1372.50000000000","X":"639300.50000000000","Y":"9223175.30000000075","NAMOBJ":"Klagensrampat","WADMKC":"Maduran","WADMKK":"Lamongan"},"geometry":{"type":"Point","coordinates":[112.3,-7.0]}},{"type":"Feature","properties":{"Line":"S120","Sp":"1376.50000000000","X":"639300.50000000000","Y":"9223125.30000000075","NAMOBJ":"Klagensrampat","WADMKC":"Maduran","WADMKK":"Lamongan"},"geometry":{"type":"Point","coordinates":[112.3,-7.0]}},{"type":"Feature","properties":{"Line":"S120","Sp":"1380.50000000000","X":"639300.50000000000","Y":"9223075.30000000075","NAMOBJ":"Klagensrampat","WADMKC":"Maduran","WADMKK":"Lamongan"},"geometry":{"type":"Point","coordinates":[112.3,-7.0]}},{"type":"Feature","properties":{"Line":"S122","Sp":"1572.50000000000","X":"640300.50000000000","Y":"9221225.30000000075","NAMOBJ":"Latek","WADMKC":"Sekaran","WADMKK":"Lamongan"},"geometry":{"type":"Point","coordinates":[112.3,-7.0]}},{"type":"Feature","properties":{"Line":"S122","Sp":"1576.50000000000","X":"640300.50000000000","Y":"9221175.30000000075","NAMOBJ":"Latek","WADMKC":"Sekaran","WADMKK":"Lamongan"},"geometry":{"type":"Point","coordinates":[112.3,-7.0]}},{"type":"Feature","properties":{"Line":"S122","Sp":"1580.50000000000","X":"640300.50000000000","Y":"9221125.30000000075","NAMOBJ":"Latek","WADMKC":"Sekaran","WADMKK":"Lamongan"},"geometry":{"type":"Point","coordinates":[112.3,-7.0]}},{"type":"Feature","properties":{"Line":"S122","Sp":"1584.50000000000","X":"640300.50000000000","Y":"9221075.30000000075","NAMOBJ":"Latek","WADMKC":"Sekaran","WADMKK":"Lamongan"},"geometry":{"type":"Point","coordinates":[112.3,-7.0]}},{"type":"Feature","properties":{"Line":"S122","Sp":"1588.50000000000","X":"640300.50000000000","Y":"9221025.30000000075","NAMOBJ":"Latek","WADMKC":"Sekaran","WADMKK":"Lamongan"},"geometry":{"type":"Point","coordinates":[112.3,-7.0]}},{"type":"Feature","properties":{"Line":"S122","Sp":"1592.50000000000","X":"640300.50000000000","Y":"9220975.30000000075","NAMOBJ":"Latek","WADMKC":"Sekaran","WADMKK":"Lamongan"},"geometry":{"type":"Point","coordinates":[112.3,-7.0]}},{"type":"Feature","properties":{"Line":"S122","Sp":"1596.50000000000","X":"640300.50000000000","Y":"9220925.30000000075","NAMOBJ":"Latek","WADMKC":"Sekaran","WADMKK":"Lamongan"},"geometry":{"type":"Point","coordinates":[112.3,-7.0]}},{"type":"Feature","properties":{"Line":"S122","Sp":"1600.50000000000","X":"640300.50000000000","Y":"9220875.30000000075","NAMOBJ":"Latek","WADMKC":"Sekaran","WADMKK":"Lamongan"},"geometry":{"type":"Point","coordinates":[112.3,-7.0]}},{"type":"Feature","properties":{"Line":"S122","Sp":"1604.50000000000","X":"640300.50000000000","Y":"9220825.30000000075","NAMOBJ":"Latek","WADMKC":"Sekaran","WADMKK":"Lamongan"},"geometry":{"type":"Point","coordinates":[112.3,-7.0]}},{"type":"Feature","properties":{"Line":"S122","Sp":"1608.50000000000","X":"640300.50000000000","Y":"9220775.30000000075","NAMOBJ":"Latek","WADMKC":"Sekaran","WADMKK":"Lamongan"},"geometry":{"type":"Point","coordinates":[112.3,-7.0]}},{"type":"Feature","properties":{"Line":"S122","Sp":"1612.50000000000","X":"640300.50000000000","Y":"9220725.30000000075","NAMOBJ":"Latek","WADMKC":"Sekaran","WADMKK":"Lamongan"},"geometry":{"type":"Point","coordinates":[112.3,-7.0]}},{"type":"Feature","properties":{"Line":"S122","Sp":"1616.50000000000","X":"640300.50000000000","Y":"9220675.30000000075","NAMOBJ":"Latek","WADMKC":"Sekaran","WADMKK":"Lamongan"},"geometry":{"type":"Point","coordinates":[112.3,-7.0]}},{"type":"Feature","properties":{"Line":"S125","Sp":"2152.50000000000","X":"639525.50000000000","Y":"9220800.30000000075","NAMOBJ":"Latek","WADMKC":"Sekaran","WADMKK":"Lamongan"},"geometry":{"type":"Point","coordinates":[112.3,-7.0]}},{"type":"Feature","properties":{"Line":"S125","Sp":"2156.50000000000","X":"639575.50000000000","Y":"9220800.30000000075","NAMOBJ":"Latek","WADMKC":"Sekaran","WADMKK":"Lamongan"},"geometry":{"type":"Point","coordinates":[112.3,-7.0]}},{"type":"Feature","properties":{"Line":"S125","Sp":"2160.50000000000","X":"639625.50000000000","Y":"9220800.30000000075","NAMOBJ":"Latek","WADMKC":"Sekaran","WADMKK":"Lamongan"},"geometry":{"type":"Point","coordinates":[112.3,-7.0]}},{"type":"Feature","properties":{"Line":"S125","Sp":"2164.50000000000","X":"639675.50000000000","Y":"9220800.30000000075","NAMOBJ":"Latek","WADMKC":"Sekaran","WADMKK":"Lamongan"},"geometry":{"type":"Point","coordinates":[112.3,-7.0]}},{"type":"Feature","properties":{"Line":"S125","Sp":"2168.50000000000","X":"639725.50000000000","Y":"9220800.30000000075","NAMOBJ":"Latek","WADMKC":"Sekaran","WADMKK":"Lamongan"},"geometry":{"type":"Point","coordinates":[112.3,-7.0]}},{"type":"Feature","properties":{"Line":"S125","Sp":"2172.50000000000","X":"639775.50000000000","Y":"9220800.30000000075","NAMOBJ":"Latek","WADMKC":"Sekaran","WADMKK":"Lamongan"},"geometry":{"type":"Point","coordinates":[112.3,-7.0]}},{"type":"Feature","properties":{"Line":"S125","Sp":"2176.50000000000","X":"639825.50000000000","Y":"9220800.30000000075","NAMOBJ":"Latek","WADMKC":"Sekaran","WADMKK":"Lamongan"},"geometry":{"type":"Point","coordinates":[112.3,-7.0]}},{"type":"Feature","properties":{"Line":"S125","Sp":"2180.50000000000","X":"639875.50000000000","Y":"9220800.30000000075","NAMOBJ":"Latek","WADMKC":"Sekaran","WADMKK":"Lamongan"},"geometry":{"type":"Point","coordinates":[112.3,-7.0]}},{"type":"Feature","properties":{"Line":"S125","Sp":"2184.50000000000","X":"639925.50000000000","Y":"9220800.30000000075","NAMOBJ":"Latek","WADMKC":"Sekaran","WADMKK":"Lamongan"},"geometry":{"type":"Point","coordinates":[112.3,-7.0]}},{"type":"Feature","properties":{"Line":"S125","Sp":"2188.50000000000","X":"639975.50000000000","Y":"9220800.30000000075","NAMOBJ":"Latek","WADMKC":"Sekaran","WADMKK":"Lamongan"},"geometry":{"type":"Point","coordinates":[112.3,-7.0]}},{"type":"Feature","properties":{"Line":"S125","Sp":"2192.50000000000","X":"640025.50000000000","Y":"9220800.30000000075","NAMOBJ":"Latek","WADMKC":"Sekaran","WADMKK":"Lamongan"},"geometry":{"type":"Point","coordinates":[112.3,-7.0]}},{"type":"Feature","properties":{"Line":"S125","Sp":"2196.50000000000","X":"640075.50000000000","Y":"9220800.30000000075","NAMOBJ":"Latek","WADMKC":"Sekaran","WADMKK":"Lamongan"},"geometry":{"type":"Point","coordinates":[112.3,-7.0]}},{"type":"Feature","properties":{"Line":"S125","Sp":"2200.50000000000","X":"640125.50000000000","Y":"9220800.30000000075","NAMOBJ":"Latek","WADMKC":"Sekaran","WADMKK":"Lamongan"},"geometry":{"type":"Point","coordinates":[112.3,-7.0]}},{"type":"Feature","properties":{"Line":"S125","Sp":"2204.50000000000","X":"640175.50000000000","Y":"9220800.30000000075","NAMOBJ":"Latek","WADMKC":"Sekaran","WADMKK":"Lamongan"},"geometry":{"type":"Point","coordinates":[112.3,-7.0]}},{"type":"Feature","properties":{"Line":"S125","Sp":"2208.50000000000","X":"640225.50000000000","Y":"9220800.30000000075","NAMOBJ":"Latek","WADMKC":"Sekaran","WADMKK":"Lamongan"},"geometry":{"type":"Point","coordinates":[112.3,-7.0]}},{"type":"Feature","properties":{"Line":"S125","Sp":"2212.50000000000","X":"640275.50000000000","Y":"9220800.30000000075","NAMOBJ":"Latek","WADMKC":"Sekaran","WADMKK":"Lamongan"},"geometry":{"type":"Point","coordinates":[112.3,-7.0]}},{"type":"Feature","properties":{"Line":"S120","Sp":"1516.50000000000","X":"639300.50000000000","Y":"9221375.30000000075","NAMOBJ":"Manyar","WADMKC":"Sekaran","WADMKK":"Lamongan"},"geometry":{"type":"Point","coordinates":[112.3,-7.0]}},{"type":"Feature","properties":{"Line":"S120","Sp":"1520.50000000000","X":"639300.50000000000","Y":"9221325.30000000075","NAMOBJ":"Manyar","WADMKC":"Sekaran","WADMKK":"Lamongan"},"geometry":{"type":"Point","coordinates":[112.3,-7.0]}},{"type":"Feature","properties":{"Line":"S120","Sp":"1524.50000000000","X":"639300.50000000000","Y":"9221275.30000000075","NAMOBJ":"Manyar","WADMKC":"Sekaran","WADMKK":"Lamongan"},"geometry":{"type":"Point","coordinates":[112.3,-7.0]}},{"type":"Feature","properties":{"Line":"S120","Sp":"1528.50000000000","X":"639300.50000000000","Y":"9221225.30000000075","NAMOBJ":"Manyar","WADMKC":"Sekaran","WADMKK":"Lamongan"},"geometry":{"type":"Point","coordinates":[112.3,-7.0]}},{"type":"Feature","properties":{"Line":"S120","Sp":"1532.50000000000","X":"639300.50000000000","Y":"9221175.30000000075","NAMOBJ":"Manyar","WADMKC":"Sekaran","WADMKK":"Lamongan"},"geometry":{"type":"Point","coordinates":[112.3,-7.0]}},{"type":"Feature","properties":{"Line":"S120","Sp":"1536.50000000000","X":"639300.50000000000","Y":"9221125.30000000075","NAMOBJ":"Manyar","WADMKC":"Sekaran","WADMKK":"Lamongan"},"geometry":{"type":"Point","coordinates":[112.3,-7.0]}},{"type":"Feature","properties":{"Line":"S120","Sp":"1540.50000000000","X":"639300.50000000000","Y":"9221075.30000000075","NAMOBJ":"Manyar","WADMKC":"Sekaran","WADMKK":"Lamongan"},"geometry":{"type":"Point","coordinates":[112.3,-7.0]}},{"type":"Feature","properties":{"Line":"S120","Sp":"1544.50000000000","X":"639300.50000000000","Y":"9221025.30000000075","NAMOBJ":"Manyar","WADMKC":"Sekaran","WADMKK":"Lamongan"},"geometry":{"type":"Point","coordinates":[112.3,-7.0]}},{"type":"Feature","properties":{"Line":"S120","Sp":"1548.50000000000","X":"639300.50000000000","Y":"9220975.30000000075","NAMOBJ":"Manyar","WADMKC":"Sekaran","WADMKK":"Lamongan"},"geometry":{"type":"Point","coordinates":[112.3,-7.0]}},{"type":"Feature","properties":{"Line":"S120","Sp":"1552.50000000000","X":"639300.50000000000","Y":"9220925.30000000075","NAMOBJ":"Manyar","WADMKC":"Sekaran","WADMKK":"Lamongan"},"geometry":{"type":"Point","coordinates":[112.3,-7.0]}},{"type":"Feature","properties":{"Line":"S120","Sp":"1556.50000000000","X":"639300.50000000000","Y":"9220875.30000000075","NAMOBJ":"Manyar","WADMKC":"Sekaran","WADMKK":"Lamongan"},"geometry":{"type":"Point","coordinates":[112.3,-7.0]}},{"type":"Feature","properties":{"Line":"S120","Sp":"1560.50000000000","X":"639300.50000000000","Y":"9220825.30000000075","NAMOBJ":"Manyar","WADMKC":"Sekaran","WADMKK":"Lamongan"},"geometry":{"type":"Point","coordinates":[112.3,-7.0]}},{"type":"Feature","properties":{"Line":"S120","Sp":"1564.50000000000","X":"639300.50000000000","Y":"9220775.30000000075","NAMOBJ":"Manyar","WADMKC":"Sekaran","WADMKK":"Lamongan"},"geometry":{"type":"Point","coordinates":[112.3,-7.0]}},{"type":"Feature","properties":{"Line":"S120","Sp":"1568.50000000000","X":"639300.50000000000","Y":"9220725.30000000075","NAMOBJ":"Manyar","WADMKC":"Sekaran","WADMKK":"Lamongan"},"geometry":{"type":"Point","coordinates":[112.3,-7.0]}},{"type":"Feature","properties":{"Line":"S120","Sp":"1572.50000000000","X":"639300.50000000000","Y":"9220675.30000000075","NAMOBJ":"Manyar","WADMKC":"Sekaran","WADMKK":"Lamongan"},"geometry":{"type":"Point","coordinates":[112.3,-7.0]}},{"type":"Feature","properties":{"Line":"S120","Sp":"1576.50000000000","X":"639300.50000000000","Y":"9220625.30000000075","NAMOBJ":"Manyar","WADMKC":"Sekaran","WADMKK":"Lamongan"},"geometry":{"type":"Point","coordinates":[112.3,-7.0]}},{"type":"Feature","properties":{"Line":"S120","Sp":"1580.50000000000","X":"639300.50000000000","Y":"9220575.30000000075","NAMOBJ":"Manyar","WADMKC":"Sekaran","WADMKK":"Lamongan"},"geometry":{"type":"Point","coordinates":[112.3,-7.0]}},{"type":"Feature","properties":{"Line":"S125","Sp":"2080.50000000000","X":"638625.50000000000","Y":"9220800.30000000075","NAMOBJ":"Manyar","WADMKC":"Sekaran","WADMKK":"Lamongan"},"geometry":{"type":"Point","coordinates":[112.3,-7.0]}},{"type":"Feature","properties":{"Line":"S125","Sp":"2084.50000000000","X":"638675.50000000000","Y":"9220800.30000000075","NAMOBJ":"Manyar","WADMKC":"Sekaran","WADMKK":"Lamongan"},"geometry":{"type":"Point","coordinates":[112.3,-7.0]}},{"type":"Feature","properties":{"Line":"S125","Sp":"2088.50000000000","X":"638725.50000000000","Y":"9220800.30000000075","NAMOBJ":"Manyar","WADMKC":"Sekaran","WADMKK":"Lamongan"},"geometry":{"type":"Point","coordinates":[112.3,-7.0]}},{"type":"Feature","properties":{"Line":"S125","Sp":"2092.50000000000","X":"638775.50000000000","Y":"9220800.30000000075","NAMOBJ":"Manyar","WADMKC":"Sekaran","WADMKK":"Lamongan"},"geometry":{"type":"Point","coordinates":[112.3,-7.0]}},{"type":"Feature","properties":{"Line":"S125","Sp":"2096.50000000000","X":"638825.50000000000","Y":"9220800.30000000075","NAMOBJ":"Manyar","WADMKC":"Sekaran","WADMKK":"Lamongan"},"geometry":{"type":"Point","coordinates":[112.3,-7.0]}},{"type":"Feature","properties":{"Line":"S125","Sp":"2100.50000000000","X":"638875.50000000000","Y":"9220800.30000000075","NAMOBJ":"Manyar","WADMKC":"Sekaran","WADMKK":"Lamongan"},"geometry":{"type":"Point","coordinates":[112.3,-7.0]}},{"type":"Feature","properties":{"Line":"S125","Sp":"2104.50000000000","X":"638925.50000000000","Y":"9220800.30000000075","NAMOBJ":"Manyar","WADMKC":"Sekaran","WADMKK":"Lamongan"},"geometry":{"type":"Point","coordinates":[112.3,-7.0]}},{"type":"Feature","properties":{"Line":"S125","Sp":"2108.50000000000","X":"638975.50000000000","Y":"9220800.30000000075","NAMOBJ":"Manyar","WADMKC":"Sekaran","WADMKK":"Lamongan"},"geometry":{"type":"Point","coordinates":[112.3,-7.0]}},{"type":"Feature","properties":{"Line":"S125","Sp":"2112.50000000000","X":"639025.50000000000","Y":"9220800.30000000075","NAMOBJ":"Manyar","WADMKC":"Sekaran","WADMKK":"Lamongan"},"geometry":{"type":"Point","coordinates":[112.3,-7.0]}},{"type":"Feature","properties":{"Line":"S125","Sp":"2116.50000000000","X":"639075.50000000000","Y":"9220800.30000000075","NAMOBJ":"Manyar","WADMKC":"Sekaran","WADMKK":"Lamongan"},"geometry":{"type":"Point","coordinates":[112.3,-7.0]}},{"type":"Feature","properties":{"Line":"S125","Sp":"2120.50000000000","X":"639125.50000000000","Y":"9220800.30000000075","NAMOBJ":"Manyar","WADMKC":"Sekaran","WADMKK":"Lamongan"},"geometry":{"type":"Point","coordinates":[112.3,-7.0]}},{"type":"Feature","properties":{"Line":"S125","Sp":"2124.50000000000","X":"639175.50000000000","Y":"9220800.30000000075","NAMOBJ":"Manyar","WADMKC":"Sekaran","WADMKK":"Lamongan"},"geometry":{"type":"Point","coordinates":[112.3,-7.0]}},{"type":"Feature","properties":{"Line":"S125","Sp":"2128.50000000000","X":"639225.50000000000","Y":"9220800.30000000075","NAMOBJ":"Manyar","WADMKC":"Sekaran","WADMKK":"Lamongan"},"geometry":{"type":"Point","coordinates":[112.3,-7.0]}},{"type":"Feature","properties":{"Line":"S125","Sp":"2132.50000000000","X":"639275.50000000000","Y":"9220800.30000000075","NAMOBJ":"Manyar","WADMKC":"Sekaran","WADMKK":"Lamongan"},"geometry":{"type":"Point","coordinates":[112.3,-7.0]}},{"type":"Feature","properties":{"Line":"S125","Sp":"2136.50000000000","X":"639325.50000000000","Y":"9220800.30000000075","NAMOBJ":"Manyar","WADMKC":"Sekaran","WADMKK":"Lamongan"},"geometry":{"type":"Point","coordinates":[112.3,-7.0]}},{"type":"Feature","properties":{"Line":"S125","Sp":"2140.50000000000","X":"639375.50000000000","Y":"9220800.30000000075","NAMOBJ":"Manyar","WADMKC":"Sekaran","WADMKK":"Lamongan"},"geometry":{"type":"Point","coordinates":[112.3,-7.0]}},{"type":"Feature","properties":{"Line":"S125","Sp":"2144.50000000000","X":"639425.50000000000","Y":"9220800.30000000075","NAMOBJ":"Manyar","WADMKC":"Sekaran","WADMKK":"Lamongan"},"geometry":{"type":"Point","coordinates":[112.3,-7.0]}},{"type":"Feature","properties":{"Line":"S125","Sp":"2148.50000000000","X":"639475.50000000000","Y":"9220800.30000000075","NAMOBJ":"Manyar","WADMKC":"Sekaran","WADMKK":"Lamongan"},"geometry":{"type":"Point","coordinates":[112.3,-7.0]}},{"type":"Feature","properties":{"Line":"S122","Sp":"1620.50000000000","X":"640300.50000000000","Y":"9220625.30000000075","NAMOBJ":"Miru","WADMKC":"Sekaran","WADMKK":"Lamongan"},"geometry":{"type":"Point","coordinates":[112.3,-7.0]}},{"type":"Feature","properties":{"Line":"S122","Sp":"1624.50000000000","X":"640300.50000000000","Y":"9220575.30000000075","NAMOBJ":"Miru","WADMKC":"Sekaran","WADMKK":"Lamongan"},"geometry":{"type":"Point","coordinates":[112.3,-7.0]}},{"type":"Feature","properties":{"Line":"S124","Sp":"1524.50000000000","X":"641300.50000000000","Y":"9222375.30000000075","NAMOBJ":"Moro","WADMKC":"Sekaran","WADMKK":"Lamongan"},"geometry":{"type":"Point","coordinates":[112.3,-7.0]}},{"type":"Feature","properties":{"Line":"S124","Sp":"1528.50000000000","X":"641300.50000000000","Y":"9222325.30000000075","NAMOBJ":"Moro","WADMKC":"Sekaran","WADMKK":"Lamongan"},"geometry":{"type":"Point","coordinates":[112.3,-7.0]}},{"type":"Feature","properties":{"Line":"S124","Sp":"1532.50000000000","X":"641300.50000000000","Y":"9222275.30000000075","NAMOBJ":"Moro","WADMKC":"Sekaran","WADMKK":"Lamongan"},"geometry":{"type":"Point","coordinates":[112.3,-7.0]}},{"type":"Feature","properties":{"Line":"S124","Sp":"1536.50000000000","X":"641300.50000000000","Y":"9222225.30000000075","NAMOBJ":"Moro","WADMKC":"Sekaran","WADMKK":"Lamongan"},"geometry":{"type":"Point","coordinates":[112.3,-7.0]}},{"type":"Feature","properties":{"Line":"S124","Sp":"1540.50000000000","X":"641300.50000000000","Y":"9222175.30000000075","NAMOBJ":"Moro","WADMKC":"Sekaran","WADMKK":"Lamongan"},"geometry":{"type":"Point","coordinates":[112.3,-7.0]}},{"type":"Feature","properties":{"Line":"S124","Sp":"1544.50000000000","X":"641300.50000000000","Y":"9222125.30000000075","NAMOBJ":"Moro","WADMKC":"Sekaran","WADMKK":"Lamongan"},"geometry":{"type":"Point","coordinates":[112.3,-7.0]}},{"type":"Feature","properties":{"Line":"S124","Sp":"1548.50000000000","X":"641300.50000000000","Y":"9222075.30000000075","NAMOBJ":"Moro","WADMKC":"Sekaran","WADMKK":"Lamongan"},"geometry":{"type":"Point","coordinates":[112.3,-7.0]}},{"type":"Feature","properties":{"Line":"S124","Sp":"1552.50000000000","X":"641300.50000000000","Y":"9222025.30000000075","NAMOBJ":"Moro","WADMKC":"Sekaran","WADMKK":"Lamongan"},"geometry":{"type":"Point","coordinates":[112.3,-7.0]}},{"type":"Feature","properties":{"Line":"S124","Sp":"1556.50000000000","X":"641300.50000000000","Y":"9221975.30000000075","NAMOBJ":"Moro","WADMKC":"Sekaran","WADMKK":"Lamongan"},"geometry":{"type":"Point","coordinates":[112.3,-7.0]}},{"type":"Feature","properties":{"Line":"S124","Sp":"1560.50000000000","X":"641300.50000000000","Y":"9221925.30000000075","NAMOBJ":"Moro","WADMKC":"Sekaran","WADMKK":"Lamongan"},"geometry":{"type":"Point","coordinates":[112.3,-7.0]}},{"type":"Feature","properties":{"Line":"S124","Sp":"1564.50000000000","X":"641300.50000000000","Y":"9221875.30000000075","NAMOBJ":"Moro","WADMKC":"Sekaran","WADMKK":"Lamongan"},"geometry":{"type":"Point","coordinates":[112.3,-7.0]}},{"type":"Feature","properties":{"Line":"S124","Sp":"1568.50000000000","X":"641300.50000000000","Y":"9221825.30000000075","NAMOBJ":"Moro","WADMKC":"Sekaran","WADMKK":"Lamongan"},"geometry":{"type":"Point","coordinates":[112.3,-7.0]}},{"type":"Feature","properties":{"Line":"S124","Sp":"1572.50000000000","X":"641300.50000000000","Y":"9221775.30000000075","NAMOBJ":"Moro","WADMKC":"Sekaran","WADMKK":"Lamongan"},"geometry":{"type":"Point","coordinates":[112.3,-7.0]}},{"type":"Feature","properties":{"Line":"S122","Sp":"1360.50000000000","X":"640300.50000000000","Y":"9223875.30000000075","NAMOBJ":"Pangean","WADMKC":"Maduran","WADMKK":"Lamongan"},"geometry":{"type":"Point","coordinates":[112.3,-7.0]}},{"type":"Feature","properties":{"Line":"S124","Sp":"1360.50000000000","X":"641300.50000000000","Y":"9224425.30000000075","NAMOBJ":"Pangean","WADMKC":"Maduran","WADMKK":"Lamongan"},"geometry":{"type":"Point","coordinates":[112.3,-7.0]}},{"type":"Feature","properties":{"Line":"S124","Sp":"1364.50000000000","X":"641300.50000000000","Y":"9224375.30000000075","NAMOBJ":"Pangean","WADMKC":"Maduran","WADMKK":"Lamongan"},"geometry":{"type":"Point","coordinates":[112.3,-7.0]}},{"type":"Feature","properties":{"Line":"S124","Sp":"1368.50000000000","X":"641300.50000000000","Y":"9224325.30000000075","NAMOBJ":"Pangean","WADMKC":"Maduran","WADMKK":"Lamongan"},"geometry":{"type":"Point","coordinates":[112.3,-7.0]}},{"type":"Feature","properties":{"Line":"S124","Sp":"1372.50000000000","X":"641300.50000000000","Y":"9224275.30000000075","NAMOBJ":"Pangean","WADMKC":"Maduran","WADMKK":"Lamongan"},"geometry":{"type":"Point","coordinates":[112.3,-7.0]}},{"type":"Feature","properties":{"Line":"S124","Sp":"1376.50000000000","X":"641300.50000000000","Y":"9224225.30000000075","NAMOBJ":"Pangean","WADMKC":"Maduran","WADMKK":"Lamongan"},"geometry":{"type":"Point","coordinates":[112.3,-7.0]}},{"type":"Feature","properties":{"Line":"S124","Sp":"1380.50000000000","X":"641300.50000000000","Y":"9224175.30000000075","NAMOBJ":"Pangean","WADMKC":"Maduran","WADMKK":"Lamongan"},"geometry":{"type":"Point","coordinates":[112.3,-7.0]}},{"type":"Feature","properties":{"Line":"S124","Sp":"1384.50000000000","X":"641300.50000000000","Y":"9224125.30000000075","NAMOBJ":"Pangean","WADMKC":"Maduran","WADMKK":"Lamongan"},"geometry":{"type":"Point","coordinates":[112.3,-7.0]}},{"type":"Feature","properties":{"Line":"S124","Sp":"1388.50000000000","X":"641300.50000000000","Y":"9224075.30000000075","NAMOBJ":"Pangean","WADMKC":"Maduran","WADMKK":"Lamongan"},"geometry":{"type":"Point","coordinates":[112.3,-7.0]}},{"type":"Feature","properties":{"Line":"S124","Sp":"1392.50000000000","X":"641300.50000000000","Y":"9224025.30000000075","NAMOBJ":"Pangean","WADMKC":"Maduran","WADMKK":"Lamongan"},"geometry":{"type":"Point","coordinates":[112.3,-7.0]}},{"type":"Feature","properties":{"Line":"S124","Sp":"1396.50000000000","X":"641300.50000000000","Y":"9223975.30000000075","NAMOBJ":"Pangean","WADMKC":"Maduran","WADMKK":"Lamongan"},"geometry":{"type":"Point","coordinates":[112.3,-7.0]}},{"type":"Feature","properties":{"Line":"S124","Sp":"1400.50000000000","X":"641300.50000000000","Y":"9223925.30000000075","NAMOBJ":"Pangean","WADMKC":"Maduran","WADMKK":"Lamongan"},"geometry":{"type":"Point","coordinates":[112.3,-7.0]}},{"type":"Feature","properties":{"Line":"S124","Sp":"1404.50000000000","X":"641300.50000000000","Y":"9223875.30000000075","NAMOBJ":"Pangean","WADMKC":"Maduran","WADMKK":"Lamongan"},"geometry":{"type":"Point","coordinates":[112.3,-7.0]}},{"type":"Feature","properties":{"Line":"S118","Sp":"1560.50000000000","X":"638300.50000000000","Y":"9220875.30000000075","NAMOBJ":"Sekaran","WADMKC":"Sekaran","WADMKK":"Lamongan"},"geometry":{"type":"Point","coordinates":[112.3,-7.0]}},{"type":"Feature","properties":{"Line":"S118","Sp":"1564.50000000000","X":"638300.50000000000","Y":"9220825.30000000075","NAMOBJ":"Sekaran","WADMKC":"Sekaran","WADMKK":"Lamongan"},"geometry":{"type":"Point","coordinates":[112.3,-7.0]}},{"type":"Feature","properties":{"Line":"S118","Sp":"1568.50000000000","X":"638300.50000000000","Y":"9220775.30000000075","NAMOBJ":"Sekaran","WADMKC":"Sekaran","WADMKK":"Lamongan"},"geometry":{"type":"Point","coordinates":[112.3,-7.0]}},{"type":"Feature","properties":{"Line":"S118","Sp":"1572.50000000000","X":"638300.50000000000","Y":"9220725.30000000075","NAMOBJ":"Sekaran","WADMKC":"Sekaran","WADMKK":"Lamongan"},"geometry":{"type":"Point","coordinates":[112.3,-7.0]}},{"type":"Feature","properties":{"Line":"S118","Sp":"1576.50000000000","X":"638300.50000000000","Y":"9220675.30000000075","NAMOBJ":"Sekaran","WADMKC":"Sekaran","WADMKK":"Lamongan"},"geometry":{"type":"Point","coordinates":[112.3,-7.0]}},{"type":"Feature","properties":{"Line":"S118","Sp":"1580.50000000000","X":"638300.50000000000","Y":"9220625.30000000075","NAMOBJ":"Sekaran","WADMKC":"Sekaran","WADMKK":"Lamongan"},"geometry":{"type":"Point","coordinates":[112.3,-7.0]}},{"type":"Feature","properties":{"Line":"S118","Sp":"1584.50000000000","X":"638300.50000000000","Y":"9220575.30000000075","NAMOBJ":"Sekaran","WADMKC":"Sekaran","WADMKK":"Lamongan"},"geometry":{"type":"Point","coordinates":[112.3,-7.0]}},{"type":"Feature","properties":{"Line":"S120","Sp":"1404.50000000000","X":"639300.50000000000","Y":"9222775.30000000075","NAMOBJ":"Sekaran","WADMKC":"Sekaran","WADMKK":"Lamongan"},"geometry":{"type":"Point","coordinates":[112.3,-7.0]}},{"type":"Feature","properties":{"Line":"S120","Sp":"1408.50000000000","X":"639300.50000000000","Y":"9222725.30000000075","NAMOBJ":"Sekaran","WADMKC":"Sekaran","WADMKK":"Lamongan"},"geometry":{"type":"Point","coordinates":[112.3,-7.0]}},{"type":"Feature","properties":{"Line":"S120","Sp":"1412.50000000000","X":"639300.50000000000","Y":"9222675.30000000075","NAMOBJ":"Sekaran","WADMKC":"Sekaran","WADMKK":"Lamongan"},"geometry":{"type":"Point","coordinates":[112.3,-7.0]}},{"type":"Feature","properties":{"Line":"S120","Sp":"1416.50000000000","X":"639300.50000000000","Y":"9222625.30000000075","NAMOBJ":"Sekaran","WADMKC":"Sekaran","WADMKK":"Lamongan"},"geometry":{"type":"Point","coordinates":[112.3,-7.0]}},{"type":"Feature","properties":{"Line":"S120","Sp":"1420.50000000000","X":"639300.50000000000","Y":"9222575.30000000075","NAMOBJ":"Sekaran","WADMKC":"Sekaran","WADMKK":"Lamongan"},"geometry":{"type":"Point","coordinates":[112.3,-7.0]}},{"type":"Feature","properties":{"Line":"S120","Sp":"1424.50000000000","X":"639300.50000000000","Y":"9222525.30000000075","NAMOBJ":"Sekaran","WADMKC":"Sekaran","WADMKK":"Lamongan"},"geometry":{"type":"Point","coordinates":[112.3,-7.0]}},{"type":"Feature","properties":{"Line":"S120","Sp":"1428.50000000000","X":"639300.50000000000","Y":"9222475.30000000075","NAMOBJ":"Sekaran","WADMKC":"Sekaran","WADMKK":"Lamongan"},"geometry":{"type":"Point","coordinates":[112.3,-7.0]}},{"type":"Feature","properties":{"Line":"S120","Sp":"1432.50000000000","X":"639300.50000000000","Y":"9222425.30000000075","NAMOBJ":"Sekaran","WADMKC":"Sekaran","WADMKK":"Lamongan"},"geometry":{"type":"Point","coordinates":[112.3,-7.0]}},{"type":"Feature","properties":{"Line":"S120","Sp":"1436.50000000000","X":"639300.50000000000","Y":"9222375.30000000075","NAMOBJ":"Sekaran","WADMKC":"Sekaran","WADMKK":"Lamongan"},"geometry":{"type":"Point","coordinates":[112.3,-7.0]}},{"type":"Feature","properties":{"Line":"S120","Sp":"1440.50000000000","X":"639300.50000000000","Y":"9222325.30000000075","NAMOBJ":"Sekaran","WADMKC":"Sekaran","WADMKK":"Lamongan"},"geometry":{"type":"Point","coordinates":[112.3,-7.0]}},{"type":"Feature","properties":{"Line":"S120","Sp":"1444.50000000000","X":"639300.50000000000","Y":"9222275.30000000075","NAMOBJ":"Sekaran","WADMKC":"Sekaran","WADMKK":"Lamongan"},"geometry":{"type":"Point","coordinates":[112.3,-7.0]}},{"type":"Feature","properties":{"Line":"S120","Sp":"1448.50000000000","X":"639300.50000000000","Y":"9222225.30000000075","NAMOBJ":"Sekaran","WADMKC":"Sekaran","WADMKK":"Lamongan"},"geometry":{"type":"Point","coordinates":[112.3,-7.0]}},{"type":"Feature","properties":{"Line":"S120","Sp":"1452.50000000000","X":"639300.50000000000","Y":"9222175.30000000075","NAMOBJ":"Sekaran","WADMKC":"Sekaran","WADMKK":"Lamongan"},"geometry":{"type":"Point","coordinates":[112.3,-7.0]}},{"type":"Feature","properties":{"Line":"S120","Sp":"1456.50000000000","X":"639300.50000000000","Y":"9222125.30000000075","NAMOBJ":"Sekaran","WADMKC":"Sekaran","WADMKK":"Lamongan"},"geometry":{"type":"Point","coordinates":[112.3,-7.0]}},{"type":"Feature","properties":{"Line":"S120","Sp":"1460.50000000000","X":"639300.50000000000","Y":"9222075.30000000075","NAMOBJ":"Sekaran","WADMKC":"Sekaran","WADMKK":"Lamongan"},"geometry":{"type":"Point","coordinates":[112.3,-7.0]}},{"type":"Feature","properties":{"Line":"S120","Sp":"1464.50000000000","X":"639300.50000000000","Y":"9222025.30000000075","NAMOBJ":"Sekaran","WADMKC":"Sekaran","WADMKK":"Lamongan"},"geometry":{"type":"Point","coordinates":[112.3,-7.0]}},{"type":"Feature","properties":{"Line":"S120","Sp":"1468.50000000000","X":"639300.50000000000","Y":"9221975.30000000075","NAMOBJ":"Sekaran","WADMKC":"Sekaran","WADMKK":"Lamongan"},"geometry":{"type":"Point","coordinates":[112.3,-7.0]}},{"type":"Feature","properties":{"Line":"S120","Sp":"1472.50000000000","X":"639300.50000000000","Y":"9221925.30000000075","NAMOBJ":"Sekaran","WADMKC":"Sekaran","WADMKK":"Lamongan"},"geometry":{"type":"Point","coordinates":[112.3,-7.0]}},{"type":"Feature","properties":{"Line":"S120","Sp":"1476.50000000000","X":"639300.50000000000","Y":"9221875.30000000075","NAMOBJ":"Sekaran","WADMKC":"Sekaran","WADMKK":"Lamongan"},"geometry":{"type":"Point","coordinates":[112.3,-7.0]}},{"type":"Feature","properties":{"Line":"S120","Sp":"1480.50000000000","X":"639300.50000000000","Y":"9221825.30000000075","NAMOBJ":"Sekaran","WADMKC":"Sekaran","WADMKK":"Lamongan"},"geometry":{"type":"Point","coordinates":[112.3,-7.0]}},{"type":"Feature","properties":{"Line":"S120","Sp":"1484.50000000000","X":"639300.50000000000","Y":"9221775.30000000075","NAMOBJ":"Sekaran","WADMKC":"Sekaran","WADMKK":"Lamongan"},"geometry":{"type":"Point","coordinates":[112.3,-7.0]}},{"type":"Feature","properties":{"Line":"S120","Sp":"1488.50000000000","X":"639300.50000000000","Y":"9221725.30000000075","NAMOBJ":"Sekaran","WADMKC":"Sekaran","WADMKK":"Lamongan"},"geometry":{"type":"Point","coordinates":[112.3,-7.0]}},{"type":"Feature","properties":{"Line":"S120","Sp":"1492.50000000000","X":"639300.50000000000","Y":"9221675.30000000075","NAMOBJ":"Sekaran","WADMKC":"Sekaran","WADMKK":"Lamongan"},"geometry":{"type":"Point","coordinates":[112.3,-7.0]}},{"type":"Feature","properties":{"Line":"S120","Sp":"1496.50000000000","X":"639300.50000000000","Y":"9221625.30000000075","NAMOBJ":"Sekaran","WADMKC":"Sekaran","WADMKK":"Lamongan"},"geometry":{"type":"Point","coordinates":[112.3,-7.0]}},{"type":"Feature","properties":{"Line":"S120","Sp":"1500.50000000000","X":"639300.50000000000","Y":"9221575.30000000075","NAMOBJ":"Sekaran","WADMKC":"Sekaran","WADMKK":"Lamongan"},"geometry":{"type":"Point","coordinates":[112.3,-7.0]}},{"type":"Feature","properties":{"Line":"S120","Sp":"1504.50000000000","X":"639300.50000000000","Y":"9221525.30000000075","NAMOBJ":"Sekaran","WADMKC":"Sekaran","WADMKK":"Lamongan"},"geometry":{"type":"Point","coordinates":[112.3,-7.0]}},{"type":"Feature","properties":{"Line":"S120","Sp":"1508.50000000000","X":"639300.50000000000","Y":"9221475.30000000075","NAMOBJ":"Sekaran","WADMKC":"Sekaran","WADMKK":"Lamongan"},"geometry":{"type":"Point","coordinates":[112.3,-7.0]}},{"type":"Feature","properties":{"Line":"S120","Sp":"1512.50000000000","X":"639300.50000000000","Y":"9221425.30000000075","NAMOBJ":"Sekaran","WADMKC":"Sekaran","WADMKK":"Lamongan"},"geometry":{"type":"Point","coordinates":[112.3,-7.0]}},{"type":"Feature","properties":{"Line":"S122","Sp":"1364.50000000000","X":"640300.50000000000","Y":"9223825.30000000075","NAMOBJ":"Sekaran","WADMKC":"Sekaran","WADMKK":"Lamongan"},"geometry":{"type":"Point","coordinates":[112.3,-7.0]}},{"type":"Feature","properties":{"Line":"S122","Sp":"1368.50000000000","X":"640300.50000000000","Y":"9223775.30000000075","NAMOBJ":"Sekaran","WADMKC":"Sekaran","WADMKK":"Lamongan"},"geometry":{"type":"Point","coordinates":[112.3,-7.0]}},{"type":"Feature","properties":{"Line":"S122","Sp":"1372.50000000000","X":"640300.50000000000","Y":"9223725.30000000075","NAMOBJ":"Sekaran","WADMKC":"Sekaran","WADMKK":"Lamongan"},"geometry":{"type":"Point","coordinates":[112.3,-7.0]}},{"type":"Feature","properties":{"Line":"S122","Sp":"1376.50000000000","X":"640300.50000000000","Y":"9223675.30000000075","NAMOBJ":"Sekaran","WADMKC":"Sekaran","WADMKK":"Lamongan"},"geometry":{"type":"Point","coordinates":[112.3,-7.0]}},{"type":"Feature","properties":{"Line":"S122","Sp":"1380.50000000000","X":"640300.50000000000","Y":"9223625.30000000075","NAMOBJ":"Sekaran","WADMKC":"Sekaran","WADMKK":"Lamongan"},"geometry":{"type":"Point","coordinates":[112.3,-7.0]}},{"type":"Feature","properties":{"Line":"S122","Sp":"1384.50000000000","X":"640300.50000000000","Y":"9223575.30000000075","NAMOBJ":"Sekaran","WADMKC":"Sekaran","WADMKK":"Lamongan"},"geometry":{"type":"Point","coordinates":[112.3,-7.0]}},{"type":"Feature","properties":{"Line":"S122","Sp":"1388.50000000000","X":"640300.50000000000","Y":"9223525.30000000075","NAMOBJ":"Sekaran","WADMKC":"Sekaran","WADMKK":"Lamongan"},"geometry":{"type":"Point","coordinates":[112.3,-7.0]}},{"type":"Feature","properties":{"Line":"S122","Sp":"1392.50000000000","X":"640300.50000000000","Y":"9223475.30000000075","NAMOBJ":"Sekaran","WADMKC":"Sekaran","WADMKK":"Lamongan"},"geometry":{"type":"Point","coordinates":[112.3,-7.0]}},{"type":"Feature","properties":{"Line":"S122","Sp":"1396.50000000000","X":"640300.50000000000","Y":"9223425.30000000075","NAMOBJ":"Sekaran","WADMKC":"Sekaran","WADMKK":"Lamongan"},"geometry":{"type":"Point","coordinates":[112.3,-7.0]}},{"type":"Feature","properties":{"Line":"S122","Sp":"1400.50000000000","X":"640300.50000000000","Y":"9223375.30000000075","NAMOBJ":"Sekaran","WADMKC":"Sekaran","WADMKK":"Lamongan"},"geometry":{"type":"Point","coordinates":[112.3,-7.0]}},{"type":"Feature","properties":{"Line":"S122","Sp":"1404.50000000000","X":"640300.50000000000","Y":"9223325.30000000075","NAMOBJ":"Sekaran","WADMKC":"Sekaran","WADMKK":"Lamongan"},"geometry":{"type":"Point","coordinates":[112.3,-7.0]}},{"type":"Feature","properties":{"Line":"S122","Sp":"1408.50000000000","X":"640300.50000000000","Y":"9223275.30000000075","NAMOBJ":"Sekaran","WADMKC":"Sekaran","WADMKK":"Lamongan"},"geometry":{"type":"Point","coordinates":[112.3,-7.0]}},{"type":"Feature","properties":{"Line":"S122","Sp":"1412.50000000000","X":"640300.50000000000","Y":"9223225.30000000075","NAMOBJ":"Sekaran","WADMKC":"Sekaran","WADMKK":"Lamongan"},"geometry":{"type":"Point","coordinates":[112.3,-7.0]}},{"type":"Feature","properties":{"Line":"S122","Sp":"1416.50000000000","X":"640300.50000000000","Y":"9223175.30000000075","NAMOBJ":"Sekaran","WADMKC":"Sekaran","WADMKK":"Lamongan"},"geometry":{"type":"Point","coordinates":[112.3,-7.0]}},{"type":"Feature","properties":{"Line":"S122","Sp":"1420.50000000000","X":"640300.50000000000","Y":"9223125.30000000075","NAMOBJ":"Sekaran","WADMKC":"Sekaran","WADMKK":"Lamongan"},"geometry":{"type":"Point","coordinates":[112.3,-7.0]}},{"type":"Feature","properties":{"Line":"S122","Sp":"1424.50000000000","X":"640300.50000000000","Y":"9223075.30000000075","NAMOBJ":"Sekaran","WADMKC":"Sekaran","WADMKK":"Lamongan"},"geometry":{"type":"Point","coordinates":[112.3,-7.0]}},{"type":"Feature","properties":{"Line":"S122","Sp":"1428.50000000000","X":"640300.50000000000","Y":"9223025.30000000075","NAMOBJ":"Sekaran","WADMKC":"Sekaran","WADMKK":"Lamongan"},"geometry":{"type":"Point","coordinates":[112.3,-7.0]}},{"type":"Feature","properties":{"Line":"S122","Sp":"1432.50000000000","X":"640300.50000000000","Y":"9222975.30000000075","NAMOBJ":"Sekaran","WADMKC":"Sekaran","WADMKK":"Lamongan"},"geometry":{"type":"Point","coordinates":[112.3,-7.0]}},{"type":"Feature","properties":{"Line":"S122","Sp":"1436.50000000000","X":"640300.50000000000","Y":"9222925.30000000075","NAMOBJ":"Sekaran","WADMKC":"Sekaran","WADMKK":"Lamongan"},"geometry":{"type":"Point","coordinates":[112.3,-7.0]}},{"type":"Feature","properties":{"Line":"S122","Sp":"1440.50000000000","X":"640300.50000000000","Y":"9222875.30000000075","NAMOBJ":"Sekaran","WADMKC":"Sekaran","WADMKK":"Lamongan"},"geometry":{"type":"Point","coordinates":[112.3,-7.0]}},{"type":"Feature","properties":{"Line":"S122","Sp":"1444.50000000000","X":"640300.50000000000","Y":"9222825.30000000075","NAMOBJ":"Sekaran","WADMKC":"Sekaran","WADMKK":"Lamongan"},"geometry":{"type":"Point","coordinates":[112.3,-7.0]}},{"type":"Feature","properties":{"Line":"S122","Sp":"1448.50000000000","X":"640300.50000000000","Y":"9222775.30000000075","NAMOBJ":"Sekaran","WADMKC":"Sekaran","WADMKK":"Lamongan"},"geometry":{"type":"Point","coordinates":[112.3,-7.0]}},{"type":"Feature","properties":{"Line":"S122","Sp":"1452.50000000000","X":"640300.50000000000","Y":"9222725.30000000075","NAMOBJ":"Sekaran","WADMKC":"Sekaran","WADMKK":"Lamongan"},"geometry":{"type":"Point","coordinates":[112.3,-7.0]}},{"type":"Feature","properties":{"Line":"S122","Sp":"1456.50000000000","X":"640300.50000000000","Y":"9222675.30000000075","NAMOBJ":"Sekaran","WADMKC":"Sekaran","WADMKK":"Lamongan"},"geometry":{"type":"Point","coordinates":[112.3,-7.0]}},{"type":"Feature","properties":{"Line":"S122","Sp":"1460.50000000000","X":"640300.50000000000","Y":"9222625.30000000075","NAMOBJ":"Sekaran","WADMKC":"Sekaran","WADMKK":"Lamongan"},"geometry":{"type":"Point","coordinates":[112.3,-7.0]}},{"type":"Feature","properties":{"Line":"S122","Sp":"1464.50000000000","X":"640300.50000000000","Y":"9222575.30000000075","NAMOBJ":"Sekaran","WADMKC":"Sekaran","WADMKK":"Lamongan"},"geometry":{"type":"Point","coordinates":[112.3,-7.0]}},{"type":"Feature","properties":{"Line":"S122","Sp":"1468.50000000000","X":"640300.50000000000","Y":"9222525.30000000075","NAMOBJ":"Sekaran","WADMKC":"Sekaran","WADMKK":"Lamongan"},"geometry":{"type":"Point","coordinates":[112.3,-7.0]}},{"type":"Feature","properties":{"Line":"S122","Sp":"1472.50000000000","X":"640300.50000000000","Y":"9222475.30000000075","NAMOBJ":"Sekaran","WADMKC":"Sekaran","WADMKK":"Lamongan"},"geometry":{"type":"Point","coordinates":[112.3,-7.0]}},{"type":"Feature","properties":{"Line":"S122","Sp":"1476.50000000000","X":"640300.50000000000","Y":"9222425.30000000075","NAMOBJ":"Sekaran","WADMKC":"Sekaran","WADMKK":"Lamongan"},"geometry":{"type":"Point","coordinates":[112.3,-7.0]}},{"type":"Feature","properties":{"Line":"S122","Sp":"1480.50000000000","X":"640300.50000000000","Y":"9222375.30000000075","NAMOBJ":"Sekaran","WADMKC":"Sekaran","WADMKK":"Lamongan"},"geometry":{"type":"Point","coordinates":[112.3,-7.0]}},{"type":"Feature","properties":{"Line":"S122","Sp":"1484.50000000000","X":"640300.50000000000","Y":"9222325.30000000075","NAMOBJ":"Sekaran","WADMKC":"Sekaran","WADMKK":"Lamongan"},"geometry":{"type":"Point","coordinates":[112.3,-7.0]}},{"type":"Feature","properties":{"Line":"S122","Sp":"1488.50000000000","X":"640300.50000000000","Y":"9222275.30000000075","NAMOBJ":"Sekaran","WADMKC":"Sekaran","WADMKK":"Lamongan"},"geometry":{"type":"Point","coordinates":[112.3,-7.0]}},{"type":"Feature","properties":{"Line":"S122","Sp":"1492.50000000000","X":"640300.50000000000","Y":"9222225.30000000075","NAMOBJ":"Sekaran","WADMKC":"Sekaran","WADMKK":"Lamongan"},"geometry":{"type":"Point","coordinates":[112.3,-7.0]}},{"type":"Feature","properties":{"Line":"S122","Sp":"1496.50000000000","X":"640300.50000000000","Y":"9222175.30000000075","NAMOBJ":"Sekaran","WADMKC":"Sekaran","WADMKK":"Lamongan"},"geometry":{"type":"Point","coordinates":[112.3,-7.0]}},{"type":"Feature","properties":{"Line":"S122","Sp":"1500.50000000000","X":"640300.50000000000","Y":"9222125.30000000075","NAMOBJ":"Sekaran","WADMKC":"Sekaran","WADMKK":"Lamongan"},"geometry":{"type":"Point","coordinates":[112.3,-7.0]}},{"type":"Feature","properties":{"Line":"S122","Sp":"1504.50000000000","X":"640300.50000000000","Y":"9222075.30000000075","NAMOBJ":"Sekaran","WADMKC":"Sekaran","WADMKK":"Lamongan"},"geometry":{"type":"Point","coordinates":[112.3,-7.0]}},{"type":"Feature","properties":{"Line":"S122","Sp":"1508.50000000000","X":"640300.50000000000","Y":"9222025.30000000075","NAMOBJ":"Sekaran","WADMKC":"Sekaran","WADMKK":"Lamongan"},"geometry":{"type":"Point","coordinates":[112.3,-7.0]}},{"type":"Feature","properties":{"Line":"S122","Sp":"1512.50000000000","X":"640300.50000000000","Y":"9221975.30000000075","NAMOBJ":"Sekaran","WADMKC":"Sekaran","WADMKK":"Lamongan"},"geometry":{"type":"Point","coordinates":[112.3,-7.0]}},{"type":"Feature","properties":{"Line":"S122","Sp":"1516.50000000000","X":"640300.50000000000","Y":"9221925.30000000075","NAMOBJ":"Sekaran","WADMKC":"Sekaran","WADMKK":"Lamongan"},"geometry":{"type":"Point","coordinates":[112.3,-7.0]}},{"type":"Feature","properties":{"Line":"S122","Sp":"1520.50000000000","X":"640300.50000000000","Y":"9221875.30000000075","NAMOBJ":"Sekaran","WADMKC":"Sekaran","WADMKK":"Lamongan"},"geometry":{"type":"Point","coordinates":[112.3,-7.0]}},{"type":"Feature","properties":{"Line":"S122","Sp":"1524.50000000000","X":"640300.50000000000","Y":"9221825.30000000075","NAMOBJ":"Sekaran","WADMKC":"Sekaran","WADMKK":"Lamongan"},"geometry":{"type":"Point","coordinates":[112.3,-7.0]}},{"type":"Feature","properties":{"Line":"S122","Sp":"1528.50000000000","X":"640300.50000000000","Y":"9221775.30000000075","NAMOBJ":"Sekaran","WADMKC":"Sekaran","WADMKK":"Lamongan"},"geometry":{"type":"Point","coordinates":[112.3,-7.0]}},{"type":"Feature","properties":{"Line":"S122","Sp":"1532.50000000000","X":"640300.50000000000","Y":"9221725.30000000075","NAMOBJ":"Sekaran","WADMKC":"Sekaran","WADMKK":"Lamongan"},"geometry":{"type":"Point","coordinates":[112.3,-7.0]}},{"type":"Feature","properties":{"Line":"S124","Sp":"1408.50000000000","X":"641300.50000000000","Y":"9223825.30000000075","NAMOBJ":"Sekaran","WADMKC":"Sekaran","WADMKK":"Lamongan"},"geometry":{"type":"Point","coordinates":[112.3,-7.0]}},{"type":"Feature","properties":{"Line":"S124","Sp":"1412.50000000000","X":"641300.50000000000","Y":"9223775.30000000075","NAMOBJ":"Sekaran","WADMKC":"Sekaran","WADMKK":"Lamongan"},"geometry":{"type":"Point","coordinates":[112.3,-7.0]}},{"type":"Feature","properties":{"Line":"S124","Sp":"1416.50000000000","X":"641300.50000000000","Y":"9223725.30000000075","NAMOBJ":"Sekaran","WADMKC":"Sekaran","WADMKK":"Lamongan"},"geometry":{"type":"Point","coordinates":[112.3,-7.0]}},{"type":"Feature","properties":{"Line":"S124","Sp":"1420.50000000000","X":"641300.50000000000","Y":"9223675.30000000075","NAMOBJ":"Sekaran","WADMKC":"Sekaran","WADMKK":"Lamongan"},"geometry":{"type":"Point","coordinates":[112.3,-7.0]}},{"type":"Feature","properties":{"Line":"S124","Sp":"1424.50000000000","X":"641300.50000000000","Y":"9223625.30000000075","NAMOBJ":"Sekaran","WADMKC":"Sekaran","WADMKK":"Lamongan"},"geometry":{"type":"Point","coordinates":[112.3,-7.0]}},{"type":"Feature","properties":{"Line":"S124","Sp":"1428.50000000000","X":"641300.50000000000","Y":"9223575.30000000075","NAMOBJ":"Sekaran","WADMKC":"Sekaran","WADMKK":"Lamongan"},"geometry":{"type":"Point","coordinates":[112.3,-7.0]}},{"type":"Feature","properties":{"Line":"S124","Sp":"1432.50000000000","X":"641300.50000000000","Y":"9223525.30000000075","NAMOBJ":"Sekaran","WADMKC":"Sekaran","WADMKK":"Lamongan"},"geometry":{"type":"Point","coordinates":[112.3,-7.0]}},{"type":"Feature","properties":{"Line":"S124","Sp":"1436.50000000000","X":"641300.50000000000","Y":"9223475.30000000075","NAMOBJ":"Sekaran","WADMKC":"Sekaran","WADMKK":"Lamongan"},"geometry":{"type":"Point","coordinates":[112.3,-7.0]}},{"type":"Feature","properties":{"Line":"S124","Sp":"1440.50000000000","X":"641300.50000000000","Y":"9223425.30000000075","NAMOBJ":"Sekaran","WADMKC":"Sekaran","WADMKK":"Lamongan"},"geometry":{"type":"Point","coordinates":[112.3,-7.0]}},{"type":"Feature","properties":{"Line":"S124","Sp":"1444.50000000000","X":"641300.50000000000","Y":"9223375.30000000075","NAMOBJ":"Sekaran","WADMKC":"Sekaran","WADMKK":"Lamongan"},"geometry":{"type":"Point","coordinates":[112.3,-7.0]}},{"type":"Feature","properties":{"Line":"S124","Sp":"1448.50000000000","X":"641300.50000000000","Y":"9223325.30000000075","NAMOBJ":"Sekaran","WADMKC":"Sekaran","WADMKK":"Lamongan"},"geometry":{"type":"Point","coordinates":[112.3,-7.0]}},{"type":"Feature","properties":{"Line":"S124","Sp":"1452.50000000000","X":"641300.50000000000","Y":"9223275.30000000075","NAMOBJ":"Sekaran","WADMKC":"Sekaran","WADMKK":"Lamongan"},"geometry":{"type":"Point","coordinates":[112.3,-7.0]}},{"type":"Feature","properties":{"Line":"S124","Sp":"1456.50000000000","X":"641300.50000000000","Y":"9223225.30000000075","NAMOBJ":"Sekaran","WADMKC":"Sekaran","WADMKK":"Lamongan"},"geometry":{"type":"Point","coordinates":[112.3,-7.0]}},{"type":"Feature","properties":{"Line":"S124","Sp":"1460.50000000000","X":"641300.50000000000","Y":"9223175.30000000075","NAMOBJ":"Sekaran","WADMKC":"Sekaran","WADMKK":"Lamongan"},"geometry":{"type":"Point","coordinates":[112.3,-7.0]}},{"type":"Feature","properties":{"Line":"S124","Sp":"1464.50000000000","X":"641300.50000000000","Y":"9223125.30000000075","NAMOBJ":"Sekaran","WADMKC":"Sekaran","WADMKK":"Lamongan"},"geometry":{"type":"Point","coordinates":[112.3,-7.0]}},{"type":"Feature","properties":{"Line":"S124","Sp":"1468.50000000000","X":"641300.50000000000","Y":"9223075.30000000075","NAMOBJ":"Sekaran","WADMKC":"Sekaran","WADMKK":"Lamongan"},"geometry":{"type":"Point","coordinates":[112.3,-7.0]}},{"type":"Feature","properties":{"Line":"S124","Sp":"1472.50000000000","X":"641300.50000000000","Y":"9223025.30000000075","NAMOBJ":"Sekaran","WADMKC":"Sekaran","WADMKK":"Lamongan"},"geometry":{"type":"Point","coordinates":[112.3,-7.0]}},{"type":"Feature","properties":{"Line":"S124","Sp":"1476.50000000000","X":"641300.50000000000","Y":"9222975.30000000075","NAMOBJ":"Sekaran","WADMKC":"Sekaran","WADMKK":"Lamongan"},"geometry":{"type":"Point","coordinates":[112.3,-7.0]}},{"type":"Feature","properties":{"Line":"S124","Sp":"1480.50000000000","X":"641300.50000000000","Y":"9222925.30000000075","NAMOBJ":"Sekaran","WADMKC":"Sekaran","WADMKK":"Lamongan"},"geometry":{"type":"Point","coordinates":[112.3,-7.0]}},{"type":"Feature","properties":{"Line":"S124","Sp":"1484.50000000000","X":"641300.50000000000","Y":"9222875.30000000075","NAMOBJ":"Sekaran","WADMKC":"Sekaran","WADMKK":"Lamongan"},"geometry":{"type":"Point","coordinates":[112.3,-7.0]}},{"type":"Feature","properties":{"Line":"S124","Sp":"1488.50000000000","X":"641300.50000000000","Y":"9222825.30000000075","NAMOBJ":"Sekaran","WADMKC":"Sekaran","WADMKK":"Lamongan"},"geometry":{"type":"Point","coordinates":[112.3,-7.0]}},{"type":"Feature","properties":{"Line":"S124","Sp":"1492.50000000000","X":"641300.50000000000","Y":"9222775.30000000075","NAMOBJ":"Sekaran","WADMKC":"Sekaran","WADMKK":"Lamongan"},"geometry":{"type":"Point","coordinates":[112.3,-7.0]}},{"type":"Feature","properties":{"Line":"S124","Sp":"1496.50000000000","X":"641300.50000000000","Y":"9222725.30000000075","NAMOBJ":"Sekaran","WADMKC":"Sekaran","WADMKK":"Lamongan"},"geometry":{"type":"Point","coordinates":[112.3,-7.0]}},{"type":"Feature","properties":{"Line":"S124","Sp":"1500.50000000000","X":"641300.50000000000","Y":"9222675.30000000075","NAMOBJ":"Sekaran","WADMKC":"Sekaran","WADMKK":"Lamongan"},"geometry":{"type":"Point","coordinates":[112.3,-7.0]}},{"type":"Feature","properties":{"Line":"S124","Sp":"1504.50000000000","X":"641300.50000000000","Y":"9222625.30000000075","NAMOBJ":"Sekaran","WADMKC":"Sekaran","WADMKK":"Lamongan"},"geometry":{"type":"Point","coordinates":[112.3,-7.0]}},{"type":"Feature","properties":{"Line":"S124","Sp":"1508.50000000000","X":"641300.50000000000","Y":"9222575.30000000075","NAMOBJ":"Sekaran","WADMKC":"Sekaran","WADMKK":"Lamongan"},"geometry":{"type":"Point","coordinates":[112.3,-7.0]}},{"type":"Feature","properties":{"Line":"S124","Sp":"1512.50000000000","X":"641300.50000000000","Y":"9222525.30000000075","NAMOBJ":"Sekaran","WADMKC":"Sekaran","WADMKK":"Lamongan"},"geometry":{"type":"Point","coordinates":[112.3,-7.0]}},{"type":"Feature","properties":{"Line":"S124","Sp":"1516.50000000000","X":"641300.50000000000","Y":"9222475.30000000075","NAMOBJ":"Sekaran","WADMKC":"Sekaran","WADMKK":"Lamongan"},"geometry":{"type":"Point","coordinates":[112.3,-7.0]}},{"type":"Feature","properties":{"Line":"S124","Sp":"1520.50000000000","X":"641300.50000000000","Y":"9222425.30000000075","NAMOBJ":"Sekaran","WADMKC":"Sekaran","WADMKK":"Lamongan"},"geometry":{"type":"Point","coordinates":[112.3,-7.0]}},{"type":"Feature","properties":{"Line":"S125","Sp":"2056.50000000000","X":"638325.50000000000","Y":"9220800.30000000075","NAMOBJ":"Sekaran","WADMKC":"Sekaran","WADMKK":"Lamongan"},"geometry":{"type":"Point","coordinates":[112.3,-7.0]}},{"type":"Feature","properties":{"Line":"S125","Sp":"2060.50000000000","X":"638375.50000000000","Y":"9220800.30000000075","NAMOBJ":"Sekaran","WADMKC":"Sekaran","WADMKK":"Lamongan"},"geometry":{"type":"Point","coordinates":[112.3,-7.0]}},{"type":"Feature","properties":{"Line":"S125","Sp":"2064.50000000000","X":"638425.50000000000","Y":"9220800.30000000075","NAMOBJ":"Sekaran","WADMKC":"Sekaran","WADMKK":"Lamongan"},"geometry":{"type":"Point","coordinates":[112.3,-7.0]}},{"type":"Feature","properties":{"Line":"S125","Sp":"2068.50000000000","X":"638475.50000000000","Y":"9220800.30000000075","NAMOBJ":"Sekaran","WADMKC":"Sekaran","WADMKK":"Lamongan"},"geometry":{"type":"Point","coordinates":[112.3,-7.0]}},{"type":"Feature","properties":{"Line":"S125","Sp":"2072.50000000000","X":"638525.50000000000","Y":"9220800.30000000075","NAMOBJ":"Sekaran","WADMKC":"Sekaran","WADMKK":"Lamongan"},"geometry":{"type":"Point","coordinates":[112.3,-7.0]}},{"type":"Feature","properties":{"Line":"S125","Sp":"2076.50000000000","X":"638575.50000000000","Y":"9220800.30000000075","NAMOBJ":"Sekaran","WADMKC":"Sekaran","WADMKK":"Lamongan"},"geometry":{"type":"Point","coordinates":[112.3,-7.0]}},{"type":"Feature","properties":{"Line":"S124","Sp":"1624.50000000000","X":"641300.50000000000","Y":"9221125.30000000075","NAMOBJ":"Siman","WADMKC":"Sekaran","WADMKK":"Lamongan"},"geometry":{"type":"Point","coordinates":[112.3,-7.0]}},{"type":"Feature","properties":{"Line":"S124","Sp":"1628.50000000000","X":"641300.50000000000","Y":"9221075.30000000075","NAMOBJ":"Siman","WADMKC":"Sekaran","WADMKK":"Lamongan"},"geometry":{"type":"Point","coordinates":[112.3,-7.0]}},{"type":"Feature","properties":{"Line":"S124","Sp":"1632.50000000000","X":"641300.50000000000","Y":"9221025.30000000075","NAMOBJ":"Siman","WADMKC":"Sekaran","WADMKK":"Lamongan"},"geometry":{"type":"Point","coordinates":[112.3,-7.0]}},{"type":"Feature","properties":{"Line":"S124","Sp":"1636.50000000000","X":"641300.50000000000","Y":"9220975.30000000075","NAMOBJ":"Siman","WADMKC":"Sekaran","WADMKK":"Lamongan"},"geometry":{"type":"Point","coordinates":[112.3,-7.0]}},{"type":"Feature","properties":{"Line":"S124","Sp":"1640.50000000000","X":"641300.50000000000","Y":"9220925.30000000075","NAMOBJ":"Siman","WADMKC":"Sekaran","WADMKK":"Lamongan"},"geometry":{"type":"Point","coordinates":[112.3,-7.0]}},{"type":"Feature","properties":{"Line":"S124","Sp":"1644.50000000000","X":"641300.50000000000","Y":"9220875.30000000075","NAMOBJ":"Siman","WADMKC":"Sekaran","WADMKK":"Lamongan"},"geometry":{"type":"Point","coordinates":[112.3,-7.0]}},{"type":"Feature","properties":{"Line":"S124","Sp":"1648.50000000000","X":"641300.50000000000","Y":"9220825.30000000075","NAMOBJ":"Siman","WADMKC":"Sekaran","WADMKK":"Lamongan"},"geometry":{"type":"Point","coordinates":[112.3,-7.0]}},{"type":"Feature","properties":{"Line":"S124","Sp":"1652.50000000000","X":"641300.50000000000","Y":"9220775.30000000075","NAMOBJ":"Siman","WADMKC":"Sekaran","WADMKK":"Lamongan"},"geometry":{"type":"Point","coordinates":[112.3,-7.0]}},{"type":"Feature","properties":{"Line":"S124","Sp":"1656.50000000000","X":"641300.50000000000","Y":"9220725.30000000075","NAMOBJ":"Siman","WADMKC":"Sekaran","WADMKK":"Lamongan"},"geometry":{"type":"Point","coordinates":[112.3,-7.0]}},{"type":"Feature","properties":{"Line":"S124","Sp":"1660.50000000000","X":"641300.50000000000","Y":"9220675.30000000075","NAMOBJ":"Siman","WADMKC":"Sekaran","WADMKK":"Lamongan"},"geometry":{"type":"Point","coordinates":[112.3,-7.0]}},{"type":"Feature","properties":{"Line":"S124","Sp":"1664.50000000000","X":"641300.50000000000","Y":"9220625.30000000075","NAMOBJ":"Siman","WADMKC":"Sekaran","WADMKK":"Lamongan"},"geometry":{"type":"Point","coordinates":[112.3,-7.0]}},{"type":"Feature","properties":{"Line":"S124","Sp":"1668.50000000000","X":"641300.50000000000","Y":"9220575.30000000075","NAMOBJ":"Siman","WADMKC":"Sekaran","WADMKK":"Lamongan"},"geometry":{"type":"Point","coordinates":[112.3,-7.0]}},{"type":"Feature","properties":{"Line":"S125","Sp":"2216.50000000000","X":"640325.50000000000","Y":"9220800.30000000075","NAMOBJ":"Siman","WADMKC":"Sekaran","WADMKK":"Lamongan"},"geometry":{"type":"Point","coordinates":[112.3,-7.0]}},{"type":"Feature","properties":{"Line":"S125","Sp":"2220.50000000000","X":"640375.50000000000","Y":"9220800.30000000075","NAMOBJ":"Siman","WADMKC":"Sekaran","WADMKK":"Lamongan"},"geometry":{"type":"Point","coordinates":[112.3,-7.0]}},{"type":"Feature","properties":{"Line":"S125","Sp":"2224.50000000000","X":"640425.50000000000","Y":"9220800.30000000075","NAMOBJ":"Siman","WADMKC":"Sekaran","WADMKK":"Lamongan"},"geometry":{"type":"Point","coordinates":[112.3,-7.0]}},{"type":"Feature","properties":{"Line":"S125","Sp":"2228.50000000000","X":"640475.50000000000","Y":"9220800.30000000075","NAMOBJ":"Siman","WADMKC":"Sekaran","WADMKK":"Lamongan"},"geometry":{"type":"Point","coordinates":[112.3,-7.0]}},{"type":"Feature","properties":{"Line":"S125","Sp":"2232.50000000000","X":"640525.50000000000","Y":"9220800.30000000075","NAMOBJ":"Siman","WADMKC":"Sekaran","WADMKK":"Lamongan"},"geometry":{"type":"Point","coordinates":[112.3,-7.0]}},{"type":"Feature","properties":{"Line":"S125","Sp":"2236.50000000000","X":"640575.50000000000","Y":"9220800.30000000075","NAMOBJ":"Siman","WADMKC":"Sekaran","WADMKK":"Lamongan"},"geometry":{"type":"Point","coordinates":[112.3,-7.0]}},{"type":"Feature","properties":{"Line":"S125","Sp":"2240.50000000000","X":"640625.50000000000","Y":"9220800.30000000075","NAMOBJ":"Siman","WADMKC":"Sekaran","WADMKK":"Lamongan"},"geometry":{"type":"Point","coordinates":[112.3,-7.0]}},{"type":"Feature","properties":{"Line":"S125","Sp":"2244.50000000000","X":"640675.50000000000","Y":"9220800.30000000075","NAMOBJ":"Siman","WADMKC":"Sekaran","WADMKK":"Lamongan"},"geometry":{"type":"Point","coordinates":[112.3,-7.0]}},{"type":"Feature","properties":{"Line":"S125","Sp":"2248.50000000000","X":"640725.50000000000","Y":"9220800.30000000075","NAMOBJ":"Siman","WADMKC":"Sekaran","WADMKK":"Lamongan"},"geometry":{"type":"Point","coordinates":[112.3,-7.0]}},{"type":"Feature","properties":{"Line":"S125","Sp":"2252.50000000000","X":"640775.50000000000","Y":"9220800.30000000075","NAMOBJ":"Siman","WADMKC":"Sekaran","WADMKK":"Lamongan"},"geometry":{"type":"Point","coordinates":[112.3,-7.0]}},{"type":"Feature","properties":{"Line":"S125","Sp":"2256.50000000000","X":"640825.50000000000","Y":"9220800.30000000075","NAMOBJ":"Siman","WADMKC":"Sekaran","WADMKK":"Lamongan"},"geometry":{"type":"Point","coordinates":[112.3,-7.0]}},{"type":"Feature","properties":{"Line":"S125","Sp":"2260.50000000000","X":"640875.50000000000","Y":"9220800.30000000075","NAMOBJ":"Siman","WADMKC":"Sekaran","WADMKK":"Lamongan"},"geometry":{"type":"Point","coordinates":[112.3,-7.0]}},{"type":"Feature","properties":{"Line":"S125","Sp":"2264.50000000000","X":"640925.50000000000","Y":"9220800.30000000075","NAMOBJ":"Siman","WADMKC":"Sekaran","WADMKK":"Lamongan"},"geometry":{"type":"Point","coordinates":[112.3,-7.0]}},{"type":"Feature","properties":{"Line":"S125","Sp":"2268.50000000000","X":"640975.50000000000","Y":"9220800.30000000075","NAMOBJ":"Siman","WADMKC":"Sekaran","WADMKK":"Lamongan"},"geometry":{"type":"Point","coordinates":[112.3,-7.0]}},{"type":"Feature","properties":{"Line":"S125","Sp":"2272.50000000000","X":"641025.50000000000","Y":"9220800.30000000075","NAMOBJ":"Siman","WADMKC":"Sekaran","WADMKK":"Lamongan"},"geometry":{"type":"Point","coordinates":[112.3,-7.0]}},{"type":"Feature","properties":{"Line":"S125","Sp":"2276.50000000000","X":"641075.50000000000","Y":"9220800.30000000075","NAMOBJ":"Siman","WADMKC":"Sekaran","WADMKK":"Lamongan"},"geometry":{"type":"Point","coordinates":[112.3,-7.0]}},{"type":"Feature","properties":{"Line":"S125","Sp":"2280.50000000000","X":"641125.50000000000","Y":"9220800.30000000075","NAMOBJ":"Siman","WADMKC":"Sekaran","WADMKK":"Lamongan"},"geometry":{"type":"Point","coordinates":[112.3,-7.0]}},{"type":"Feature","properties":{"Line":"S125","Sp":"2284.50000000000","X":"641175.50000000000","Y":"9220800.30000000075","NAMOBJ":"Siman","WADMKC":"Sekaran","WADMKK":"Lamongan"},"geometry":{"type":"Point","coordinates":[112.3,-7.0]}},{"type":"Feature","properties":{"Line":"S125","Sp":"2288.50000000000","X":"641225.50000000000","Y":"9220800.30000000075","NAMOBJ":"Siman","WADMKC":"Sekaran","WADMKK":"Lamongan"},"geometry":{"type":"Point","coordinates":[112.3,-7.0]}},{"type":"Feature","properties":{"Line":"S125","Sp":"2292.50000000000","X":"641275.50000000000","Y":"9220800.30000000075","NAMOBJ":"Siman","WADMKC":"Sekaran","WADMKK":"Lamongan"},"geometry":{"type":"Point","coordinates":[112.3,-7.0]}},{"type":"Feature","properties":{"Line":"S125","Sp":"2296.50000000000","X":"641325.50000000000","Y":"9220800.30000000075","NAMOBJ":"Siman","WADMKC":"Sekaran","WADMKK":"Lamongan"},"geometry":{"type":"Point","coordinates":[112.3,-7.0]}},{"type":"Feature","properties":{"Line":"S125","Sp":"2300.50000000000","X":"641375.50000000000","Y":"9220800.30000000075","NAMOBJ":"Siman","WADMKC":"Sekaran","WADMKK":"Lamongan"},"geometry":{"type":"Point","coordinates":[112.3,-7.0]}},{"type":"Feature","properties":{"Line":"S125","Sp":"2304.50000000000","X":"641425.50000000000","Y":"9220800.30000000075","NAMOBJ":"Siman","WADMKC":"Sekaran","WADMKK":"Lamongan"},"geometry":{"type":"Point","coordinates":[112.3,-7.0]}},{"type":"Feature","properties":{"Line":"S118","Sp":"1360.50000000000","X":"638300.50000000000","Y":"9223375.30000000075","NAMOBJ":"Siwuran","WADMKC":"Maduran","WADMKK":"Lamongan"},"geometry":{"type":"Point","coordinates":[112.3,-7.0]}},{"type":"Feature","properties":{"Line":"S118","Sp":"1364.50000000000","X":"638300.50000000000","Y":"9223325.30000000075","NAMOBJ":"Siwuran","WADMKC":"Maduran","WADMKK":"Lamongan"},"geometry":{"type":"Point","coordinates":[112.3,-7.0]}},{"type":"Feature","properties":{"Line":"S118","Sp":"1368.50000000000","X":"638300.50000000000","Y":"9223275.30000000075","NAMOBJ":"Siwuran","WADMKC":"Maduran","WADMKK":"Lamongan"},"geometry":{"type":"Point","coordinates":[112.3,-7.0]}},{"type":"Feature","properties":{"Line":"S118","Sp":"1372.50000000000","X":"638300.50000000000","Y":"9223225.30000000075","NAMOBJ":"Siwuran","WADMKC":"Maduran","WADMKK":"Lamongan"},"geometry":{"type":"Point","coordinates":[112.3,-7.0]}}]}