{"type":"FeatureCollection","features":[{"type":"Feature","properties":{"Line":"S142","Sp":"1408.50000000000","X":"650300.50000000000","Y":"9220725.30000000075","NAMOBJ":"Badurame","WADMKC":"Turi","WADMKK":"Lamongan"},"geometry":{"type":"Point","coordinates":[112.4,-7.0]}},{"type":"Feature","properties":{"Line":"S142","Sp":"1412.50000000000","X":"650300.50000000000","Y":"9220675.30000000075","NAMOBJ":"Karangwedoro","WADMKC":"Turi","WADMKK":"Lamongan"},"geometry":{"type":"Point","coordinates":[112.4,-7.0]}},{"type":"Feature","properties":{"Line":"S142","Sp":"1416.50000000000","X":"650300.50000000000","Y":"9220625.30000000075","NAMOBJ":"Karangwedoro","WADMKC":"Turi","WADMKK":"Lamongan"},"geometry":{"type":"Point","coordinates":[112.4,-7.0]}},{"type":"Feature","properties":{"Line":"S142","Sp":"1420.50000000000","X":"650300.50000000000","Y":"9220575.30000000075","NAMOBJ":"Karangwedoro","WADMKC":"Turi","WADMKK":"Lamongan"},"geometry":{"type":"Point","coordinates":[112.4,-7.0]}},{"type":"Feature","properties":{"Line":"S142","Sp":"1424.50000000000","X":"650300.50000000000","Y":"9220525.30000000075","NAMOBJ":"Karangwedoro","WADMKC":"Turi","WADMKK":"Lamongan"},"geometry":{"type":"Point","coordinates":[112.4,-7.0]}},{"type":"Feature","properties":{"Line":"S140","Sp":"1424.50000000000","X":"649300.50000000000","Y":"9221575.30000000075","NAMOBJ":"Pucangro","WADMKC":"Kalitengah","WADMKK":"Lamongan"},"geometry":{"type":"Point","coordinates":[112.4,-7.0]}},{"type":"Feature","properties":{"Line":"S140","Sp":"1428.50000000000","X":"649300.50000000000","Y":"9221525.30000000075","NAMOBJ":"Pucangro","WADMKC":"Kalitengah","WADMKK":"Lamongan"},"geometry":{"type":"Point","coordinates":[112.4,-7.0]}},{"type":"Feature","properties":{"Line":"S140","Sp":"1432.50000000000","X":"649300.50000000000","Y":"9221475.30000000075","NAMOBJ":"Pucangro","WADMKC":"Kalitengah","WADMKK":"Lamongan"},"geometry":{"type":"Point","coordinates":[112.4,-7.0]}},{"type":"Feature","properties":{"Line":"S140","Sp":"1436.50000000000","X":"649300.50000000000","Y":"9221425.30000000075","NAMOBJ":"Pucangro","WADMKC":"Kalitengah","WADMKK":"Lamongan"},"geometry":{"type":"Point","coordinates":[112.4,-7.0]}},{"type":"Feature","properties":{"Line":"S140","Sp":"1440.50000000000","X":"649300.50000000000","Y":"9221375.30000000075","NAMOBJ":"Pucangro","WADMKC":"Kalitengah","WADMKK":"Lamongan"},"geometry":{"type":"Point","coordinates":[112.4,-7.0]}},{"type":"Feature","properties":{"Line":"S140","Sp":"1444.50000000000","X":"649300.50000000000","Y":"9221325.30000000075","NAMOBJ":"Pucangro","WADMKC":"Kalitengah","WADMKK":"Lamongan"},"geometry":{"type":"Point","coordinates":[112.4,-7.0]}},{"type":"Feature","properties":{"Line":"S140","Sp":"1448.50000000000","X":"649300.50000000000","Y":"9221275.30000000075","NAMOBJ":"Pucangro","WADMKC":"Kalitengah","WADMKK":"Lamongan"},"geometry":{"type":"Point","coordinates":[112.4,-7.0]}},{"type":"Feature","properties":{"Line":"S140","Sp":"1452.50000000000","X":"649300.50000000000","Y":"9221225.30000000075","NAMOBJ":"Pucangro","WADMKC":"Kalitengah","WADMKK":"Lamongan"},"geometry":{"type":"Point","coordinates":[112.4,-7.0]}},{"type":"Feature","properties":{"Line":"S140","Sp":"1456.50000000000","X":"649300.50000000000","Y":"9221175.30000000075","NAMOBJ":"Pucangro","WADMKC":"Kalitengah","WADMKK":"Lamongan"},"geometry":{"type":"Point","coordinates":[112.4,-7.0]}},{"type":"Feature","properties":{"Line":"S140","Sp":"1460.50000000000","X":"649300.50000000000","Y":"9221125.30000000075","NAMOBJ":"Pucangro","WADMKC":"Kalitengah","WADMKK":"Lamongan"},"geometry":{"type":"Point","coordinates":[112.4,-7.0]}},{"type":"Feature","properties":{"Line":"S140","Sp":"1464.50000000000","X":"649300.50000000000","Y":"9221075.30000000075","NAMOBJ":"Pucangro","WADMKC":"Kalitengah","WADMKK":"Lamongan"},"geometry":{"type":"Point","coordinates":[112.4,-7.0]}},{"type":"Feature","properties":{"Line":"S140","Sp":"1468.50000000000","X":"649300.50000000000","Y":"9221025.30000000075","NAMOBJ":"Pucangro","WADMKC":"Kalitengah","WADMKK":"Lamongan"},"geometry":{"type":"Point","coordinates":[112.4,-7.0]}},{"type":"Feature","properties":{"Line":"S140","Sp":"1472.50000000000","X":"649300.50000000000","Y":"9220975.30000000075","NAMOBJ":"Pucangro","WADMKC":"Kalitengah","WADMKK":"Lamongan"},"geometry":{"type":"Point","coordinates":[112.4,-7.0]}},{"type":"Feature","properties":{"Line":"S140","Sp":"1476.50000000000","X":"649300.50000000000","Y":"9220925.30000000075","NAMOBJ":"Pucangro","WADMKC":"Kalitengah","WADMKK":"Lamongan"},"geometry":{"type":"Point","coordinates":[112.4,-7.0]}},{"type":"Feature","properties":{"Line":"S140","Sp":"1480.50000000000","X":"649300.50000000000","Y":"9220875.30000000075","NAMOBJ":"Pucangro","WADMKC":"Kalitengah","WADMKK":"Lamongan"},"geometry":{"type":"Point","coordinates":[112.4,-7.0]}},{"type":"Feature","properties":{"Line":"S140","Sp":"1484.50000000000","X":"649300.50000000000","Y":"9220825.30000000075","NAMOBJ":"Pucangro","WADMKC":"Kalitengah","WADMKK":"Lamongan"},"geometry":{"type":"Point","coordinates":[112.4,-7.0]}},{"type":"Feature","properties":{"Line":"S140","Sp":"1488.50000000000","X":"649300.50000000000","Y":"9220775.30000000075","NAMOBJ":"Pucangro","WADMKC":"Kalitengah","WADMKK":"Lamongan"},"geometry":{"type":"Point","coordinates":[112.4,-7.0]}},{"type":"Feature","properties":{"Line":"S140","Sp":"1492.50000000000","X":"649300.50000000000","Y":"9220725.30000000075","NAMOBJ":"Pucangro","WADMKC":"Kalitengah","WADMKK":"Lamongan"},"geometry":{"type":"Point","coordinates":[112.4,-7.0]}},{"type":"Feature","properties":{"Line":"S140","Sp":"1496.50000000000","X":"649300.50000000000","Y":"9220675.30000000075","NAMOBJ":"Pucangro","WADMKC":"Kalitengah","WADMKK":"Lamongan"},"geometry":{"type":"Point","coordinates":[112.4,-7.0]}},{"type":"Feature","properties":{"Line":"S140","Sp":"1500.50000000000","X":"649300.50000000000","Y":"9220625.30000000075","NAMOBJ":"Pucangro","WADMKC":"Kalitengah","WADMKK":"Lamongan"},"geometry":{"type":"Point","coordinates":[112.4,-7.0]}},{"type":"Feature","properties":{"Line":"S140","Sp":"1504.50000000000","X":"649300.50000000000","Y":"9220575.30000000075","NAMOBJ":"Pucangro","WADMKC":"Kalitengah","WADMKK":"Lamongan"},"geometry":{"type":"Point","coordinates":[112.4,-7.0]}},{"type":"Feature","properties":{"Line":"S140","Sp":"1508.50000000000","X":"649300.50000000000","Y":"9220525.30000000075","NAMOBJ":"Pucangro","WADMKC":"Kalitengah","WADMKK":"Lamongan"},"geometry":{"type":"Point","coordinates":[112.4,-7.0]}},{"type":"Feature","properties":{"Line":"S142","Sp":"1360.50000000000","X":"650300.50000000000","Y":"9221325.30000000075","NAMOBJ":"Pucangro","WADMKC":"Kalitengah","WADMKK":"Lamongan"},"geometry":{"type":"Point","coordinates":[112.4,-7.0]}},{"type":"Feature","properties":{"Line":"S142","Sp":"1364.50000000000","X":"650300.50000000000","Y":"9221275.30000000075","NAMOBJ":"Pucangro","WADMKC":"Kalitengah","WADMKK":"Lamongan"},"geometry":{"type":"Point","coordinates":[112.4,-7.0]}},{"type":"Feature","properties":{"Line":"S142","Sp":"1368.50000000000","X":"650300.50000000000","Y":"9221225.30000000075","NAMOBJ":"Pucangro","WADMKC":"Kalitengah","WADMKK":"Lamongan"},"geometry":{"type":"Point","coordinates":[112.4,-7.0]}},{"type":"Feature","properties":{"Line":"S142","Sp":"1372.50000000000","X":"650300.50000000000","Y":"9221175.30000000075","NAMOBJ":"Pucangro","WADMKC":"Kalitengah","WADMKK":"Lamongan"},"geometry":{"type":"Point","coordinates":[112.4,-7.0]}},{"type":"Feature","properties":{"Line":"S142","Sp":"1376.50000000000","X":"650300.50000000000","Y":"9221125.30000000075","NAMOBJ":"Pucangro","WADMKC":"Kalitengah","WADMKK":"Lamongan"},"geometry":{"type":"Point","coordinates":[112.4,-7.0]}},{"type":"Feature","properties":{"Line":"S142","Sp":"1380.50000000000","X":"650300.50000000000","Y":"9221075.30000000075","NAMOBJ":"Pucangro","WADMKC":"Kalitengah","WADMKK":"Lamongan"},"geometry":{"type":"Point","coordinates":[112.4,-7.0]}},{"type":"Feature","properties":{"Line":"S142","Sp":"1384.50000000000","X":"650300.50000000000","Y":"9221025.30000000075","NAMOBJ":"Pucangro","WADMKC":"Kalitengah","WADMKK":"Lamongan"},"geometry":{"type":"Point","coordinates":[112.4,-7.0]}},{"type":"Feature","properties":{"Line":"S142","Sp":"1388.50000000000","X":"650300.50000000000","Y":"9220975.30000000075","NAMOBJ":"Pucangro","WADMKC":"Kalitengah","WADMKK":"Lamongan"},"geometry":{"type":"Point","coordinates":[112.4,-7.0]}},{"type":"Feature","properties":{"Line":"S142","Sp":"1392.50000000000","X":"650300.50000000000","Y":"9220925.30000000075","NAMOBJ":"Pucangro","WADMKC":"Kalitengah","WADMKK":"Lamongan"},"geometry":{"type":"Point","coordinates":[112.4,-7.0]}},{"type":"Feature","properties":{"Line":"S142","Sp":"1396.50000000000","X":"650300.50000000000","Y":"9220875.30000000075","NAMOBJ":"Pucangro","WADMKC":"Kalitengah","WADMKK":"Lamongan"},"geometry":{"type":"Point","coordinates":[112.4,-7.0]}},{"type":"Feature","properties":{"Line":"S142","Sp":"1400.50000000000","X":"650300.50000000000","Y":"9220825.30000000075","NAMOBJ":"Pucangro","WADMKC":"Kalitengah","WADMKK":"Lamongan"},"geometry":{"type":"Point","coordinates":[112.4,-7.0]}},{"type":"Feature","properties":{"Line":"S142","Sp":"1404.50000000000","X":"650300.50000000000","Y":"9220775.30000000075","NAMOBJ":"Pucangro","WADMKC":"Kalitengah","WADMKK":"Lamongan"},"geometry":{"type":"Point","coordinates":[112.4,-7.0]}},{"type":"Feature","properties":{"Line":"S140","Sp":"1360.50000000000","X":"649300.50000000000","Y":"9222375.30000000075","NAMOBJ":"Pucangtelu","WADMKC":"Kalitengah","WADMKK":"Lamongan"},"geometry":{"type":"Point","coordinates":[112.4,-7.0]}},{"type":"Feature","properties":{"Line":"S140","Sp":"1364.50000000000","X":"649300.50000000000","Y":"9222325.30000000075","NAMOBJ":"Pucangtelu","WADMKC":"Kalitengah","WADMKK":"Lamongan"},"geometry":{"type":"Point","coordinates":[112.4,-7.0]}},{"type":"Feature","properties":{"Line":"S140","Sp":"1368.50000000000","X":"649300.50000000000","Y":"9222275.30000000075","NAMOBJ":"Pucangtelu","WADMKC":"Kalitengah","WADMKK":"Lamongan"},"geometry":{"type":"Point","coordinates":[112.4,-7.0]}},{"type":"Feature","properties":{"Line":"S140","Sp":"1372.50000000000","X":"649300.50000000000","Y":"9222225.30000000075","NAMOBJ":"Pucangtelu","WADMKC":"Kalitengah","WADMKK":"Lamongan"},"geometry":{"type":"Point","coordinates":[112.4,-7.0]}},{"type":"Feature","properties":{"Line":"S140","Sp":"1376.50000000000","X":"649300.50000000000","Y":"9222175.30000000075","NAMOBJ":"Pucangtelu","WADMKC":"Kalitengah","WADMKK":"Lamongan"},"geometry":{"type":"Point","coordinates":[112.4,-7.0]}},{"type":"Feature","properties":{"Line":"S140","Sp":"1380.50000000000","X":"649300.50000000000","Y":"9222125.30000000075","NAMOBJ":"Sungelebak","WADMKC":"Karanggeneng","WADMKK":"Lamongan"},"geometry":{"type":"Point","coordinates":[112.4,-7.0]}},{"type":"Feature","properties":{"Line":"S140","Sp":"1384.50000000000","X":"649300.50000000000","Y":"9222075.30000000075","NAMOBJ":"Sungelebak","WADMKC":"Karanggeneng","WADMKK":"Lamongan"},"geometry":{"type":"Point","coordinates":[112.4,-7.0]}},{"type":"Feature","properties":{"Line":"S140","Sp":"1388.50000000000","X":"649300.50000000000","Y":"9222025.30000000075","NAMOBJ":"Sungelebak","WADMKC":"Karanggeneng","WADMKK":"Lamongan"},"geometry":{"type":"Point","coordinates":[112.4,-7.0]}},{"type":"Feature","properties":{"Line":"S140","Sp":"1392.50000000000","X":"649300.50000000000","Y":"9221975.30000000075","NAMOBJ":"Sungelebak","WADMKC":"Karanggeneng","WADMKK":"Lamongan"},"geometry":{"type":"Point","coordinates":[112.4,-7.0]}},{"type":"Feature","properties":{"Line":"S140","Sp":"1396.50000000000","X":"649300.50000000000","Y":"9221925.30000000075","NAMOBJ":"Sungelebak","WADMKC":"Karanggeneng","WADMKK":"Lamongan"},"geometry":{"type":"Point","coordinates":[112.4,-7.0]}},{"type":"Feature","properties":{"Line":"S140","Sp":"1400.50000000000","X":"649300.50000000000","Y":"9221875.30000000075","NAMOBJ":"Sungelebak","WADMKC":"Karanggeneng","WADMKK":"Lamongan"},"geometry":{"type":"Point","coordinates":[112.4,-7.0]}},{"type":"Feature","properties":{"Line":"S140","Sp":"1404.50000000000","X":"649300.50000000000","Y":"9221825.30000000075","NAMOBJ":"Sungelebak","WADMKC":"Karanggeneng","WADMKK":"Lamongan"},"geometry":{"type":"Point","coordinates":[112.4,-7.0]}},{"type":"Feature","properties":{"Line":"S140","Sp":"1408.50000000000","X":"649300.50000000000","Y":"9221775.30000000075","NAMOBJ":"Sungelebak","WADMKC":"Karanggeneng","WADMKK":"Lamongan"},"geometry":{"type":"Point","coordinates":[112.4,-7.0]}},{"type":"Feature","properties":{"Line":"S140","Sp":"1412.50000000000","X":"649300.50000000000","Y":"9221725.30000000075","NAMOBJ":"Sungelebak","WADMKC":"Karanggeneng","WADMKK":"Lamongan"},"geometry":{"type":"Point","coordinates":[112.4,-7.0]}},{"type":"Feature","properties":{"Line":"S140","Sp":"1416.50000000000","X":"649300.50000000000","Y":"9221675.30000000075","NAMOBJ":"Sungelebak","WADMKC":"Karanggeneng","WADMKK":"Lamongan"},"geometry":{"type":"Point","coordinates":[112.4,-7.0]}},{"type":"Feature","properties":{"Line":"S140","Sp":"1420.50000000000","X":"649300.50000000000","Y":"9221625.30000000075","NAMOBJ":"Sungelebak","WADMKC":"Karanggeneng","WADMKK":"Lamongan"},"geometry":{"type":"Point","coordinates":[112.4,-7.0]}}]}