{"type":"FeatureCollection","features":[{"type":"Feature","properties":{"Line":"S118","Sp":"2576.50000000000","X":"638300.50000000000","Y":"9208175.30000000075","NAMOBJ":"Bakalrejo","WADMKC":"Sugio","WADMKK":"Lamongan"},"geometry":{"type":"Point","coordinates":[112.3,-7.2]}},{"type":"Feature","properties":{"Line":"S118","Sp":"2580.50000000000","X":"638300.50000000000","Y":"9208125.30000000075","NAMOBJ":"Bakalrejo","WADMKC":"Sugio","WADMKK":"Lamongan"},"geometry":{"type":"Point","coordinates":[112.3,-7.2]}},{"type":"Feature","properties":{"Line":"S118","Sp":"2584.50000000000","X":"638300.50000000000","Y":"9208075.30000000075","NAMOBJ":"Bakalrejo","WADMKC":"Sugio","WADMKK":"Lamongan"},"geometry":{"type":"Point","coordinates":[112.3,-7.2]}},{"type":"Feature","properties":{"Line":"S118","Sp":"2588.50000000000","X":"638300.50000000000","Y":"9208025.30000000075","NAMOBJ":"Bakalrejo","WADMKC":"Sugio","WADMKK":"Lamongan"},"geometry":{"type":"Point","coordinates":[112.3,-7.2]}},{"type":"Feature","properties":{"Line":"S118","Sp":"2592.50000000000","X":"638300.50000000000","Y":"9207975.30000000075","NAMOBJ":"Bakalrejo","WADMKC":"Sugio","WADMKK":"Lamongan"},"geometry":{"type":"Point","coordinates":[112.3,-7.2]}},{"type":"Feature","properties":{"Line":"S118","Sp":"2596.50000000000","X":"638300.50000000000","Y":"9207925.30000000075","NAMOBJ":"Bakalrejo","WADMKC":"Sugio","WADMKK":"Lamongan"},"geometry":{"type":"Point","coordinates":[112.3,-7.2]}},{"type":"Feature","properties":{"Line":"S118","Sp":"2600.50000000000","X":"638300.50000000000","Y":"9207875.30000000075","NAMOBJ":"Bakalrejo","WADMKC":"Sugio","WADMKK":"Lamongan"},"geometry":{"type":"Point","coordinates":[112.3,-7.2]}},{"type":"Feature","properties":{"Line":"S118","Sp":"2604.50000000000","X":"638300.50000000000","Y":"9207825.30000000075","NAMOBJ":"Bakalrejo","WADMKC":"Sugio","WADMKK":"Lamongan"},"geometry":{"type":"Point","coordinates":[112.3,-7.2]}},{"type":"Feature","properties":{"Line":"S118","Sp":"2608.50000000000","X":"638300.50000000000","Y":"9207775.30000000075","NAMOBJ":"Bakalrejo","WADMKC":"Sugio","WADMKK":"Lamongan"},"geometry":{"type":"Point","coordinates":[112.3,-7.2]}},{"type":"Feature","properties":{"Line":"S120","Sp":"2588.50000000000","X":"639300.50000000000","Y":"9207975.30000000075","NAMOBJ":"Bakalrejo","WADMKC":"Sugio","WADMKK":"Lamongan"},"geometry":{"type":"Point","coordinates":[112.3,-7.2]}},{"type":"Feature","properties":{"Line":"S120","Sp":"2592.50000000000","X":"639300.50000000000","Y":"9207925.30000000075","NAMOBJ":"Bakalrejo","WADMKC":"Sugio","WADMKK":"Lamongan"},"geometry":{"type":"Point","coordinates":[112.3,-7.2]}},{"type":"Feature","properties":{"Line":"S120","Sp":"2596.50000000000","X":"639300.50000000000","Y":"9207875.30000000075","NAMOBJ":"Bakalrejo","WADMKC":"Sugio","WADMKK":"Lamongan"},"geometry":{"type":"Point","coordinates":[112.3,-7.2]}},{"type":"Feature","properties":{"Line":"S120","Sp":"2600.50000000000","X":"639300.50000000000","Y":"9207825.30000000075","NAMOBJ":"Bakalrejo","WADMKC":"Sugio","WADMKK":"Lamongan"},"geometry":{"type":"Point","coordinates":[112.3,-7.2]}},{"type":"Feature","properties":{"Line":"S120","Sp":"2604.50000000000","X":"639300.50000000000","Y":"9207775.30000000075","NAMOBJ":"Bakalrejo","WADMKC":"Sugio","WADMKK":"Lamongan"},"geometry":{"type":"Point","coordinates":[112.3,-7.2]}},{"type":"Feature","properties":{"Line":"S120","Sp":"2608.50000000000","X":"639300.50000000000","Y":"9207725.30000000075","NAMOBJ":"Bakalrejo","WADMKC":"Sugio","WADMKK":"Lamongan"},"geometry":{"type":"Point","coordinates":[112.3,-7.2]}},{"type":"Feature","properties":{"Line":"S120","Sp":"2612.50000000000","X":"639300.50000000000","Y":"9207675.30000000075","NAMOBJ":"Bakalrejo","WADMKC":"Sugio","WADMKK":"Lamongan"},"geometry":{"type":"Point","coordinates":[112.3,-7.2]}},{"type":"Feature","properties":{"Line":"S120","Sp":"2616.50000000000","X":"639300.50000000000","Y":"9207625.30000000075","NAMOBJ":"Bakalrejo","WADMKC":"Sugio","WADMKK":"Lamongan"},"geometry":{"type":"Point","coordinates":[112.3,-7.2]}},{"type":"Feature","properties":{"Line":"S120","Sp":"2620.50000000000","X":"639300.50000000000","Y":"9207575.30000000075","NAMOBJ":"Bakalrejo","WADMKC":"Sugio","WADMKK":"Lamongan"},"geometry":{"type":"Point","coordinates":[112.3,-7.2]}},{"type":"Feature","properties":{"Line":"S120","Sp":"2624.50000000000","X":"639300.50000000000","Y":"9207525.30000000075","NAMOBJ":"Bakalrejo","WADMKC":"Sugio","WADMKK":"Lamongan"},"geometry":{"type":"Point","coordinates":[112.3,-7.2]}},{"type":"Feature","properties":{"Line":"S120","Sp":"2628.50000000000","X":"639300.50000000000","Y":"9207475.30000000075","NAMOBJ":"Bakalrejo","WADMKC":"Sugio","WADMKK":"Lamongan"},"geometry":{"type":"Point","coordinates":[112.3,-7.2]}},{"type":"Feature","properties":{"Line":"S120","Sp":"2632.50000000000","X":"639300.50000000000","Y":"9207425.30000000075","NAMOBJ":"Bakalrejo","WADMKC":"Sugio","WADMKK":"Lamongan"},"geometry":{"type":"Point","coordinates":[112.3,-7.2]}},{"type":"Feature","properties":{"Line":"S120","Sp":"2636.50000000000","X":"639300.50000000000","Y":"9207375.30000000075","NAMOBJ":"Bakalrejo","WADMKC":"Sugio","WADMKK":"Lamongan"},"geometry":{"type":"Point","coordinates":[112.3,-7.2]}},{"type":"Feature","properties":{"Line":"S120","Sp":"2640.50000000000","X":"639300.50000000000","Y":"9207325.30000000075","NAMOBJ":"Bakalrejo","WADMKC":"Sugio","WADMKK":"Lamongan"},"geometry":{"type":"Point","coordinates":[112.3,-7.2]}},{"type":"Feature","properties":{"Line":"S120","Sp":"2644.50000000000","X":"639300.50000000000","Y":"9207275.30000000075","NAMOBJ":"Bakalrejo","WADMKC":"Sugio","WADMKK":"Lamongan"},"geometry":{"type":"Point","coordinates":[112.3,-7.2]}},{"type":"Feature","properties":{"Line":"S120","Sp":"2648.50000000000","X":"639300.50000000000","Y":"9207225.30000000075","NAMOBJ":"Bakalrejo","WADMKC":"Sugio","WADMKK":"Lamongan"},"geometry":{"type":"Point","coordinates":[112.3,-7.2]}},{"type":"Feature","properties":{"Line":"S120","Sp":"2652.50000000000","X":"639300.50000000000","Y":"9207175.30000000075","NAMOBJ":"Bakalrejo","WADMKC":"Sugio","WADMKK":"Lamongan"},"geometry":{"type":"Point","coordinates":[112.3,-7.2]}},{"type":"Feature","properties":{"Line":"S120","Sp":"2656.50000000000","X":"639300.50000000000","Y":"9207125.30000000075","NAMOBJ":"Bakalrejo","WADMKC":"Sugio","WADMKK":"Lamongan"},"geometry":{"type":"Point","coordinates":[112.3,-7.2]}},{"type":"Feature","properties":{"Line":"S120","Sp":"2660.50000000000","X":"639300.50000000000","Y":"9207075.30000000075","NAMOBJ":"Bakalrejo","WADMKC":"Sugio","WADMKK":"Lamongan"},"geometry":{"type":"Point","coordinates":[112.3,-7.2]}},{"type":"Feature","properties":{"Line":"S120","Sp":"2664.50000000000","X":"639300.50000000000","Y":"9207025.30000000075","NAMOBJ":"Bakalrejo","WADMKC":"Sugio","WADMKK":"Lamongan"},"geometry":{"type":"Point","coordinates":[112.3,-7.2]}},{"type":"Feature","properties":{"Line":"S122","Sp":"2632.50000000000","X":"640300.50000000000","Y":"9207975.30000000075","NAMOBJ":"Bakalrejo","WADMKC":"Sugio","WADMKK":"Lamongan"},"geometry":{"type":"Point","coordinates":[112.3,-7.2]}},{"type":"Feature","properties":{"Line":"S122","Sp":"2636.50000000000","X":"640300.50000000000","Y":"9207925.30000000075","NAMOBJ":"Bakalrejo","WADMKC":"Sugio","WADMKK":"Lamongan"},"geometry":{"type":"Point","coordinates":[112.3,-7.2]}},{"type":"Feature","properties":{"Line":"S122","Sp":"2640.50000000000","X":"640300.50000000000","Y":"9207875.30000000075","NAMOBJ":"Bakalrejo","WADMKC":"Sugio","WADMKK":"Lamongan"},"geometry":{"type":"Point","coordinates":[112.3,-7.2]}},{"type":"Feature","properties":{"Line":"S122","Sp":"2644.50000000000","X":"640300.50000000000","Y":"9207825.30000000075","NAMOBJ":"Bakalrejo","WADMKC":"Sugio","WADMKK":"Lamongan"},"geometry":{"type":"Point","coordinates":[112.3,-7.2]}},{"type":"Feature","properties":{"Line":"S122","Sp":"2648.50000000000","X":"640300.50000000000","Y":"9207775.30000000075","NAMOBJ":"Bakalrejo","WADMKC":"Sugio","WADMKK":"Lamongan"},"geometry":{"type":"Point","coordinates":[112.3,-7.2]}},{"type":"Feature","properties":{"Line":"S122","Sp":"2652.50000000000","X":"640300.50000000000","Y":"9207725.30000000075","NAMOBJ":"Bakalrejo","WADMKC":"Sugio","WADMKK":"Lamongan"},"geometry":{"type":"Point","coordinates":[112.3,-7.2]}},{"type":"Feature","properties":{"Line":"S122","Sp":"2656.50000000000","X":"640300.50000000000","Y":"9207675.30000000075","NAMOBJ":"Bakalrejo","WADMKC":"Sugio","WADMKK":"Lamongan"},"geometry":{"type":"Point","coordinates":[112.3,-7.2]}},{"type":"Feature","properties":{"Line":"S122","Sp":"2660.50000000000","X":"640300.50000000000","Y":"9207625.30000000075","NAMOBJ":"Bakalrejo","WADMKC":"Sugio","WADMKK":"Lamongan"},"geometry":{"type":"Point","coordinates":[112.3,-7.2]}},{"type":"Feature","properties":{"Line":"S122","Sp":"2664.50000000000","X":"640300.50000000000","Y":"9207575.30000000075","NAMOBJ":"Bakalrejo","WADMKC":"Sugio","WADMKK":"Lamongan"},"geometry":{"type":"Point","coordinates":[112.3,-7.2]}},{"type":"Feature","properties":{"Line":"S122","Sp":"2668.50000000000","X":"640300.50000000000","Y":"9207525.30000000075","NAMOBJ":"Bakalrejo","WADMKC":"Sugio","WADMKK":"Lamongan"},"geometry":{"type":"Point","coordinates":[112.3,-7.2]}},{"type":"Feature","properties":{"Line":"S122","Sp":"2672.50000000000","X":"640300.50000000000","Y":"9207475.30000000075","NAMOBJ":"Bakalrejo","WADMKC":"Sugio","WADMKK":"Lamongan"},"geometry":{"type":"Point","coordinates":[112.3,-7.2]}},{"type":"Feature","properties":{"Line":"S122","Sp":"2676.50000000000","X":"640300.50000000000","Y":"9207425.30000000075","NAMOBJ":"Bakalrejo","WADMKC":"Sugio","WADMKK":"Lamongan"},"geometry":{"type":"Point","coordinates":[112.3,-7.2]}},{"type":"Feature","properties":{"Line":"S122","Sp":"2680.50000000000","X":"640300.50000000000","Y":"9207375.30000000075","NAMOBJ":"Bakalrejo","WADMKC":"Sugio","WADMKK":"Lamongan"},"geometry":{"type":"Point","coordinates":[112.3,-7.2]}},{"type":"Feature","properties":{"Line":"S122","Sp":"2684.50000000000","X":"640300.50000000000","Y":"9207325.30000000075","NAMOBJ":"Bakalrejo","WADMKC":"Sugio","WADMKK":"Lamongan"},"geometry":{"type":"Point","coordinates":[112.3,-7.2]}},{"type":"Feature","properties":{"Line":"S122","Sp":"2688.50000000000","X":"640300.50000000000","Y":"9207275.30000000075","NAMOBJ":"Bakalrejo","WADMKC":"Sugio","WADMKK":"Lamongan"},"geometry":{"type":"Point","coordinates":[112.3,-7.2]}},{"type":"Feature","properties":{"Line":"S122","Sp":"2692.50000000000","X":"640300.50000000000","Y":"9207225.30000000075","NAMOBJ":"Bakalrejo","WADMKC":"Sugio","WADMKK":"Lamongan"},"geometry":{"type":"Point","coordinates":[112.3,-7.2]}},{"type":"Feature","properties":{"Line":"S122","Sp":"2696.50000000000","X":"640300.50000000000","Y":"9207175.30000000075","NAMOBJ":"Bakalrejo","WADMKC":"Sugio","WADMKK":"Lamongan"},"geometry":{"type":"Point","coordinates":[112.3,-7.2]}},{"type":"Feature","properties":{"Line":"S122","Sp":"2700.50000000000","X":"640300.50000000000","Y":"9207125.30000000075","NAMOBJ":"Bakalrejo","WADMKC":"Sugio","WADMKK":"Lamongan"},"geometry":{"type":"Point","coordinates":[112.3,-7.2]}},{"type":"Feature","properties":{"Line":"S122","Sp":"2704.50000000000","X":"640300.50000000000","Y":"9207075.30000000075","NAMOBJ":"Bakalrejo","WADMKC":"Sugio","WADMKK":"Lamongan"},"geometry":{"type":"Point","coordinates":[112.3,-7.2]}},{"type":"Feature","properties":{"Line":"S122","Sp":"2708.50000000000","X":"640300.50000000000","Y":"9207025.30000000075","NAMOBJ":"Bakalrejo","WADMKC":"Sugio","WADMKK":"Lamongan"},"geometry":{"type":"Point","coordinates":[112.3,-7.2]}},{"type":"Feature","properties":{"Line":"S124","Sp":"2708.50000000000","X":"641300.50000000000","Y":"9207575.30000000075","NAMOBJ":"Bakalrejo","WADMKC":"Sugio","WADMKK":"Lamongan"},"geometry":{"type":"Point","coordinates":[112.3,-7.2]}},{"type":"Feature","properties":{"Line":"S124","Sp":"2712.50000000000","X":"641300.50000000000","Y":"9207525.30000000075","NAMOBJ":"Bakalrejo","WADMKC":"Sugio","WADMKK":"Lamongan"},"geometry":{"type":"Point","coordinates":[112.3,-7.2]}},{"type":"Feature","properties":{"Line":"S124","Sp":"2716.50000000000","X":"641300.50000000000","Y":"9207475.30000000075","NAMOBJ":"Bakalrejo","WADMKC":"Sugio","WADMKK":"Lamongan"},"geometry":{"type":"Point","coordinates":[112.3,-7.2]}},{"type":"Feature","properties":{"Line":"S124","Sp":"2720.50000000000","X":"641300.50000000000","Y":"9207425.30000000075","NAMOBJ":"Bakalrejo","WADMKC":"Sugio","WADMKK":"Lamongan"},"geometry":{"type":"Point","coordinates":[112.3,-7.2]}},{"type":"Feature","properties":{"Line":"S124","Sp":"2724.50000000000","X":"641300.50000000000","Y":"9207375.30000000075","NAMOBJ":"Bakalrejo","WADMKC":"Sugio","WADMKK":"Lamongan"},"geometry":{"type":"Point","coordinates":[112.3,-7.2]}},{"type":"Feature","properties":{"Line":"S124","Sp":"2728.50000000000","X":"641300.50000000000","Y":"9207325.30000000075","NAMOBJ":"Bakalrejo","WADMKC":"Sugio","WADMKK":"Lamongan"},"geometry":{"type":"Point","coordinates":[112.3,-7.2]}},{"type":"Feature","properties":{"Line":"S124","Sp":"2732.50000000000","X":"641300.50000000000","Y":"9207275.30000000075","NAMOBJ":"Bakalrejo","WADMKC":"Sugio","WADMKK":"Lamongan"},"geometry":{"type":"Point","coordinates":[112.3,-7.2]}},{"type":"Feature","properties":{"Line":"S124","Sp":"2736.50000000000","X":"641300.50000000000","Y":"9207225.30000000075","NAMOBJ":"Bakalrejo","WADMKC":"Sugio","WADMKK":"Lamongan"},"geometry":{"type":"Point","coordinates":[112.3,-7.2]}},{"type":"Feature","properties":{"Line":"S101","Sp":"2128.50000000000","X":"638325.50000000000","Y":"9208800.30000000075","NAMOBJ":"Bedingin","WADMKC":"Sugio","WADMKK":"Lamongan"},"geometry":{"type":"Point","coordinates":[112.3,-7.2]}},{"type":"Feature","properties":{"Line":"S101","Sp":"2132.50000000000","X":"638375.50000000000","Y":"9208800.30000000075","NAMOBJ":"Bedingin","WADMKC":"Sugio","WADMKK":"Lamongan"},"geometry":{"type":"Point","coordinates":[112.3,-7.2]}},{"type":"Feature","properties":{"Line":"S101","Sp":"2136.50000000000","X":"638425.50000000000","Y":"9208800.30000000075","NAMOBJ":"Bedingin","WADMKC":"Sugio","WADMKK":"Lamongan"},"geometry":{"type":"Point","coordinates":[112.3,-7.2]}},{"type":"Feature","properties":{"Line":"S118","Sp":"2472.50000000000","X":"638300.50000000000","Y":"9209475.30000000075","NAMOBJ":"Bedingin","WADMKC":"Sugio","WADMKK":"Lamongan"},"geometry":{"type":"Point","coordinates":[112.3,-7.2]}},{"type":"Feature","properties":{"Line":"S118","Sp":"2508.50000000000","X":"638300.50000000000","Y":"9209025.30000000075","NAMOBJ":"Bedingin","WADMKC":"Sugio","WADMKK":"Lamongan"},"geometry":{"type":"Point","coordinates":[112.3,-7.2]}},{"type":"Feature","properties":{"Line":"S118","Sp":"2512.50000000000","X":"638300.50000000000","Y":"9208975.30000000075","NAMOBJ":"Bedingin","WADMKC":"Sugio","WADMKK":"Lamongan"},"geometry":{"type":"Point","coordinates":[112.3,-7.2]}},{"type":"Feature","properties":{"Line":"S118","Sp":"2516.50000000000","X":"638300.50000000000","Y":"9208925.30000000075","NAMOBJ":"Bedingin","WADMKC":"Sugio","WADMKK":"Lamongan"},"geometry":{"type":"Point","coordinates":[112.3,-7.2]}},{"type":"Feature","properties":{"Line":"S118","Sp":"2520.50000000000","X":"638300.50000000000","Y":"9208875.30000000075","NAMOBJ":"Bedingin","WADMKC":"Sugio","WADMKK":"Lamongan"},"geometry":{"type":"Point","coordinates":[112.3,-7.2]}},{"type":"Feature","properties":{"Line":"S118","Sp":"2524.50000000000","X":"638300.50000000000","Y":"9208825.30000000075","NAMOBJ":"Bedingin","WADMKC":"Sugio","WADMKK":"Lamongan"},"geometry":{"type":"Point","coordinates":[112.3,-7.2]}},{"type":"Feature","properties":{"Line":"S118","Sp":"2528.50000000000","X":"638300.50000000000","Y":"9208775.30000000075","NAMOBJ":"Bedingin","WADMKC":"Sugio","WADMKK":"Lamongan"},"geometry":{"type":"Point","coordinates":[112.3,-7.2]}},{"type":"Feature","properties":{"Line":"S118","Sp":"2532.50000000000","X":"638300.50000000000","Y":"9208725.30000000075","NAMOBJ":"Bedingin","WADMKC":"Sugio","WADMKK":"Lamongan"},"geometry":{"type":"Point","coordinates":[112.3,-7.2]}},{"type":"Feature","properties":{"Line":"S120","Sp":"2668.50000000000","X":"639300.50000000000","Y":"9206975.30000000075","NAMOBJ":"Karangsambigalih","WADMKC":"Sugio","WADMKK":"Lamongan"},"geometry":{"type":"Point","coordinates":[112.3,-7.2]}},{"type":"Feature","properties":{"Line":"S120","Sp":"2672.50000000000","X":"639300.50000000000","Y":"9206925.30000000075","NAMOBJ":"Karangsambigalih","WADMKC":"Sugio","WADMKK":"Lamongan"},"geometry":{"type":"Point","coordinates":[112.3,-7.2]}},{"type":"Feature","properties":{"Line":"S120","Sp":"2676.50000000000","X":"639300.50000000000","Y":"9206875.30000000075","NAMOBJ":"Karangsambigalih","WADMKC":"Sugio","WADMKK":"Lamongan"},"geometry":{"type":"Point","coordinates":[112.3,-7.2]}},{"type":"Feature","properties":{"Line":"S120","Sp":"2680.50000000000","X":"639300.50000000000","Y":"9206825.30000000075","NAMOBJ":"Karangsambigalih","WADMKC":"Sugio","WADMKK":"Lamongan"},"geometry":{"type":"Point","coordinates":[112.3,-7.2]}},{"type":"Feature","properties":{"Line":"S120","Sp":"2684.50000000000","X":"639300.50000000000","Y":"9206775.30000000075","NAMOBJ":"Karangsambigalih","WADMKC":"Sugio","WADMKK":"Lamongan"},"geometry":{"type":"Point","coordinates":[112.3,-7.2]}},{"type":"Feature","properties":{"Line":"S120","Sp":"2688.50000000000","X":"639300.50000000000","Y":"9206725.30000000075","NAMOBJ":"Karangsambigalih","WADMKC":"Sugio","WADMKK":"Lamongan"},"geometry":{"type":"Point","coordinates":[112.3,-7.2]}},{"type":"Feature","properties":{"Line":"S120","Sp":"2692.50000000000","X":"639300.50000000000","Y":"9206675.30000000075","NAMOBJ":"Karangsambigalih","WADMKC":"Sugio","WADMKK":"Lamongan"},"geometry":{"type":"Point","coordinates":[112.3,-7.2]}},{"type":"Feature","properties":{"Line":"S120","Sp":"2696.50000000000","X":"639300.50000000000","Y":"9206625.30000000075","NAMOBJ":"Karangsambigalih","WADMKC":"Sugio","WADMKK":"Lamongan"},"geometry":{"type":"Point","coordinates":[112.3,-7.2]}},{"type":"Feature","properties":{"Line":"S120","Sp":"2700.50000000000","X":"639300.50000000000","Y":"9206575.30000000075","NAMOBJ":"Karangsambigalih","WADMKC":"Sugio","WADMKK":"Lamongan"},"geometry":{"type":"Point","coordinates":[112.3,-7.2]}},{"type":"Feature","properties":{"Line":"S120","Sp":"2704.50000000000","X":"639300.50000000000","Y":"9206525.30000000075","NAMOBJ":"Karangsambigalih","WADMKC":"Sugio","WADMKK":"Lamongan"},"geometry":{"type":"Point","coordinates":[112.3,-7.2]}},{"type":"Feature","properties":{"Line":"S120","Sp":"2708.50000000000","X":"639300.50000000000","Y":"9206475.30000000075","NAMOBJ":"Karangsambigalih","WADMKC":"Sugio","WADMKK":"Lamongan"},"geometry":{"type":"Point","coordinates":[112.3,-7.2]}},{"type":"Feature","properties":{"Line":"S124","Sp":"2624.50000000000","X":"641300.50000000000","Y":"9208625.30000000075","NAMOBJ":"Karangsambigalih","WADMKC":"Sugio","WADMKK":"Lamongan"},"geometry":{"type":"Point","coordinates":[112.3,-7.2]}},{"type":"Feature","properties":{"Line":"S124","Sp":"2628.50000000000","X":"641300.50000000000","Y":"9208575.30000000075","NAMOBJ":"Karangsambigalih","WADMKC":"Sugio","WADMKK":"Lamongan"},"geometry":{"type":"Point","coordinates":[112.3,-7.2]}},{"type":"Feature","properties":{"Line":"S124","Sp":"2632.50000000000","X":"641300.50000000000","Y":"9208525.30000000075","NAMOBJ":"Karangsambigalih","WADMKC":"Sugio","WADMKK":"Lamongan"},"geometry":{"type":"Point","coordinates":[112.3,-7.2]}},{"type":"Feature","properties":{"Line":"S124","Sp":"2636.50000000000","X":"641300.50000000000","Y":"9208475.30000000075","NAMOBJ":"Karangsambigalih","WADMKC":"Sugio","WADMKK":"Lamongan"},"geometry":{"type":"Point","coordinates":[112.3,-7.2]}},{"type":"Feature","properties":{"Line":"S124","Sp":"2640.50000000000","X":"641300.50000000000","Y":"9208425.30000000075","NAMOBJ":"Karangsambigalih","WADMKC":"Sugio","WADMKK":"Lamongan"},"geometry":{"type":"Point","coordinates":[112.3,-7.2]}},{"type":"Feature","properties":{"Line":"S124","Sp":"2644.50000000000","X":"641300.50000000000","Y":"9208375.30000000075","NAMOBJ":"Karangsambigalih","WADMKC":"Sugio","WADMKK":"Lamongan"},"geometry":{"type":"Point","coordinates":[112.3,-7.2]}},{"type":"Feature","properties":{"Line":"S124","Sp":"2652.50000000000","X":"641300.50000000000","Y":"9208275.30000000075","NAMOBJ":"Karangsambigalih","WADMKC":"Sugio","WADMKK":"Lamongan"},"geometry":{"type":"Point","coordinates":[112.3,-7.2]}},{"type":"Feature","properties":{"Line":"S124","Sp":"2656.50000000000","X":"641300.50000000000","Y":"9208225.30000000075","NAMOBJ":"Karangsambigalih","WADMKC":"Sugio","WADMKK":"Lamongan"},"geometry":{"type":"Point","coordinates":[112.3,-7.2]}},{"type":"Feature","properties":{"Line":"S118","Sp":"2612.50000000000","X":"638300.50000000000","Y":"9207725.30000000075","NAMOBJ":"Kedungbanjar","WADMKC":"Sugio","WADMKK":"Lamongan"},"geometry":{"type":"Point","coordinates":[112.3,-7.2]}},{"type":"Feature","properties":{"Line":"S118","Sp":"2616.50000000000","X":"638300.50000000000","Y":"9207675.30000000075","NAMOBJ":"Kedungbanjar","WADMKC":"Sugio","WADMKK":"Lamongan"},"geometry":{"type":"Point","coordinates":[112.3,-7.2]}},{"type":"Feature","properties":{"Line":"S118","Sp":"2620.50000000000","X":"638300.50000000000","Y":"9207625.30000000075","NAMOBJ":"Kedungbanjar","WADMKC":"Sugio","WADMKK":"Lamongan"},"geometry":{"type":"Point","coordinates":[112.3,-7.2]}},{"type":"Feature","properties":{"Line":"S118","Sp":"2624.50000000000","X":"638300.50000000000","Y":"9207575.30000000075","NAMOBJ":"Kedungbanjar","WADMKC":"Sugio","WADMKK":"Lamongan"},"geometry":{"type":"Point","coordinates":[112.3,-7.2]}},{"type":"Feature","properties":{"Line":"S118","Sp":"2628.50000000000","X":"638300.50000000000","Y":"9207525.30000000075","NAMOBJ":"Kedungbanjar","WADMKC":"Sugio","WADMKK":"Lamongan"},"geometry":{"type":"Point","coordinates":[112.3,-7.2]}},{"type":"Feature","properties":{"Line":"S118","Sp":"2632.50000000000","X":"638300.50000000000","Y":"9207475.30000000075","NAMOBJ":"Kedungbanjar","WADMKC":"Sugio","WADMKK":"Lamongan"},"geometry":{"type":"Point","coordinates":[112.3,-7.2]}},{"type":"Feature","properties":{"Line":"S118","Sp":"2636.50000000000","X":"638300.50000000000","Y":"9207425.30000000075","NAMOBJ":"Kedungbanjar","WADMKC":"Sugio","WADMKK":"Lamongan"},"geometry":{"type":"Point","coordinates":[112.3,-7.2]}},{"type":"Feature","properties":{"Line":"S118","Sp":"2640.50000000000","X":"638300.50000000000","Y":"9207375.30000000075","NAMOBJ":"Kedungbanjar","WADMKC":"Sugio","WADMKK":"Lamongan"},"geometry":{"type":"Point","coordinates":[112.3,-7.2]}},{"type":"Feature","properties":{"Line":"S118","Sp":"2644.50000000000","X":"638300.50000000000","Y":"9207325.30000000075","NAMOBJ":"Kedungbanjar","WADMKC":"Sugio","WADMKK":"Lamongan"},"geometry":{"type":"Point","coordinates":[112.3,-7.2]}},{"type":"Feature","properties":{"Line":"S118","Sp":"2648.50000000000","X":"638300.50000000000","Y":"9207275.30000000075","NAMOBJ":"Kedungbanjar","WADMKC":"Sugio","WADMKK":"Lamongan"},"geometry":{"type":"Point","coordinates":[112.3,-7.2]}},{"type":"Feature","properties":{"Line":"S118","Sp":"2652.50000000000","X":"638300.50000000000","Y":"9207225.30000000075","NAMOBJ":"Kedungbanjar","WADMKC":"Sugio","WADMKK":"Lamongan"},"geometry":{"type":"Point","coordinates":[112.3,-7.2]}},{"type":"Feature","properties":{"Line":"S118","Sp":"2656.50000000000","X":"638300.50000000000","Y":"9207175.30000000075","NAMOBJ":"Kedungbanjar","WADMKC":"Sugio","WADMKK":"Lamongan"},"geometry":{"type":"Point","coordinates":[112.3,-7.2]}},{"type":"Feature","properties":{"Line":"S118","Sp":"2660.50000000000","X":"638300.50000000000","Y":"9207125.30000000075","NAMOBJ":"Kedungbanjar","WADMKC":"Sugio","WADMKK":"Lamongan"},"geometry":{"type":"Point","coordinates":[112.3,-7.2]}},{"type":"Feature","properties":{"Line":"S118","Sp":"2664.50000000000","X":"638300.50000000000","Y":"9207075.30000000075","NAMOBJ":"Kedungbanjar","WADMKC":"Sugio","WADMKK":"Lamongan"},"geometry":{"type":"Point","coordinates":[112.3,-7.2]}},{"type":"Feature","properties":{"Line":"S118","Sp":"2668.50000000000","X":"638300.50000000000","Y":"9207025.30000000075","NAMOBJ":"Kedungbanjar","WADMKC":"Sugio","WADMKK":"Lamongan"},"geometry":{"type":"Point","coordinates":[112.3,-7.2]}},{"type":"Feature","properties":{"Line":"S118","Sp":"2672.50000000000","X":"638300.50000000000","Y":"9206975.30000000075","NAMOBJ":"Kedungbanjar","WADMKC":"Sugio","WADMKK":"Lamongan"},"geometry":{"type":"Point","coordinates":[112.3,-7.2]}},{"type":"Feature","properties":{"Line":"S118","Sp":"2676.50000000000","X":"638300.50000000000","Y":"9206925.30000000075","NAMOBJ":"Kedungbanjar","WADMKC":"Sugio","WADMKK":"Lamongan"},"geometry":{"type":"Point","coordinates":[112.3,-7.2]}},{"type":"Feature","properties":{"Line":"S118","Sp":"2680.50000000000","X":"638300.50000000000","Y":"9206875.30000000075","NAMOBJ":"Kedungbanjar","WADMKC":"Sugio","WADMKK":"Lamongan"},"geometry":{"type":"Point","coordinates":[112.3,-7.2]}},{"type":"Feature","properties":{"Line":"S118","Sp":"2684.50000000000","X":"638300.50000000000","Y":"9206825.30000000075","NAMOBJ":"Kedungbanjar","WADMKC":"Sugio","WADMKK":"Lamongan"},"geometry":{"type":"Point","coordinates":[112.3,-7.2]}},{"type":"Feature","properties":{"Line":"S118","Sp":"2688.50000000000","X":"638300.50000000000","Y":"9206775.30000000075","NAMOBJ":"Kedungbanjar","WADMKC":"Sugio","WADMKK":"Lamongan"},"geometry":{"type":"Point","coordinates":[112.3,-7.2]}},{"type":"Feature","properties":{"Line":"S118","Sp":"2692.50000000000","X":"638300.50000000000","Y":"9206725.30000000075","NAMOBJ":"Kedungbanjar","WADMKC":"Sugio","WADMKK":"Lamongan"},"geometry":{"type":"Point","coordinates":[112.3,-7.2]}},{"type":"Feature","properties":{"Line":"S118","Sp":"2696.50000000000","X":"638300.50000000000","Y":"9206675.30000000075","NAMOBJ":"Kedungbanjar","WADMKC":"Sugio","WADMKK":"Lamongan"},"geometry":{"type":"Point","coordinates":[112.3,-7.2]}},{"type":"Feature","properties":{"Line":"S118","Sp":"2700.50000000000","X":"638300.50000000000","Y":"9206625.30000000075","NAMOBJ":"Kedungbanjar","WADMKC":"Sugio","WADMKK":"Lamongan"},"geometry":{"type":"Point","coordinates":[112.3,-7.2]}},{"type":"Feature","properties":{"Line":"S118","Sp":"2704.50000000000","X":"638300.50000000000","Y":"9206575.30000000075","NAMOBJ":"Kedungbanjar","WADMKC":"Sugio","WADMKK":"Lamongan"},"geometry":{"type":"Point","coordinates":[112.3,-7.2]}},{"type":"Feature","properties":{"Line":"S101","Sp":"2108.50000000000","X":"638075.50000000000","Y":"9208800.30000000075","NAMOBJ":"Kedungdadi","WADMKC":"Sugio","WADMKK":"Lamongan"},"geometry":{"type":"Point","coordinates":[112.3,-7.2]}},{"type":"Feature","properties":{"Line":"S101","Sp":"2112.50000000000","X":"638125.50000000000","Y":"9208800.30000000075","NAMOBJ":"Kedungdadi","WADMKC":"Sugio","WADMKK":"Lamongan"},"geometry":{"type":"Point","coordinates":[112.3,-7.2]}},{"type":"Feature","properties":{"Line":"S101","Sp":"2116.50000000000","X":"638175.50000000000","Y":"9208800.30000000075","NAMOBJ":"Kedungdadi","WADMKC":"Sugio","WADMKK":"Lamongan"},"geometry":{"type":"Point","coordinates":[112.3,-7.2]}},{"type":"Feature","properties":{"Line":"S101","Sp":"2120.50000000000","X":"638225.50000000000","Y":"9208800.30000000075","NAMOBJ":"Kedungdadi","WADMKC":"Sugio","WADMKK":"Lamongan"},"geometry":{"type":"Point","coordinates":[112.3,-7.2]}},{"type":"Feature","properties":{"Line":"S101","Sp":"2124.50000000000","X":"638275.50000000000","Y":"9208800.30000000075","NAMOBJ":"Kedungdadi","WADMKC":"Sugio","WADMKK":"Lamongan"},"geometry":{"type":"Point","coordinates":[112.3,-7.2]}},{"type":"Feature","properties":{"Line":"S118","Sp":"2484.50000000000","X":"638300.50000000000","Y":"9209325.30000000075","NAMOBJ":"Kedungdadi","WADMKC":"Sugio","WADMKK":"Lamongan"},"geometry":{"type":"Point","coordinates":[112.3,-7.2]}},{"type":"Feature","properties":{"Line":"S118","Sp":"2488.50000000000","X":"638300.50000000000","Y":"9209275.30000000075","NAMOBJ":"Kedungdadi","WADMKC":"Sugio","WADMKK":"Lamongan"},"geometry":{"type":"Point","coordinates":[112.3,-7.2]}},{"type":"Feature","properties":{"Line":"S118","Sp":"2492.50000000000","X":"638300.50000000000","Y":"9209225.30000000075","NAMOBJ":"Kedungdadi","WADMKC":"Sugio","WADMKK":"Lamongan"},"geometry":{"type":"Point","coordinates":[112.3,-7.2]}},{"type":"Feature","properties":{"Line":"S118","Sp":"2496.50000000000","X":"638300.50000000000","Y":"9209175.30000000075","NAMOBJ":"Kedungdadi","WADMKC":"Sugio","WADMKK":"Lamongan"},"geometry":{"type":"Point","coordinates":[112.3,-7.2]}},{"type":"Feature","properties":{"Line":"S118","Sp":"2500.50000000000","X":"638300.50000000000","Y":"9209125.30000000075","NAMOBJ":"Kedungdadi","WADMKC":"Sugio","WADMKK":"Lamongan"},"geometry":{"type":"Point","coordinates":[112.3,-7.2]}},{"type":"Feature","properties":{"Line":"S118","Sp":"2504.50000000000","X":"638300.50000000000","Y":"9209075.30000000075","NAMOBJ":"Kedungdadi","WADMKC":"Sugio","WADMKK":"Lamongan"},"geometry":{"type":"Point","coordinates":[112.3,-7.2]}},{"type":"Feature","properties":{"Line":"S101","Sp":"2296.50000000000","X":"640425.50000000000","Y":"9208800.30000000075","NAMOBJ":"Lebakadi","WADMKC":"Sugio","WADMKK":"Lamongan"},"geometry":{"type":"Point","coordinates":[112.3,-7.2]}},{"type":"Feature","properties":{"Line":"S101","Sp":"2300.50000000000","X":"640475.50000000000","Y":"9208800.30000000075","NAMOBJ":"Lebakadi","WADMKC":"Sugio","WADMKK":"Lamongan"},"geometry":{"type":"Point","coordinates":[112.3,-7.2]}},{"type":"Feature","properties":{"Line":"S101","Sp":"2304.50000000000","X":"640525.50000000000","Y":"9208800.30000000075","NAMOBJ":"Lebakadi","WADMKC":"Sugio","WADMKK":"Lamongan"},"geometry":{"type":"Point","coordinates":[112.3,-7.2]}},{"type":"Feature","properties":{"Line":"S101","Sp":"2308.50000000000","X":"640575.50000000000","Y":"9208800.30000000075","NAMOBJ":"Lebakadi","WADMKC":"Sugio","WADMKK":"Lamongan"},"geometry":{"type":"Point","coordinates":[112.3,-7.2]}},{"type":"Feature","properties":{"Line":"S101","Sp":"2312.50000000000","X":"640625.50000000000","Y":"9208800.30000000075","NAMOBJ":"Lebakadi","WADMKC":"Sugio","WADMKK":"Lamongan"},"geometry":{"type":"Point","coordinates":[112.3,-7.2]}},{"type":"Feature","properties":{"Line":"S101","Sp":"2316.50000000000","X":"640675.50000000000","Y":"9208800.30000000075","NAMOBJ":"Lebakadi","WADMKC":"Sugio","WADMKK":"Lamongan"},"geometry":{"type":"Point","coordinates":[112.3,-7.2]}},{"type":"Feature","properties":{"Line":"S101","Sp":"2320.50000000000","X":"640725.50000000000","Y":"9208800.30000000075","NAMOBJ":"Lebakadi","WADMKC":"Sugio","WADMKK":"Lamongan"},"geometry":{"type":"Point","coordinates":[112.3,-7.2]}},{"type":"Feature","properties":{"Line":"S101","Sp":"2324.50000000000","X":"640775.50000000000","Y":"9208800.30000000075","NAMOBJ":"Lebakadi","WADMKC":"Sugio","WADMKK":"Lamongan"},"geometry":{"type":"Point","coordinates":[112.3,-7.2]}},{"type":"Feature","properties":{"Line":"S101","Sp":"2328.50000000000","X":"640825.50000000000","Y":"9208800.30000000075","NAMOBJ":"Lebakadi","WADMKC":"Sugio","WADMKK":"Lamongan"},"geometry":{"type":"Point","coordinates":[112.3,-7.2]}},{"type":"Feature","properties":{"Line":"S101","Sp":"2332.50000000000","X":"640875.50000000000","Y":"9208800.30000000075","NAMOBJ":"Lebakadi","WADMKC":"Sugio","WADMKK":"Lamongan"},"geometry":{"type":"Point","coordinates":[112.3,-7.2]}},{"type":"Feature","properties":{"Line":"S101","Sp":"2336.50000000000","X":"640925.50000000000","Y":"9208800.30000000075","NAMOBJ":"Lebakadi","WADMKC":"Sugio","WADMKK":"Lamongan"},"geometry":{"type":"Point","coordinates":[112.3,-7.2]}},{"type":"Feature","properties":{"Line":"S101","Sp":"2340.50000000000","X":"640975.50000000000","Y":"9208800.30000000075","NAMOBJ":"Lebakadi","WADMKC":"Sugio","WADMKK":"Lamongan"},"geometry":{"type":"Point","coordinates":[112.3,-7.2]}},{"type":"Feature","properties":{"Line":"S101","Sp":"2344.50000000000","X":"641025.50000000000","Y":"9208800.30000000075","NAMOBJ":"Lebakadi","WADMKC":"Sugio","WADMKK":"Lamongan"},"geometry":{"type":"Point","coordinates":[112.3,-7.2]}},{"type":"Feature","properties":{"Line":"S101","Sp":"2348.50000000000","X":"641075.50000000000","Y":"9208800.30000000075","NAMOBJ":"Lebakadi","WADMKC":"Sugio","WADMKK":"Lamongan"},"geometry":{"type":"Point","coordinates":[112.3,-7.2]}},{"type":"Feature","properties":{"Line":"S101","Sp":"2352.50000000000","X":"641125.50000000000","Y":"9208800.30000000075","NAMOBJ":"Lebakadi","WADMKC":"Sugio","WADMKK":"Lamongan"},"geometry":{"type":"Point","coordinates":[112.3,-7.2]}},{"type":"Feature","properties":{"Line":"S101","Sp":"2356.50000000000","X":"641175.50000000000","Y":"9208800.30000000075","NAMOBJ":"Lebakadi","WADMKC":"Sugio","WADMKK":"Lamongan"},"geometry":{"type":"Point","coordinates":[112.3,-7.2]}},{"type":"Feature","properties":{"Line":"S101","Sp":"2360.50000000000","X":"641225.50000000000","Y":"9208800.30000000075","NAMOBJ":"Lebakadi","WADMKC":"Sugio","WADMKK":"Lamongan"},"geometry":{"type":"Point","coordinates":[112.3,-7.2]}},{"type":"Feature","properties":{"Line":"S101","Sp":"2364.50000000000","X":"641275.50000000000","Y":"9208800.30000000075","NAMOBJ":"Lebakadi","WADMKC":"Sugio","WADMKK":"Lamongan"},"geometry":{"type":"Point","coordinates":[112.3,-7.2]}},{"type":"Feature","properties":{"Line":"S101","Sp":"2368.50000000000","X":"641325.50000000000","Y":"9208800.30000000075","NAMOBJ":"Lebakadi","WADMKC":"Sugio","WADMKK":"Lamongan"},"geometry":{"type":"Point","coordinates":[112.3,-7.2]}},{"type":"Feature","properties":{"Line":"S101","Sp":"2372.50000000000","X":"641375.50000000000","Y":"9208800.30000000075","NAMOBJ":"Lebakadi","WADMKC":"Sugio","WADMKK":"Lamongan"},"geometry":{"type":"Point","coordinates":[112.3,-7.2]}},{"type":"Feature","properties":{"Line":"S122","Sp":"2512.50000000000","X":"640300.50000000000","Y":"9209475.30000000075","NAMOBJ":"Lebakadi","WADMKC":"Sugio","WADMKK":"Lamongan"},"geometry":{"type":"Point","coordinates":[112.3,-7.2]}},{"type":"Feature","properties":{"Line":"S122","Sp":"2516.50000000000","X":"640300.50000000000","Y":"9209425.30000000075","NAMOBJ":"Lebakadi","WADMKC":"Sugio","WADMKK":"Lamongan"},"geometry":{"type":"Point","coordinates":[112.3,-7.2]}},{"type":"Feature","properties":{"Line":"S122","Sp":"2520.50000000000","X":"640300.50000000000","Y":"9209375.30000000075","NAMOBJ":"Lebakadi","WADMKC":"Sugio","WADMKK":"Lamongan"},"geometry":{"type":"Point","coordinates":[112.3,-7.2]}},{"type":"Feature","properties":{"Line":"S122","Sp":"2524.50000000000","X":"640300.50000000000","Y":"9209325.30000000075","NAMOBJ":"Lebakadi","WADMKC":"Sugio","WADMKK":"Lamongan"},"geometry":{"type":"Point","coordinates":[112.3,-7.2]}},{"type":"Feature","properties":{"Line":"S124","Sp":"2560.50000000000","X":"641300.50000000000","Y":"9209425.30000000075","NAMOBJ":"Lebakadi","WADMKC":"Sugio","WADMKK":"Lamongan"},"geometry":{"type":"Point","coordinates":[112.3,-7.2]}},{"type":"Feature","properties":{"Line":"S124","Sp":"2564.50000000000","X":"641300.50000000000","Y":"9209375.30000000075","NAMOBJ":"Lebakadi","WADMKC":"Sugio","WADMKK":"Lamongan"},"geometry":{"type":"Point","coordinates":[112.3,-7.2]}},{"type":"Feature","properties":{"Line":"S124","Sp":"2568.50000000000","X":"641300.50000000000","Y":"9209325.30000000075","NAMOBJ":"Lebakadi","WADMKC":"Sugio","WADMKK":"Lamongan"},"geometry":{"type":"Point","coordinates":[112.3,-7.2]}},{"type":"Feature","properties":{"Line":"S124","Sp":"2572.50000000000","X":"641300.50000000000","Y":"9209275.30000000075","NAMOBJ":"Lebakadi","WADMKC":"Sugio","WADMKK":"Lamongan"},"geometry":{"type":"Point","coordinates":[112.3,-7.2]}},{"type":"Feature","properties":{"Line":"S124","Sp":"2576.50000000000","X":"641300.50000000000","Y":"9209225.30000000075","NAMOBJ":"Lebakadi","WADMKC":"Sugio","WADMKK":"Lamongan"},"geometry":{"type":"Point","coordinates":[112.3,-7.2]}},{"type":"Feature","properties":{"Line":"S124","Sp":"2580.50000000000","X":"641300.50000000000","Y":"9209175.30000000075","NAMOBJ":"Lebakadi","WADMKC":"Sugio","WADMKK":"Lamongan"},"geometry":{"type":"Point","coordinates":[112.3,-7.2]}},{"type":"Feature","properties":{"Line":"S124","Sp":"2584.50000000000","X":"641300.50000000000","Y":"9209125.30000000075","NAMOBJ":"Lebakadi","WADMKC":"Sugio","WADMKK":"Lamongan"},"geometry":{"type":"Point","coordinates":[112.3,-7.2]}},{"type":"Feature","properties":{"Line":"S124","Sp":"2588.50000000000","X":"641300.50000000000","Y":"9209075.30000000075","NAMOBJ":"Lebakadi","WADMKC":"Sugio","WADMKK":"Lamongan"},"geometry":{"type":"Point","coordinates":[112.3,-7.2]}},{"type":"Feature","properties":{"Line":"S124","Sp":"2592.50000000000","X":"641300.50000000000","Y":"9209025.30000000075","NAMOBJ":"Lebakadi","WADMKC":"Sugio","WADMKK":"Lamongan"},"geometry":{"type":"Point","coordinates":[112.3,-7.2]}},{"type":"Feature","properties":{"Line":"S124","Sp":"2596.50000000000","X":"641300.50000000000","Y":"9208975.30000000075","NAMOBJ":"Lebakadi","WADMKC":"Sugio","WADMKK":"Lamongan"},"geometry":{"type":"Point","coordinates":[112.3,-7.2]}},{"type":"Feature","properties":{"Line":"S124","Sp":"2600.50000000000","X":"641300.50000000000","Y":"9208925.30000000075","NAMOBJ":"Lebakadi","WADMKC":"Sugio","WADMKK":"Lamongan"},"geometry":{"type":"Point","coordinates":[112.3,-7.2]}},{"type":"Feature","properties":{"Line":"S124","Sp":"2604.50000000000","X":"641300.50000000000","Y":"9208875.30000000075","NAMOBJ":"Lebakadi","WADMKC":"Sugio","WADMKK":"Lamongan"},"geometry":{"type":"Point","coordinates":[112.3,-7.2]}},{"type":"Feature","properties":{"Line":"S124","Sp":"2608.50000000000","X":"641300.50000000000","Y":"9208825.30000000075","NAMOBJ":"Lebakadi","WADMKC":"Sugio","WADMKK":"Lamongan"},"geometry":{"type":"Point","coordinates":[112.3,-7.2]}},{"type":"Feature","properties":{"Line":"S124","Sp":"2612.50000000000","X":"641300.50000000000","Y":"9208775.30000000075","NAMOBJ":"Lebakadi","WADMKC":"Sugio","WADMKK":"Lamongan"},"geometry":{"type":"Point","coordinates":[112.3,-7.2]}},{"type":"Feature","properties":{"Line":"S124","Sp":"2616.50000000000","X":"641300.50000000000","Y":"9208725.30000000075","NAMOBJ":"Lebakadi","WADMKC":"Sugio","WADMKK":"Lamongan"},"geometry":{"type":"Point","coordinates":[112.3,-7.2]}},{"type":"Feature","properties":{"Line":"S124","Sp":"2620.50000000000","X":"641300.50000000000","Y":"9208675.30000000075","NAMOBJ":"Lebakadi","WADMKC":"Sugio","WADMKK":"Lamongan"},"geometry":{"type":"Point","coordinates":[112.3,-7.2]}},{"type":"Feature","properties":{"Line":"S101","Sp":"2140.50000000000","X":"638475.50000000000","Y":"9208800.30000000075","NAMOBJ":"Pangkatrejo","WADMKC":"Sugio","WADMKK":"Lamongan"},"geometry":{"type":"Point","coordinates":[112.3,-7.2]}},{"type":"Feature","properties":{"Line":"S101","Sp":"2144.50000000000","X":"638525.50000000000","Y":"9208800.30000000075","NAMOBJ":"Pangkatrejo","WADMKC":"Sugio","WADMKK":"Lamongan"},"geometry":{"type":"Point","coordinates":[112.3,-7.2]}},{"type":"Feature","properties":{"Line":"S101","Sp":"2148.50000000000","X":"638575.50000000000","Y":"9208800.30000000075","NAMOBJ":"Pangkatrejo","WADMKC":"Sugio","WADMKK":"Lamongan"},"geometry":{"type":"Point","coordinates":[112.3,-7.2]}},{"type":"Feature","properties":{"Line":"S101","Sp":"2152.50000000000","X":"638625.50000000000","Y":"9208800.30000000075","NAMOBJ":"Pangkatrejo","WADMKC":"Sugio","WADMKK":"Lamongan"},"geometry":{"type":"Point","coordinates":[112.3,-7.2]}},{"type":"Feature","properties":{"Line":"S101","Sp":"2156.50000000000","X":"638675.50000000000","Y":"9208800.30000000075","NAMOBJ":"Pangkatrejo","WADMKC":"Sugio","WADMKK":"Lamongan"},"geometry":{"type":"Point","coordinates":[112.3,-7.2]}},{"type":"Feature","properties":{"Line":"S101","Sp":"2160.50000000000","X":"638725.50000000000","Y":"9208800.30000000075","NAMOBJ":"Pangkatrejo","WADMKC":"Sugio","WADMKK":"Lamongan"},"geometry":{"type":"Point","coordinates":[112.3,-7.2]}},{"type":"Feature","properties":{"Line":"S101","Sp":"2164.50000000000","X":"638775.50000000000","Y":"9208800.30000000075","NAMOBJ":"Pangkatrejo","WADMKC":"Sugio","WADMKK":"Lamongan"},"geometry":{"type":"Point","coordinates":[112.3,-7.2]}},{"type":"Feature","properties":{"Line":"S101","Sp":"2168.50000000000","X":"638825.50000000000","Y":"9208800.30000000075","NAMOBJ":"Pangkatrejo","WADMKC":"Sugio","WADMKK":"Lamongan"},"geometry":{"type":"Point","coordinates":[112.3,-7.2]}},{"type":"Feature","properties":{"Line":"S101","Sp":"2172.50000000000","X":"638875.50000000000","Y":"9208800.30000000075","NAMOBJ":"Pangkatrejo","WADMKC":"Sugio","WADMKK":"Lamongan"},"geometry":{"type":"Point","coordinates":[112.3,-7.2]}},{"type":"Feature","properties":{"Line":"S101","Sp":"2176.50000000000","X":"638925.50000000000","Y":"9208800.30000000075","NAMOBJ":"Pangkatrejo","WADMKC":"Sugio","WADMKK":"Lamongan"},"geometry":{"type":"Point","coordinates":[112.3,-7.2]}},{"type":"Feature","properties":{"Line":"S101","Sp":"2180.50000000000","X":"638975.50000000000","Y":"9208800.30000000075","NAMOBJ":"Pangkatrejo","WADMKC":"Sugio","WADMKK":"Lamongan"},"geometry":{"type":"Point","coordinates":[112.3,-7.2]}},{"type":"Feature","properties":{"Line":"S101","Sp":"2184.50000000000","X":"639025.50000000000","Y":"9208800.30000000075","NAMOBJ":"Pangkatrejo","WADMKC":"Sugio","WADMKK":"Lamongan"},"geometry":{"type":"Point","coordinates":[112.3,-7.2]}},{"type":"Feature","properties":{"Line":"S101","Sp":"2188.50000000000","X":"639075.50000000000","Y":"9208800.30000000075","NAMOBJ":"Pangkatrejo","WADMKC":"Sugio","WADMKK":"Lamongan"},"geometry":{"type":"Point","coordinates":[112.3,-7.2]}},{"type":"Feature","properties":{"Line":"S101","Sp":"2192.50000000000","X":"639125.50000000000","Y":"9208800.30000000075","NAMOBJ":"Pangkatrejo","WADMKC":"Sugio","WADMKK":"Lamongan"},"geometry":{"type":"Point","coordinates":[112.3,-7.2]}},{"type":"Feature","properties":{"Line":"S101","Sp":"2196.50000000000","X":"639175.50000000000","Y":"9208800.30000000075","NAMOBJ":"Pangkatrejo","WADMKC":"Sugio","WADMKK":"Lamongan"},"geometry":{"type":"Point","coordinates":[112.3,-7.2]}},{"type":"Feature","properties":{"Line":"S101","Sp":"2200.50000000000","X":"639225.50000000000","Y":"9208800.30000000075","NAMOBJ":"Pangkatrejo","WADMKC":"Sugio","WADMKK":"Lamongan"},"geometry":{"type":"Point","coordinates":[112.3,-7.2]}},{"type":"Feature","properties":{"Line":"S101","Sp":"2204.50000000000","X":"639275.50000000000","Y":"9208800.30000000075","NAMOBJ":"Pangkatrejo","WADMKC":"Sugio","WADMKK":"Lamongan"},"geometry":{"type":"Point","coordinates":[112.3,-7.2]}},{"type":"Feature","properties":{"Line":"S101","Sp":"2208.50000000000","X":"639325.50000000000","Y":"9208800.30000000075","NAMOBJ":"Pangkatrejo","WADMKC":"Sugio","WADMKK":"Lamongan"},"geometry":{"type":"Point","coordinates":[112.3,-7.2]}},{"type":"Feature","properties":{"Line":"S101","Sp":"2212.50000000000","X":"639375.50000000000","Y":"9208800.30000000075","NAMOBJ":"Pangkatrejo","WADMKC":"Sugio","WADMKK":"Lamongan"},"geometry":{"type":"Point","coordinates":[112.3,-7.2]}},{"type":"Feature","properties":{"Line":"S101","Sp":"2216.50000000000","X":"639425.50000000000","Y":"9208800.30000000075","NAMOBJ":"Pangkatrejo","WADMKC":"Sugio","WADMKK":"Lamongan"},"geometry":{"type":"Point","coordinates":[112.3,-7.2]}},{"type":"Feature","properties":{"Line":"S101","Sp":"2220.50000000000","X":"639475.50000000000","Y":"9208800.30000000075","NAMOBJ":"Pangkatrejo","WADMKC":"Sugio","WADMKK":"Lamongan"},"geometry":{"type":"Point","coordinates":[112.3,-7.2]}},{"type":"Feature","properties":{"Line":"S101","Sp":"2224.50000000000","X":"639525.50000000000","Y":"9208800.30000000075","NAMOBJ":"Pangkatrejo","WADMKC":"Sugio","WADMKK":"Lamongan"},"geometry":{"type":"Point","coordinates":[112.3,-7.2]}},{"type":"Feature","properties":{"Line":"S101","Sp":"2228.50000000000","X":"639575.50000000000","Y":"9208800.30000000075","NAMOBJ":"Pangkatrejo","WADMKC":"Sugio","WADMKK":"Lamongan"},"geometry":{"type":"Point","coordinates":[112.3,-7.2]}},{"type":"Feature","properties":{"Line":"S101","Sp":"2232.50000000000","X":"639625.50000000000","Y":"9208800.30000000075","NAMOBJ":"Pangkatrejo","WADMKC":"Sugio","WADMKK":"Lamongan"},"geometry":{"type":"Point","coordinates":[112.3,-7.2]}},{"type":"Feature","properties":{"Line":"S101","Sp":"2236.50000000000","X":"639675.50000000000","Y":"9208800.30000000075","NAMOBJ":"Pangkatrejo","WADMKC":"Sugio","WADMKK":"Lamongan"},"geometry":{"type":"Point","coordinates":[112.3,-7.2]}},{"type":"Feature","properties":{"Line":"S101","Sp":"2240.50000000000","X":"639725.50000000000","Y":"9208800.30000000075","NAMOBJ":"Pangkatrejo","WADMKC":"Sugio","WADMKK":"Lamongan"},"geometry":{"type":"Point","coordinates":[112.3,-7.2]}},{"type":"Feature","properties":{"Line":"S101","Sp":"2244.50000000000","X":"639775.50000000000","Y":"9208800.30000000075","NAMOBJ":"Pangkatrejo","WADMKC":"Sugio","WADMKK":"Lamongan"},"geometry":{"type":"Point","coordinates":[112.3,-7.2]}},{"type":"Feature","properties":{"Line":"S101","Sp":"2248.50000000000","X":"639825.50000000000","Y":"9208800.30000000075","NAMOBJ":"Pangkatrejo","WADMKC":"Sugio","WADMKK":"Lamongan"},"geometry":{"type":"Point","coordinates":[112.3,-7.2]}},{"type":"Feature","properties":{"Line":"S101","Sp":"2252.50000000000","X":"639875.50000000000","Y":"9208800.30000000075","NAMOBJ":"Pangkatrejo","WADMKC":"Sugio","WADMKK":"Lamongan"},"geometry":{"type":"Point","coordinates":[112.3,-7.2]}},{"type":"Feature","properties":{"Line":"S101","Sp":"2256.50000000000","X":"639925.50000000000","Y":"9208800.30000000075","NAMOBJ":"Pangkatrejo","WADMKC":"Sugio","WADMKK":"Lamongan"},"geometry":{"type":"Point","coordinates":[112.3,-7.2]}},{"type":"Feature","properties":{"Line":"S101","Sp":"2260.50000000000","X":"639975.50000000000","Y":"9208800.30000000075","NAMOBJ":"Pangkatrejo","WADMKC":"Sugio","WADMKK":"Lamongan"},"geometry":{"type":"Point","coordinates":[112.3,-7.2]}},{"type":"Feature","properties":{"Line":"S101","Sp":"2264.50000000000","X":"640025.50000000000","Y":"9208800.30000000075","NAMOBJ":"Pangkatrejo","WADMKC":"Sugio","WADMKK":"Lamongan"},"geometry":{"type":"Point","coordinates":[112.3,-7.2]}},{"type":"Feature","properties":{"Line":"S101","Sp":"2268.50000000000","X":"640075.50000000000","Y":"9208800.30000000075","NAMOBJ":"Pangkatrejo","WADMKC":"Sugio","WADMKK":"Lamongan"},"geometry":{"type":"Point","coordinates":[112.3,-7.2]}},{"type":"Feature","properties":{"Line":"S101","Sp":"2272.50000000000","X":"640125.50000000000","Y":"9208800.30000000075","NAMOBJ":"Pangkatrejo","WADMKC":"Sugio","WADMKK":"Lamongan"},"geometry":{"type":"Point","coordinates":[112.3,-7.2]}},{"type":"Feature","properties":{"Line":"S101","Sp":"2276.50000000000","X":"640175.50000000000","Y":"9208800.30000000075","NAMOBJ":"Pangkatrejo","WADMKC":"Sugio","WADMKK":"Lamongan"},"geometry":{"type":"Point","coordinates":[112.3,-7.2]}},{"type":"Feature","properties":{"Line":"S101","Sp":"2280.50000000000","X":"640225.50000000000","Y":"9208800.30000000075","NAMOBJ":"Pangkatrejo","WADMKC":"Sugio","WADMKK":"Lamongan"},"geometry":{"type":"Point","coordinates":[112.3,-7.2]}},{"type":"Feature","properties":{"Line":"S101","Sp":"2284.50000000000","X":"640275.50000000000","Y":"9208800.30000000075","NAMOBJ":"Pangkatrejo","WADMKC":"Sugio","WADMKK":"Lamongan"},"geometry":{"type":"Point","coordinates":[112.3,-7.2]}},{"type":"Feature","properties":{"Line":"S101","Sp":"2288.50000000000","X":"640325.50000000000","Y":"9208800.30000000075","NAMOBJ":"Pangkatrejo","WADMKC":"Sugio","WADMKK":"Lamongan"},"geometry":{"type":"Point","coordinates":[112.3,-7.2]}},{"type":"Feature","properties":{"Line":"S101","Sp":"2292.50000000000","X":"640375.50000000000","Y":"9208800.30000000075","NAMOBJ":"Pangkatrejo","WADMKC":"Sugio","WADMKK":"Lamongan"},"geometry":{"type":"Point","coordinates":[112.3,-7.2]}},{"type":"Feature","properties":{"Line":"S118","Sp":"2476.50000000000","X":"638300.50000000000","Y":"9209425.30000000075","NAMOBJ":"Pangkatrejo","WADMKC":"Sugio","WADMKK":"Lamongan"},"geometry":{"type":"Point","coordinates":[112.3,-7.2]}},{"type":"Feature","properties":{"Line":"S118","Sp":"2480.50000000000","X":"638300.50000000000","Y":"9209375.30000000075","NAMOBJ":"Pangkatrejo","WADMKC":"Sugio","WADMKK":"Lamongan"},"geometry":{"type":"Point","coordinates":[112.3,-7.2]}},{"type":"Feature","properties":{"Line":"S118","Sp":"2536.50000000000","X":"638300.50000000000","Y":"9208675.30000000075","NAMOBJ":"Pangkatrejo","WADMKC":"Sugio","WADMKK":"Lamongan"},"geometry":{"type":"Point","coordinates":[112.3,-7.2]}},{"type":"Feature","properties":{"Line":"S118","Sp":"2540.50000000000","X":"638300.50000000000","Y":"9208625.30000000075","NAMOBJ":"Pangkatrejo","WADMKC":"Sugio","WADMKK":"Lamongan"},"geometry":{"type":"Point","coordinates":[112.3,-7.2]}},{"type":"Feature","properties":{"Line":"S118","Sp":"2544.50000000000","X":"638300.50000000000","Y":"9208575.30000000075","NAMOBJ":"Pangkatrejo","WADMKC":"Sugio","WADMKK":"Lamongan"},"geometry":{"type":"Point","coordinates":[112.3,-7.2]}},{"type":"Feature","properties":{"Line":"S118","Sp":"2548.50000000000","X":"638300.50000000000","Y":"9208525.30000000075","NAMOBJ":"Pangkatrejo","WADMKC":"Sugio","WADMKK":"Lamongan"},"geometry":{"type":"Point","coordinates":[112.3,-7.2]}},{"type":"Feature","properties":{"Line":"S118","Sp":"2552.50000000000","X":"638300.50000000000","Y":"9208475.30000000075","NAMOBJ":"Pangkatrejo","WADMKC":"Sugio","WADMKK":"Lamongan"},"geometry":{"type":"Point","coordinates":[112.3,-7.2]}},{"type":"Feature","properties":{"Line":"S118","Sp":"2556.50000000000","X":"638300.50000000000","Y":"9208425.30000000075","NAMOBJ":"Pangkatrejo","WADMKC":"Sugio","WADMKK":"Lamongan"},"geometry":{"type":"Point","coordinates":[112.3,-7.2]}},{"type":"Feature","properties":{"Line":"S118","Sp":"2560.50000000000","X":"638300.50000000000","Y":"9208375.30000000075","NAMOBJ":"Pangkatrejo","WADMKC":"Sugio","WADMKK":"Lamongan"},"geometry":{"type":"Point","coordinates":[112.3,-7.2]}},{"type":"Feature","properties":{"Line":"S118","Sp":"2564.50000000000","X":"638300.50000000000","Y":"9208325.30000000075","NAMOBJ":"Pangkatrejo","WADMKC":"Sugio","WADMKK":"Lamongan"},"geometry":{"type":"Point","coordinates":[112.3,-7.2]}},{"type":"Feature","properties":{"Line":"S118","Sp":"2568.50000000000","X":"638300.50000000000","Y":"9208275.30000000075","NAMOBJ":"Pangkatrejo","WADMKC":"Sugio","WADMKK":"Lamongan"},"geometry":{"type":"Point","coordinates":[112.3,-7.2]}},{"type":"Feature","properties":{"Line":"S118","Sp":"2572.50000000000","X":"638300.50000000000","Y":"9208225.30000000075","NAMOBJ":"Pangkatrejo","WADMKC":"Sugio","WADMKK":"Lamongan"},"geometry":{"type":"Point","coordinates":[112.3,-7.2]}},{"type":"Feature","properties":{"Line":"S120","Sp":"2468.50000000000","X":"639300.50000000000","Y":"9209475.30000000075","NAMOBJ":"Pangkatrejo","WADMKC":"Sugio","WADMKK":"Lamongan"},"geometry":{"type":"Point","coordinates":[112.3,-7.2]}},{"type":"Feature","properties":{"Line":"S120","Sp":"2472.50000000000","X":"639300.50000000000","Y":"9209425.30000000075","NAMOBJ":"Pangkatrejo","WADMKC":"Sugio","WADMKK":"Lamongan"},"geometry":{"type":"Point","coordinates":[112.3,-7.2]}},{"type":"Feature","properties":{"Line":"S120","Sp":"2476.50000000000","X":"639300.50000000000","Y":"9209375.30000000075","NAMOBJ":"Pangkatrejo","WADMKC":"Sugio","WADMKK":"Lamongan"},"geometry":{"type":"Point","coordinates":[112.3,-7.2]}},{"type":"Feature","properties":{"Line":"S120","Sp":"2480.50000000000","X":"639300.50000000000","Y":"9209325.30000000075","NAMOBJ":"Pangkatrejo","WADMKC":"Sugio","WADMKK":"Lamongan"},"geometry":{"type":"Point","coordinates":[112.3,-7.2]}},{"type":"Feature","properties":{"Line":"S120","Sp":"2484.50000000000","X":"639300.50000000000","Y":"9209275.30000000075","NAMOBJ":"Pangkatrejo","WADMKC":"Sugio","WADMKK":"Lamongan"},"geometry":{"type":"Point","coordinates":[112.3,-7.2]}},{"type":"Feature","properties":{"Line":"S120","Sp":"2488.50000000000","X":"639300.50000000000","Y":"9209225.30000000075","NAMOBJ":"Pangkatrejo","WADMKC":"Sugio","WADMKK":"Lamongan"},"geometry":{"type":"Point","coordinates":[112.3,-7.2]}},{"type":"Feature","properties":{"Line":"S120","Sp":"2492.50000000000","X":"639300.50000000000","Y":"9209175.30000000075","NAMOBJ":"Pangkatrejo","WADMKC":"Sugio","WADMKK":"Lamongan"},"geometry":{"type":"Point","coordinates":[112.3,-7.2]}},{"type":"Feature","properties":{"Line":"S120","Sp":"2496.50000000000","X":"639300.50000000000","Y":"9209125.30000000075","NAMOBJ":"Pangkatrejo","WADMKC":"Sugio","WADMKK":"Lamongan"},"geometry":{"type":"Point","coordinates":[112.3,-7.2]}},{"type":"Feature","properties":{"Line":"S120","Sp":"2500.50000000000","X":"639300.50000000000","Y":"9209075.30000000075","NAMOBJ":"Pangkatrejo","WADMKC":"Sugio","WADMKK":"Lamongan"},"geometry":{"type":"Point","coordinates":[112.3,-7.2]}},{"type":"Feature","properties":{"Line":"S120","Sp":"2504.50000000000","X":"639300.50000000000","Y":"9209025.30000000075","NAMOBJ":"Pangkatrejo","WADMKC":"Sugio","WADMKK":"Lamongan"},"geometry":{"type":"Point","coordinates":[112.3,-7.2]}},{"type":"Feature","properties":{"Line":"S120","Sp":"2508.50000000000","X":"639300.50000000000","Y":"9208975.30000000075","NAMOBJ":"Pangkatrejo","WADMKC":"Sugio","WADMKK":"Lamongan"},"geometry":{"type":"Point","coordinates":[112.3,-7.2]}},{"type":"Feature","properties":{"Line":"S120","Sp":"2512.50000000000","X":"639300.50000000000","Y":"9208925.30000000075","NAMOBJ":"Pangkatrejo","WADMKC":"Sugio","WADMKK":"Lamongan"},"geometry":{"type":"Point","coordinates":[112.3,-7.2]}},{"type":"Feature","properties":{"Line":"S120","Sp":"2516.50000000000","X":"639300.50000000000","Y":"9208875.30000000075","NAMOBJ":"Pangkatrejo","WADMKC":"Sugio","WADMKK":"Lamongan"},"geometry":{"type":"Point","coordinates":[112.3,-7.2]}},{"type":"Feature","properties":{"Line":"S120","Sp":"2520.50000000000","X":"639300.50000000000","Y":"9208825.30000000075","NAMOBJ":"Pangkatrejo","WADMKC":"Sugio","WADMKK":"Lamongan"},"geometry":{"type":"Point","coordinates":[112.3,-7.2]}},{"type":"Feature","properties":{"Line":"S120","Sp":"2524.50000000000","X":"639300.50000000000","Y":"9208775.30000000075","NAMOBJ":"Pangkatrejo","WADMKC":"Sugio","WADMKK":"Lamongan"},"geometry":{"type":"Point","coordinates":[112.3,-7.2]}},{"type":"Feature","properties":{"Line":"S120","Sp":"2528.50000000000","X":"639300.50000000000","Y":"9208725.30000000075","NAMOBJ":"Pangkatrejo","WADMKC":"Sugio","WADMKK":"Lamongan"},"geometry":{"type":"Point","coordinates":[112.3,-7.2]}},{"type":"Feature","properties":{"Line":"S120","Sp":"2532.50000000000","X":"639300.50000000000","Y":"9208675.30000000075","NAMOBJ":"Pangkatrejo","WADMKC":"Sugio","WADMKK":"Lamongan"},"geometry":{"type":"Point","coordinates":[112.3,-7.2]}},{"type":"Feature","properties":{"Line":"S120","Sp":"2536.50000000000","X":"639300.50000000000","Y":"9208625.30000000075","NAMOBJ":"Pangkatrejo","WADMKC":"Sugio","WADMKK":"Lamongan"},"geometry":{"type":"Point","coordinates":[112.3,-7.2]}},{"type":"Feature","properties":{"Line":"S120","Sp":"2540.50000000000","X":"639300.50000000000","Y":"9208575.30000000075","NAMOBJ":"Pangkatrejo","WADMKC":"Sugio","WADMKK":"Lamongan"},"geometry":{"type":"Point","coordinates":[112.3,-7.2]}},{"type":"Feature","properties":{"Line":"S120","Sp":"2544.50000000000","X":"639300.50000000000","Y":"9208525.30000000075","NAMOBJ":"Pangkatrejo","WADMKC":"Sugio","WADMKK":"Lamongan"},"geometry":{"type":"Point","coordinates":[112.3,-7.2]}},{"type":"Feature","properties":{"Line":"S120","Sp":"2548.50000000000","X":"639300.50000000000","Y":"9208475.30000000075","NAMOBJ":"Pangkatrejo","WADMKC":"Sugio","WADMKK":"Lamongan"},"geometry":{"type":"Point","coordinates":[112.3,-7.2]}},{"type":"Feature","properties":{"Line":"S120","Sp":"2552.50000000000","X":"639300.50000000000","Y":"9208425.30000000075","NAMOBJ":"Pangkatrejo","WADMKC":"Sugio","WADMKK":"Lamongan"},"geometry":{"type":"Point","coordinates":[112.3,-7.2]}},{"type":"Feature","properties":{"Line":"S120","Sp":"2556.50000000000","X":"639300.50000000000","Y":"9208375.30000000075","NAMOBJ":"Pangkatrejo","WADMKC":"Sugio","WADMKK":"Lamongan"},"geometry":{"type":"Point","coordinates":[112.3,-7.2]}},{"type":"Feature","properties":{"Line":"S120","Sp":"2560.50000000000","X":"639300.50000000000","Y":"9208325.30000000075","NAMOBJ":"Pangkatrejo","WADMKC":"Sugio","WADMKK":"Lamongan"},"geometry":{"type":"Point","coordinates":[112.3,-7.2]}},{"type":"Feature","properties":{"Line":"S120","Sp":"2564.50000000000","X":"639300.50000000000","Y":"9208275.30000000075","NAMOBJ":"Pangkatrejo","WADMKC":"Sugio","WADMKK":"Lamongan"},"geometry":{"type":"Point","coordinates":[112.3,-7.2]}},{"type":"Feature","properties":{"Line":"S120","Sp":"2568.50000000000","X":"639300.50000000000","Y":"9208225.30000000075","NAMOBJ":"Pangkatrejo","WADMKC":"Sugio","WADMKK":"Lamongan"},"geometry":{"type":"Point","coordinates":[112.3,-7.2]}},{"type":"Feature","properties":{"Line":"S120","Sp":"2572.50000000000","X":"639300.50000000000","Y":"9208175.30000000075","NAMOBJ":"Pangkatrejo","WADMKC":"Sugio","WADMKK":"Lamongan"},"geometry":{"type":"Point","coordinates":[112.3,-7.2]}},{"type":"Feature","properties":{"Line":"S120","Sp":"2576.50000000000","X":"639300.50000000000","Y":"9208125.30000000075","NAMOBJ":"Pangkatrejo","WADMKC":"Sugio","WADMKK":"Lamongan"},"geometry":{"type":"Point","coordinates":[112.3,-7.2]}},{"type":"Feature","properties":{"Line":"S120","Sp":"2580.50000000000","X":"639300.50000000000","Y":"9208075.30000000075","NAMOBJ":"Pangkatrejo","WADMKC":"Sugio","WADMKK":"Lamongan"},"geometry":{"type":"Point","coordinates":[112.3,-7.2]}},{"type":"Feature","properties":{"Line":"S120","Sp":"2584.50000000000","X":"639300.50000000000","Y":"9208025.30000000075","NAMOBJ":"Pangkatrejo","WADMKC":"Sugio","WADMKK":"Lamongan"},"geometry":{"type":"Point","coordinates":[112.3,-7.2]}},{"type":"Feature","properties":{"Line":"S122","Sp":"2528.50000000000","X":"640300.50000000000","Y":"9209275.30000000075","NAMOBJ":"Pangkatrejo","WADMKC":"Sugio","WADMKK":"Lamongan"},"geometry":{"type":"Point","coordinates":[112.3,-7.2]}},{"type":"Feature","properties":{"Line":"S122","Sp":"2532.50000000000","X":"640300.50000000000","Y":"9209225.30000000075","NAMOBJ":"Pangkatrejo","WADMKC":"Sugio","WADMKK":"Lamongan"},"geometry":{"type":"Point","coordinates":[112.3,-7.2]}},{"type":"Feature","properties":{"Line":"S122","Sp":"2536.50000000000","X":"640300.50000000000","Y":"9209175.30000000075","NAMOBJ":"Pangkatrejo","WADMKC":"Sugio","WADMKK":"Lamongan"},"geometry":{"type":"Point","coordinates":[112.3,-7.2]}},{"type":"Feature","properties":{"Line":"S122","Sp":"2540.50000000000","X":"640300.50000000000","Y":"9209125.30000000075","NAMOBJ":"Pangkatrejo","WADMKC":"Sugio","WADMKK":"Lamongan"},"geometry":{"type":"Point","coordinates":[112.3,-7.2]}},{"type":"Feature","properties":{"Line":"S122","Sp":"2544.50000000000","X":"640300.50000000000","Y":"9209075.30000000075","NAMOBJ":"Pangkatrejo","WADMKC":"Sugio","WADMKK":"Lamongan"},"geometry":{"type":"Point","coordinates":[112.3,-7.2]}},{"type":"Feature","properties":{"Line":"S122","Sp":"2548.50000000000","X":"640300.50000000000","Y":"9209025.30000000075","NAMOBJ":"Pangkatrejo","WADMKC":"Sugio","WADMKK":"Lamongan"},"geometry":{"type":"Point","coordinates":[112.3,-7.2]}},{"type":"Feature","properties":{"Line":"S122","Sp":"2552.50000000000","X":"640300.50000000000","Y":"9208975.30000000075","NAMOBJ":"Pangkatrejo","WADMKC":"Sugio","WADMKK":"Lamongan"},"geometry":{"type":"Point","coordinates":[112.3,-7.2]}},{"type":"Feature","properties":{"Line":"S122","Sp":"2556.50000000000","X":"640300.50000000000","Y":"9208925.30000000075","NAMOBJ":"Pangkatrejo","WADMKC":"Sugio","WADMKK":"Lamongan"},"geometry":{"type":"Point","coordinates":[112.3,-7.2]}},{"type":"Feature","properties":{"Line":"S122","Sp":"2560.50000000000","X":"640300.50000000000","Y":"9208875.30000000075","NAMOBJ":"Pangkatrejo","WADMKC":"Sugio","WADMKK":"Lamongan"},"geometry":{"type":"Point","coordinates":[112.3,-7.2]}},{"type":"Feature","properties":{"Line":"S122","Sp":"2564.50000000000","X":"640300.50000000000","Y":"9208825.30000000075","NAMOBJ":"Pangkatrejo","WADMKC":"Sugio","WADMKK":"Lamongan"},"geometry":{"type":"Point","coordinates":[112.3,-7.2]}},{"type":"Feature","properties":{"Line":"S122","Sp":"2568.50000000000","X":"640300.50000000000","Y":"9208775.30000000075","NAMOBJ":"Pangkatrejo","WADMKC":"Sugio","WADMKK":"Lamongan"},"geometry":{"type":"Point","coordinates":[112.3,-7.2]}},{"type":"Feature","properties":{"Line":"S122","Sp":"2572.50000000000","X":"640300.50000000000","Y":"9208725.30000000075","NAMOBJ":"Pangkatrejo","WADMKC":"Sugio","WADMKK":"Lamongan"},"geometry":{"type":"Point","coordinates":[112.3,-7.2]}},{"type":"Feature","properties":{"Line":"S122","Sp":"2576.50000000000","X":"640300.50000000000","Y":"9208675.30000000075","NAMOBJ":"Pangkatrejo","WADMKC":"Sugio","WADMKK":"Lamongan"},"geometry":{"type":"Point","coordinates":[112.3,-7.2]}},{"type":"Feature","properties":{"Line":"S122","Sp":"2580.50000000000","X":"640300.50000000000","Y":"9208625.30000000075","NAMOBJ":"Pangkatrejo","WADMKC":"Sugio","WADMKK":"Lamongan"},"geometry":{"type":"Point","coordinates":[112.3,-7.2]}},{"type":"Feature","properties":{"Line":"S122","Sp":"2584.50000000000","X":"640300.50000000000","Y":"9208575.30000000075","NAMOBJ":"Pangkatrejo","WADMKC":"Sugio","WADMKK":"Lamongan"},"geometry":{"type":"Point","coordinates":[112.3,-7.2]}},{"type":"Feature","properties":{"Line":"S122","Sp":"2588.50000000000","X":"640300.50000000000","Y":"9208525.30000000075","NAMOBJ":"Pangkatrejo","WADMKC":"Sugio","WADMKK":"Lamongan"},"geometry":{"type":"Point","coordinates":[112.3,-7.2]}},{"type":"Feature","properties":{"Line":"S122","Sp":"2592.50000000000","X":"640300.50000000000","Y":"9208475.30000000075","NAMOBJ":"Pangkatrejo","WADMKC":"Sugio","WADMKK":"Lamongan"},"geometry":{"type":"Point","coordinates":[112.3,-7.2]}},{"type":"Feature","properties":{"Line":"S122","Sp":"2596.50000000000","X":"640300.50000000000","Y":"9208425.30000000075","NAMOBJ":"Pangkatrejo","WADMKC":"Sugio","WADMKK":"Lamongan"},"geometry":{"type":"Point","coordinates":[112.3,-7.2]}},{"type":"Feature","properties":{"Line":"S122","Sp":"2600.50000000000","X":"640300.50000000000","Y":"9208375.30000000075","NAMOBJ":"Pangkatrejo","WADMKC":"Sugio","WADMKK":"Lamongan"},"geometry":{"type":"Point","coordinates":[112.3,-7.2]}},{"type":"Feature","properties":{"Line":"S122","Sp":"2604.50000000000","X":"640300.50000000000","Y":"9208325.30000000075","NAMOBJ":"Pangkatrejo","WADMKC":"Sugio","WADMKK":"Lamongan"},"geometry":{"type":"Point","coordinates":[112.3,-7.2]}},{"type":"Feature","properties":{"Line":"S122","Sp":"2608.50000000000","X":"640300.50000000000","Y":"9208275.30000000075","NAMOBJ":"Pangkatrejo","WADMKC":"Sugio","WADMKK":"Lamongan"},"geometry":{"type":"Point","coordinates":[112.3,-7.2]}},{"type":"Feature","properties":{"Line":"S122","Sp":"2612.50000000000","X":"640300.50000000000","Y":"9208225.30000000075","NAMOBJ":"Pangkatrejo","WADMKC":"Sugio","WADMKK":"Lamongan"},"geometry":{"type":"Point","coordinates":[112.3,-7.2]}},{"type":"Feature","properties":{"Line":"S122","Sp":"2616.50000000000","X":"640300.50000000000","Y":"9208175.30000000075","NAMOBJ":"Pangkatrejo","WADMKC":"Sugio","WADMKK":"Lamongan"},"geometry":{"type":"Point","coordinates":[112.3,-7.2]}},{"type":"Feature","properties":{"Line":"S122","Sp":"2620.50000000000","X":"640300.50000000000","Y":"9208125.30000000075","NAMOBJ":"Pangkatrejo","WADMKC":"Sugio","WADMKK":"Lamongan"},"geometry":{"type":"Point","coordinates":[112.3,-7.2]}},{"type":"Feature","properties":{"Line":"S122","Sp":"2624.50000000000","X":"640300.50000000000","Y":"9208075.30000000075","NAMOBJ":"Pangkatrejo","WADMKC":"Sugio","WADMKK":"Lamongan"},"geometry":{"type":"Point","coordinates":[112.3,-7.2]}},{"type":"Feature","properties":{"Line":"S122","Sp":"2628.50000000000","X":"640300.50000000000","Y":"9208025.30000000075","NAMOBJ":"Pangkatrejo","WADMKC":"Sugio","WADMKK":"Lamongan"},"geometry":{"type":"Point","coordinates":[112.3,-7.2]}},{"type":"Feature","properties":{"Line":"S124","Sp":"2648.50000000000","X":"641300.50000000000","Y":"9208325.30000000075","NAMOBJ":"Supenuh","WADMKC":"Sugio","WADMKK":"Lamongan"},"geometry":{"type":"Point","coordinates":[112.3,-7.2]}},{"type":"Feature","properties":{"Line":"S124","Sp":"2660.50000000000","X":"641300.50000000000","Y":"9208175.30000000075","NAMOBJ":"Supenuh","WADMKC":"Sugio","WADMKK":"Lamongan"},"geometry":{"type":"Point","coordinates":[112.3,-7.2]}},{"type":"Feature","properties":{"Line":"S124","Sp":"2664.50000000000","X":"641300.50000000000","Y":"9208125.30000000075","NAMOBJ":"Supenuh","WADMKC":"Sugio","WADMKK":"Lamongan"},"geometry":{"type":"Point","coordinates":[112.3,-7.2]}},{"type":"Feature","properties":{"Line":"S124","Sp":"2668.50000000000","X":"641300.50000000000","Y":"9208075.30000000075","NAMOBJ":"Supenuh","WADMKC":"Sugio","WADMKK":"Lamongan"},"geometry":{"type":"Point","coordinates":[112.3,-7.2]}},{"type":"Feature","properties":{"Line":"S124","Sp":"2672.50000000000","X":"641300.50000000000","Y":"9208025.30000000075","NAMOBJ":"Supenuh","WADMKC":"Sugio","WADMKK":"Lamongan"},"geometry":{"type":"Point","coordinates":[112.3,-7.2]}},{"type":"Feature","properties":{"Line":"S124","Sp":"2676.50000000000","X":"641300.50000000000","Y":"9207975.30000000075","NAMOBJ":"Supenuh","WADMKC":"Sugio","WADMKK":"Lamongan"},"geometry":{"type":"Point","coordinates":[112.3,-7.2]}},{"type":"Feature","properties":{"Line":"S124","Sp":"2680.50000000000","X":"641300.50000000000","Y":"9207925.30000000075","NAMOBJ":"Supenuh","WADMKC":"Sugio","WADMKK":"Lamongan"},"geometry":{"type":"Point","coordinates":[112.3,-7.2]}},{"type":"Feature","properties":{"Line":"S124","Sp":"2684.50000000000","X":"641300.50000000000","Y":"9207875.30000000075","NAMOBJ":"Supenuh","WADMKC":"Sugio","WADMKK":"Lamongan"},"geometry":{"type":"Point","coordinates":[112.3,-7.2]}},{"type":"Feature","properties":{"Line":"S124","Sp":"2688.50000000000","X":"641300.50000000000","Y":"9207825.30000000075","NAMOBJ":"Supenuh","WADMKC":"Sugio","WADMKK":"Lamongan"},"geometry":{"type":"Point","coordinates":[112.3,-7.2]}},{"type":"Feature","properties":{"Line":"S124","Sp":"2692.50000000000","X":"641300.50000000000","Y":"9207775.30000000075","NAMOBJ":"Supenuh","WADMKC":"Sugio","WADMKK":"Lamongan"},"geometry":{"type":"Point","coordinates":[112.3,-7.2]}},{"type":"Feature","properties":{"Line":"S124","Sp":"2696.50000000000","X":"641300.50000000000","Y":"9207725.30000000075","NAMOBJ":"Supenuh","WADMKC":"Sugio","WADMKK":"Lamongan"},"geometry":{"type":"Point","coordinates":[112.3,-7.2]}},{"type":"Feature","properties":{"Line":"S124","Sp":"2700.50000000000","X":"641300.50000000000","Y":"9207675.30000000075","NAMOBJ":"Supenuh","WADMKC":"Sugio","WADMKK":"Lamongan"},"geometry":{"type":"Point","coordinates":[112.3,-7.2]}},{"type":"Feature","properties":{"Line":"S124","Sp":"2704.50000000000","X":"641300.50000000000","Y":"9207625.30000000075","NAMOBJ":"Supenuh","WADMKC":"Sugio","WADMKK":"Lamongan"},"geometry":{"type":"Point","coordinates":[112.3,-7.2]}},{"type":"Feature","properties":{"Line":"S124","Sp":"2740.50000000000","X":"641300.50000000000","Y":"9207175.30000000075","NAMOBJ":"Supenuh","WADMKC":"Sugio","WADMKK":"Lamongan"},"geometry":{"type":"Point","coordinates":[112.3,-7.2]}},{"type":"Feature","properties":{"Line":"S124","Sp":"2744.50000000000","X":"641300.50000000000","Y":"9207125.30000000075","NAMOBJ":"Supenuh","WADMKC":"Sugio","WADMKK":"Lamongan"},"geometry":{"type":"Point","coordinates":[112.3,-7.2]}},{"type":"Feature","properties":{"Line":"S124","Sp":"2748.50000000000","X":"641300.50000000000","Y":"9207075.30000000075","NAMOBJ":"Supenuh","WADMKC":"Sugio","WADMKK":"Lamongan"},"geometry":{"type":"Point","coordinates":[112.3,-7.2]}},{"type":"Feature","properties":{"Line":"S124","Sp":"2752.50000000000","X":"641300.50000000000","Y":"9207025.30000000075","NAMOBJ":"Supenuh","WADMKC":"Sugio","WADMKK":"Lamongan"},"geometry":{"type":"Point","coordinates":[112.3,-7.2]}},{"type":"Feature","properties":{"Line":"S124","Sp":"2756.50000000000","X":"641300.50000000000","Y":"9206975.30000000075","NAMOBJ":"Supenuh","WADMKC":"Sugio","WADMKK":"Lamongan"},"geometry":{"type":"Point","coordinates":[112.3,-7.2]}}]}